{"type": "FeatureCollection", "features": [{"type": "Feature", "geometry": {"type": "Polygon", "coordinates": [[[13.754103, 51.061719], [13.753653, 51.062169], [13.753653, 51.064867], [13.754103, 51.065316], [13.755002, 51.065316], [13.755902, 51.066216], [13.758599, 51.066216], [13.760398, 51.064417], [13.762197, 51.064417], [13.762646, 51.063967], [13.758599, 51.059921], [13.7577, 51.06082], [13.756801, 51.06082], [13.755902, 51.061719], [13.754103, 51.061719]]]}, "properties": {"addr:city": "Dresden", "addr:country": "DE", "addr:housenumber": "63", "addr:postcode": "01099", "addr:street": "Bautzner Stra\u00dfe", "amenity": "cafe", "contact:phone": "+49 351 8996649", "contact:website": "http://www.cafe-neustadt.com", "cuisine": "german", "diaper": "no", "gay": "welcome", "name": "Caf\u00e9 Neustadt", "opening_hours": "Mo-Fr 07:30+; Sa,Su 09:00+", "wheelchair": "no", "__nodeId": 67353988}}, {"type": "Feature", "geometry": {"type": "Polygon", "coordinates": [[[13.752584, 51.06568], [13.752135, 51.06613], [13.752135, 51.067029], [13.752584, 51.067479], [13.753484, 51.067479], [13.754383, 51.068378], [13.756182, 51.068378], [13.757081, 51.067479], [13.75798, 51.067479], [13.758879, 51.068378], [13.759329, 51.067928], [13.759329, 51.06613], [13.760228, 51.065231], [13.759779, 51.064781], [13.758879, 51.064781], [13.75843, 51.064331], [13.75843, 51.063432], [13.75798, 51.062982], [13.757081, 51.063882], [13.753484, 51.063882], [13.753034, 51.064331], [13.753034, 51.065231], [13.752584, 51.06568]]]}, "properties": {"addr:city": "Dresden", "addr:country": "DE", "addr:housenumber": "66", "addr:postcode": "01099", "addr:street": "Louisenstra\u00dfe", "amenity": "cafe", "name": "Cafe Combo", "opening_hours": "09:00+", "outdoor_seating": "yes", "smoking": "separated", "survey:date": "2016-09-09", "takeaway": "yes", "wheelchair": "no", "__nodeId": 265489168}}, {"type": "Feature", "geometry": {"type": "Polygon", "coordinates": [[[13.730349, 51.050542], [13.729899, 51.050992], [13.729899, 51.051891], [13.732147, 51.054139], [13.736644, 51.054139], [13.737093, 51.053689], [13.737093, 51.05279], [13.737543, 51.052341], [13.738442, 51.052341], [13.739791, 51.050992], [13.737543, 51.048743], [13.732147, 51.048743], [13.731698, 51.049193], [13.731698, 51.050092], [13.731248, 51.050542], [13.730349, 51.050542]]]}, "properties": {"addr:city": "Dresden", "addr:housenumber": "24", "addr:postcode": "01067", "addr:street": "Wilsdruffer Stra\u00dfe", "amenity": "fast_food", "cuisine": "curry", "name": "curry24", "opening_hours": "Mo-Fr 08:00+; Sa,Su 11:00+", "phone": "+49 351 48433877", "website": "www.curry-24.de", "wheelchair": "yes", "__nodeId": 344886610}}, {"type": "Feature", "geometry": {"type": "Polygon", "coordinates": [[[13.762205, 51.035978], [13.761756, 51.036428], [13.761756, 51.038227], [13.763105, 51.039576], [13.7694, 51.039576], [13.769849, 51.039126], [13.769849, 51.035529], [13.7685, 51.03418], [13.767601, 51.035079], [13.764004, 51.035079], [13.763105, 51.035978], [13.762205, 51.035978]]]}, "properties": {"addr:city": "Dresden", "addr:country": "DE", "addr:housenumber": "9", "addr:postcode": "01219", "addr:street": "Hauptallee", "amenity": "cafe", "name": "Sommercaf\u00e9 / Wintercaf\u00e9 am Palaisteich", "opening_hours": "11:00+", "operator": "Born Food & Beverage-Management GmbH", "outdoor_seating": "yes", "wheelchair": "yes", "__nodeId": 442368234}}, {"type": "Feature", "geometry": {"type": "Polygon", "coordinates": [[[13.745335, 51.062613], [13.744886, 51.063063], [13.744886, 51.065761], [13.746235, 51.06711], [13.747134, 51.06711], [13.747583, 51.06666], [13.747583, 51.065761], [13.748033, 51.065311], [13.748932, 51.065311], [13.751181, 51.063063], [13.750731, 51.062613], [13.748033, 51.062613], [13.747134, 51.061714], [13.746235, 51.061714], [13.745335, 51.062613]]]}, "properties": {"addr:city": "Dresden", "addr:housenumber": "9", "addr:postcode": "01099", "addr:street": "Alaunstra\u00dfe", "drink:coffee": "yes", "name": "Ron's Backhaus", "opening_hours": "Mo-Su 07:00+", "shop": "bakery", "survey:date": "2016-09-03", "website": "http://madebyrons.de", "wheelchair": "no", "__nodeId": 529830121}}, {"type": "Feature", "geometry": {"type": "Polygon", "coordinates": [[[13.733222, 51.046619], [13.732772, 51.047069], [13.732772, 51.047968], [13.734121, 51.049317], [13.738617, 51.049317], [13.740416, 51.047519], [13.742214, 51.047519], [13.742664, 51.047069], [13.741315, 51.04572], [13.740416, 51.046619], [13.739517, 51.046619], [13.739067, 51.04617], [13.739067, 51.04527], [13.738617, 51.044821], [13.736819, 51.044821], [13.735919, 51.043922], [13.73547, 51.044371], [13.73547, 51.04527], [13.73502, 51.04572], [13.734121, 51.04572], [13.733222, 51.046619]]]}, "properties": {"amenity": "fast_food", "cuisine": "kebab", "name": "Habibi Kebab", "opening_hours": "Mo-Su 11:00+", "wheelchair": "limited", "__nodeId": 617303214}}, {"type": "Feature", "geometry": {"type": "Polygon", "coordinates": [[[13.753171, 51.0646], [13.752721, 51.06505], [13.752721, 51.066848], [13.753171, 51.067298], [13.75407, 51.067298], [13.754969, 51.068197], [13.759466, 51.068197], [13.759915, 51.067748], [13.759915, 51.065949], [13.757667, 51.063701], [13.756768, 51.063701], [13.755869, 51.062802], [13.754969, 51.062802], [13.753171, 51.0646]]]}, "properties": {"addr:city": "Dresden", "addr:housenumber": "37", "addr:postcode": "01099", "addr:street": "Martin-Luther-Stra\u00dfe", "amenity": "cafe", "description": "Shisha Lounge", "name": "Habibi Caf\u00e8", "opening_hours": "Mo-Su 17:00+", "outdoor_seating": "yes", "shisha": "yes", "smoking": "yes", "survey:date": "2016-09-09", "website": "http://www.habibicafe.de/", "wheelchair": "no", "__nodeId": 931565908}}, {"type": "Feature", "geometry": {"type": "Polygon", "coordinates": [[[13.752304, 51.068452], [13.751405, 51.068452], [13.750955, 51.068901], [13.750955, 51.069801], [13.751405, 51.07025], [13.752304, 51.07025], [13.754103, 51.072049], [13.755901, 51.072049], [13.756351, 51.071599], [13.756351, 51.0707], [13.756801, 51.07025], [13.758599, 51.07025], [13.759948, 51.068901], [13.7577, 51.066653], [13.753204, 51.066653], [13.752754, 51.067103], [13.752754, 51.068002], [13.752304, 51.068452]]]}, "properties": {"addr:city": "Dresden", "addr:country": "DE", "addr:housenumber": "34", "addr:postcode": "01099", "addr:street": "G\u00f6rlitzer Stra\u00dfe", "amenity": "fast_food", "cuisine": "kebab", "name": "Bosporus", "opening_hours": "Mo-Su 11:30+", "takeaway": "yes", "wheelchair": "limited", "__nodeId": 931565915}}, {"type": "Feature", "geometry": {"type": "Polygon", "coordinates": [[[13.758814, 51.023773], [13.758365, 51.024222], [13.758365, 51.026021], [13.760613, 51.028269], [13.763311, 51.028269], [13.76376, 51.027819], [13.76376, 51.02692], [13.76421, 51.02647], [13.765109, 51.02647], [13.766458, 51.025122], [13.763311, 51.021974], [13.762411, 51.022873], [13.759713, 51.022873], [13.758814, 51.023773]]]}, "properties": {"addr:city": "Dresden", "addr:housenumber": "17", "addr:postcode": "01219", "addr:street": "Lockwitzer Stra\u00dfe", "amenity": "casino", "level": "0", "name": "CA$HCASINO", "opening_hours": "08:00+", "__nodeId": 1649299767}}, {"type": "Feature", "geometry": {"type": "Polygon", "coordinates": [[[13.767849, 51.049529], [13.771446, 51.049529], [13.772345, 51.04863], [13.773244, 51.04863], [13.774593, 51.047281], [13.774593, 51.045483], [13.774144, 51.045033], [13.773244, 51.045932], [13.771446, 51.045932], [13.769647, 51.044134], [13.768298, 51.045483], [13.768298, 51.046382], [13.767399, 51.047281], [13.767399, 51.04908], [13.767849, 51.049529]]]}, "properties": {"amenity": "fast_food", "cuisine": "soup", "name": "Suppen.", "opening_hours": "Mo-Fr 11:30+", "operator": "Heidi Schoppan", "outdoor_seating": "no", "toilets:wheelchair": "no", "wheelchair": "no", "__nodeId": 2085093157}}, {"type": "Feature", "geometry": {"type": "Polygon", "coordinates": [[[13.869188, 51.046821], [13.868289, 51.046821], [13.867839, 51.047271], [13.867839, 51.04817], [13.868738, 51.049069], [13.868738, 51.050868], [13.869188, 51.051318], [13.873684, 51.051318], [13.874134, 51.050868], [13.874134, 51.049069], [13.875033, 51.04817], [13.874584, 51.04772], [13.870987, 51.04772], [13.870087, 51.046821], [13.869188, 51.046821]]]}, "properties": {"addr:city": "Dresden", "addr:country": "DE", "addr:housename": "Sternwarte Dresden-G\u00f6nnsdorf", "addr:postcode": "01328", "addr:street": "Wei\u00dfiger Landstra\u00dfe", "contact:phone": "+493512681272", "contact:website": "http://www.sternwarte-goennsdorf.de/", "man_made": "observatory", "name": "Sternwarte Dresden-G\u00f6nnsdorf", "observatory:type": "astronomical", "opening_hours": "Apr Mo 20:30+; May,Sep Mo 21:00+; Jun,Jul,Aug Mo 21:30+; Oct Mo 20:00+; Nov Mo 19:00+; Dec Mo 18:00+", "operator": "Verein zur F\u00f6rderung der Jugend e.V.", "wikidata": "Q1559387", "wikipedia": "de:G\u00f6nnsdorf", "__nodeId": 2255837625}}, {"type": "Feature", "geometry": {"type": "Polygon", "coordinates": [[[13.713231, 51.03465], [13.711882, 51.035999], [13.712332, 51.036449], [13.713231, 51.036449], [13.713681, 51.036898], [13.712782, 51.037797], [13.712782, 51.038697], [13.713231, 51.039146], [13.718627, 51.039146], [13.719077, 51.038697], [13.719077, 51.036898], [13.720875, 51.0351], [13.720426, 51.03465], [13.713231, 51.03465]]]}, "properties": {"amenity": "fast_food", "contact:email": "info@com-und-iss.de", "contact:website": "http://www.com-und-iss.de", "diet:vegetarian": "yes", "name": "COM & iss", "opening_hours": "Mo-Fr 10:00+; Sa,Su,PH off", "wheelchair": "yes", "__nodeId": 2559033716}}, {"type": "Feature", "geometry": {"type": "Polygon", "coordinates": [[[13.697458, 51.034079], [13.697008, 51.034528], [13.697908, 51.035427], [13.697908, 51.036327], [13.699257, 51.037676], [13.702854, 51.037676], [13.703753, 51.036776], [13.704652, 51.036776], [13.705102, 51.036327], [13.705102, 51.034528], [13.702854, 51.03228], [13.701954, 51.033179], [13.699257, 51.033179], [13.698357, 51.034079], [13.697458, 51.034079]]]}, "properties": {"addr:city": "Dresden", "addr:country": "DE", "addr:housenumber": "8", "addr:postcode": "01159", "addr:street": "Mohorner Stra\u00dfe", "amenity": "fast_food", "contact:fax": "+49 351 4220887", "contact:phone": "+49 351 4220886", "cuisine": "pizza", "diet:vegetarian": "yes", "name": "Call a Pizza", "opening_hours": "Mo-Su 11:00+", "operator": "Gunther Weise", "wheelchair": "no", "wheelchair:description:de": "Stufen am Eingang", "__nodeId": 2925658819}}, {"type": "Feature", "geometry": {"type": "Polygon", "coordinates": [[[13.749863, 51.06371], [13.750313, 51.064159], [13.752111, 51.064159], [13.753011, 51.06326], [13.755709, 51.06326], [13.756158, 51.06281], [13.755259, 51.061911], [13.755259, 51.060112], [13.753011, 51.057864], [13.752111, 51.058764], [13.751212, 51.058764], [13.750313, 51.059663], [13.749414, 51.059663], [13.748964, 51.060112], [13.748964, 51.06281], [13.749863, 51.06371]]]}, "properties": {"addr:city": "Dresden", "addr:country": "DE", "addr:housenumber": "26", "addr:postcode": "01099", "addr:street": "Hoyerswerdaer Stra\u00dfe", "email": "jens@weinzentrale.com", "name": "Weinzentrale", "opening_hours": "Mo-Th 16:00+; Fr 12:00+", "phone": "+49 351 89966747", "shop": "wine", "website": "https://weinzentrale.com/", "wheelchair": "limited", "__nodeId": 3961467306}}, {"type": "Feature", "geometry": {"type": "Polygon", "coordinates": [[[13.820974, 51.063902], [13.820524, 51.064352], [13.820524, 51.065251], [13.820974, 51.065701], [13.822773, 51.065701], [13.823672, 51.0666], [13.827269, 51.0666], [13.828168, 51.067499], [13.828618, 51.06705], [13.828618, 51.063452], [13.828168, 51.063003], [13.82637, 51.063003], [13.82547, 51.063902], [13.824571, 51.063902], [13.824122, 51.063452], [13.824122, 51.062553], [13.823672, 51.062104], [13.821873, 51.062104], [13.821424, 51.062553], [13.821424, 51.063452], [13.820974, 51.063902]]]}, "properties": {"addr:city": "Dresden", "addr:postcode": "01324", "addr:street": "Stechgrundstra\u00dfe", "amenity": "biergarten", "name": "Waldbiergarten bean&beluga", "opening_hours": "May-Sep: We-Fr 15:00+; Sa 12:00+; Su,PH 10:00+", "outdoor_seating": "yes", "__nodeId": 5782641157}}, {"type": "Feature", "geometry": {"type": "Polygon", "coordinates": [[[13.748716, 51.041077], [13.748266, 51.041526], [13.748266, 51.043325], [13.749615, 51.044674], [13.754112, 51.044674], [13.75546, 51.043325], [13.75546, 51.041526], [13.754112, 51.040177], [13.749615, 51.040177], [13.748716, 51.041077]]]}, "properties": {"addr:city": "Dresden", "addr:country": "DE", "addr:housenumber": "9", "addr:postcode": "01069", "addr:street": "Lenn\u00e9stra\u00dfe", "amenity": "biergarten", "building": "yes", "building:levels": "1", "building:material": "sandstone", "building:part": "yes", "contact:email": "info@wachstube-dresden.de", "contact:facebook": "https://www.facebook.com/Wachstube-im-Gro%C3%9Fen-Garten-Dresden-144180698984577/", "contact:phone": "+49 351 4466975", "contact:website": "https://www.torwirtschaft-dresden.de/wachstube/restaurant.php", "diet:vegan": "yes", "diet:vegetarian": "yes", "height": "5.7", "image": "https://commons.wikimedia.org/wiki/File:Torhaus_N_Grosser_Garten_Dresden-2.jpg", "name": "Wachstube", "opening_hours": "11:00+", "roof:colour": "#BA7F6D", "roof:height": "1.8", "roof:material": "roof_tiles", "roof:shape": "hipped", "wheelchair": "no", "wheelchair:description:de": "Zugang ins Geb\u00e4ude nur \u00fcber Stufen", "__nodeIds": [248463619, 248463620, 3871325124, 3871325123, 248463621, 248463622, 3871325121, 373407710, 3871325122, 248463619]}}, {"type": "Feature", "geometry": {"type": "Polygon", "coordinates": [[[13.761846, 51.109025], [13.761396, 51.109474], [13.761396, 51.110373], [13.762295, 51.111273], [13.761846, 51.111722], [13.760946, 51.111722], [13.760497, 51.112172], [13.760946, 51.112622], [13.763644, 51.112622], [13.764544, 51.113521], [13.765443, 51.113521], [13.765893, 51.113071], [13.765893, 51.111273], [13.766792, 51.110373], [13.765443, 51.109025], [13.763644, 51.109025], [13.762745, 51.108125], [13.761846, 51.109025]]]}, "properties": {"addr:city": "Dresden", "addr:country": "DE", "addr:housenumber": "2a", "addr:postcode": "01109", "addr:street": "Am Hellerrand", "amenity": "grave_yard", "denomination": "lutheran", "landuse": "cemetery", "name": "Alter Friedhof", "opening_hours": "Mar-Oct: 07:00+; Nov-Feb: 08:00+", "religion": "christian", "__nodeIds": [3389102046, 3395030015, 3395030016, 1532762864, 32694711, 3395030017, 1532762868, 1532762870, 3389102046]}}, {"type": "Feature", "geometry": {"type": "Polygon", "coordinates": [[[13.749488, 51.06858], [13.753085, 51.06858], [13.753985, 51.069479], [13.757132, 51.066332], [13.755783, 51.064983], [13.753985, 51.064983], [13.753085, 51.064083], [13.752636, 51.064533], [13.752636, 51.065432], [13.752186, 51.065882], [13.751287, 51.064983], [13.749488, 51.064983], [13.749039, 51.065432], [13.749039, 51.06813], [13.749488, 51.06858]]]}, "properties": {"addr:city": "Dresden", "addr:country": "DE", "addr:housenumber": "43", "addr:postcode": "01099", "addr:street": "Louisenstra\u00dfe", "alt_name": "Neust\u00e4dter Winter H\u00fcttn", "amenity": "biergarten", "name": "Louisengarten", "note": "Neust\u00e4dter Winter H\u00fcttn von Oktober-Dezember", "opening_hours": "Apr-Sep Su-Th 16:00+; Apr-Sep Fr,Sa 15:00+ || off \"Bei unfreundlichem Wetter\"", "website": "www.biergarten-dresden.de", "wheelchair": "no", "__nodeIds": [7044071847, 7044071850, 7044071864, 282320386, 3323686027, 5580899541, 5580899540, 7044071847]}}, {"type": "Feature", "geometry": {"type": "Polygon", "coordinates": [[[13.8518, 51.060947], [13.850901, 51.060947], [13.850451, 51.061397], [13.85135, 51.062296], [13.85135, 51.063196], [13.852699, 51.064544], [13.855397, 51.064544], [13.856746, 51.063196], [13.856746, 51.059598], [13.856296, 51.059149], [13.855397, 51.060048], [13.852699, 51.060048], [13.8518, 51.060947]]]}, "properties": {"addr:city": "Dresden", "addr:country": "DE", "addr:housenumber": "4", "addr:postcode": "01324", "addr:street": "Ullersdorfer Platz", "amenity": "cafe", "building": "yes", "name": "Cafe Heiderand", "opening_hours": "We 12:00+; Tu,Fr 19:00+; Sa,Su,PH 11:00+; Mo,Th off", "phone": "+49 351 2683166", "source": "bing", "website": "http://www.cafeheiderand.de", "__nodeIds": [2207089303, 5554024321, 5554024320, 2207089276, 5554024319, 5554024318, 5554024317, 5554024309, 5554024310, 5554024311, 2207089283, 2207089287, 5554024316, 5554024315, 2207089288, 2207089308, 5554024312, 2207089304, 2207089309, 2207089302, 2207089307, 2207089303]}}, {"type": "Feature", "geometry": {"type": "Polygon", "coordinates": [[[13.742921, 51.071204], [13.742471, 51.071654], [13.74337, 51.072553], [13.74337, 51.073452], [13.742921, 51.073902], [13.742021, 51.073902], [13.741572, 51.074351], [13.742021, 51.074801], [13.746518, 51.074801], [13.746967, 51.074351], [13.746967, 51.071654], [13.746518, 51.071204], [13.745619, 51.072103], [13.744719, 51.072103], [13.74382, 51.071204], [13.742921, 51.071204]]]}, "properties": {"leisure": "garden", "name": "Gemeinschaftsgarten Hechtgr\u00fcn", "opening_hours": "Th 15:00+", "website": "http://hechtgruen.tumblr.com/", "__nodeIds": [4730449471, 4730449470, 2936003056, 2936003057, 4730449473, 4730449474, 4730449475, 2250434929, 2916687487, 2250434933, 2936003055, 4730449471]}}, {"type": "Feature", "geometry": {"type": "Polygon", "coordinates": [[[13.749523, 51.026636], [13.748624, 51.026636], [13.748175, 51.027086], [13.748175, 51.027985], [13.748624, 51.028435], [13.749523, 51.027535], [13.750423, 51.027535], [13.750872, 51.027985], [13.750872, 51.028884], [13.751322, 51.029334], [13.754919, 51.029334], [13.755369, 51.028884], [13.755369, 51.027086], [13.756268, 51.026187], [13.754919, 51.024838], [13.753121, 51.024838], [13.752221, 51.023938], [13.750423, 51.023938], [13.749973, 51.024388], [13.749973, 51.026187], [13.749523, 51.026636]]]}, "properties": {"contact:email": "apfelgarten.dresden@gmail.com", "contact:facebook": "https://www.facebook.com/apfelgartendresden", "contact:website": "http://apfelgarten-dresden.de/", "garden:type": "community", "leisure": "garden", "name": "Apfelgarten Strehlen", "network": "Gartennetzwerk Dresden", "opening_hours": "Tu 18:00+", "operator": "Apfelgarten-Strehlen e. V.", "website": "http://www.dresden-pflanzbar.de/gaerten/apfelgarten/", "__nodeIds": [4219409326, 4219409325, 4219409323, 4219409324, 4219409326]}}]}