{"type": "FeatureCollection", "features": [{"type": "Feature", "geometry": {"type": "Polygon", "coordinates": [[[13.687612, 51.066196], [13.686263, 51.067545], [13.686263, 51.069343], [13.686713, 51.069793], [13.687612, 51.069793], [13.68941, 51.071592], [13.692108, 51.071592], [13.692558, 51.071142], [13.692558, 51.069343], [13.693457, 51.068444], [13.693008, 51.067995], [13.692108, 51.067995], [13.691659, 51.067545], [13.691659, 51.066646], [13.691209, 51.066196], [13.687612, 51.066196]]]}, "properties": {"addr:city": "Dresden", "addr:country": "DE", "addr:housenumber": "13", "addr:postcode": "01139", "addr:street": "Werftstra\u00dfe", "amenity": "fuel", "brand": "Aral", "brand:wikidata": "Q565734", "brand:wikipedia": "en:Aral AG", "foot": "yes", "fuel:GTL_diesel": "yes", "fuel:HGV_diesel": "yes", "fuel:adblue": "yes", "fuel:diesel": "yes", "fuel:e10": "yes", "fuel:octane_100": "yes", "fuel:octane_102": "yes", "fuel:octane_95": "yes", "name": "Aral", "opening_hours": "24/7", "operator": "Uwe Anders", "phone": "+49 351 8496290", "wheelchair": "yes", "__nodeId": 21673813}}, {"type": "Feature", "geometry": {"type": "Polygon", "coordinates": [[[13.731925, 51.063527], [13.731476, 51.063976], [13.731476, 51.064876], [13.732375, 51.065775], [13.731925, 51.066224], [13.731026, 51.066224], [13.730576, 51.066674], [13.730576, 51.067573], [13.731026, 51.068023], [13.735522, 51.068023], [13.735972, 51.067573], [13.735972, 51.065775], [13.737771, 51.063976], [13.737321, 51.063527], [13.731925, 51.063527]]]}, "properties": {"addr:city": "Dresden", "addr:country": "DE", "addr:housenumber": "2e", "addr:postcode": "01097", "addr:street": "Leipziger Stra\u00dfe", "amenity": "fuel", "fuel:diesel": "yes", "name": "Esso", "opening_hours": "24/7", "phone": "+49 351 8498771", "wheelchair": "yes", "__nodeId": 91513944}}, {"type": "Feature", "geometry": {"type": "Polygon", "coordinates": [[[13.787401, 51.030126], [13.786952, 51.030576], [13.788301, 51.031925], [13.791898, 51.031925], [13.793247, 51.030576], [13.790998, 51.028328], [13.790099, 51.029227], [13.788301, 51.029227], [13.787401, 51.030126]]]}, "properties": {"amenity": "fuel", "brand": "Total", "fuel:lpg": "yes", "name": "Total", "opening_hours": "24/7", "wheelchair": "limited", "__nodeId": 205154733}}, {"type": "Feature", "geometry": {"type": "Polygon", "coordinates": [[[13.806056, 51.051088], [13.805607, 51.051538], [13.805607, 51.052437], [13.806056, 51.052887], [13.806956, 51.052887], [13.807405, 51.053336], [13.806506, 51.054236], [13.806506, 51.055135], [13.806956, 51.055585], [13.807855, 51.054685], [13.809653, 51.054685], [13.811002, 51.053336], [13.811002, 51.051538], [13.811902, 51.050639], [13.811452, 51.050189], [13.810553, 51.051088], [13.808754, 51.051088], [13.807855, 51.050189], [13.806956, 51.050189], [13.806056, 51.051088]]]}, "properties": {"amenity": "biergarten", "created_by": "Potlatch 0.7", "name": "Schillergarten", "opening_hours": "Mo-Su 11:00-01:00", "wheelchair": "yes", "__nodeId": 246851272}}, {"type": "Feature", "geometry": {"type": "Polygon", "coordinates": [[[13.75026, 51.067406], [13.74981, 51.067856], [13.75026, 51.068305], [13.752957, 51.068305], [13.753857, 51.067406], [13.754306, 51.067856], [13.754306, 51.068755], [13.754756, 51.069205], [13.758803, 51.065158], [13.758353, 51.064708], [13.756555, 51.064708], [13.755655, 51.063809], [13.752058, 51.063809], [13.750709, 51.065158], [13.750709, 51.066956], [13.75026, 51.067406]]]}, "properties": {"addr:city": "Dresden", "addr:country": "DE", "addr:housenumber": "1", "addr:postcode": "01099", "addr:street": "G\u00f6rlitzer Stra\u00dfe", "amenity": "cafe", "internet_access": "no", "name": "Caf\u00e9 Continental", "opening_hours": "Su-Th 08:00-02:00, Fr-Sa 08:00-03:00", "phone": "+49 351 272 17 22", "survey:date": "2016-09-04", "toilets:wheelchair": "no", "wheelchair": "limited", "__nodeId": 250892760}}, {"type": "Feature", "geometry": {"type": "Polygon", "coordinates": [[[13.730977, 51.040918], [13.730527, 51.041368], [13.730527, 51.043167], [13.732775, 51.045415], [13.734574, 51.045415], [13.735473, 51.046314], [13.736372, 51.046314], [13.736822, 51.045864], [13.736822, 51.044965], [13.737272, 51.044515], [13.738171, 51.044515], [13.73952, 51.043167], [13.738621, 51.042267], [13.738621, 51.040469], [13.738171, 51.040019], [13.732775, 51.040019], [13.731876, 51.040918], [13.730977, 51.040918]]]}, "properties": {"addr:city": "Dresden", "addr:country": "DE", "addr:housenumber": "2c", "addr:postcode": "01069", "addr:street": "Prager Stra\u00dfe", "amenity": "cafe", "layer": "2", "name": "Schwenke's Cocktail & Coffee Lounge", "opening_hours": "Mo-Th 14:00-01:00, Fr-Sa 14:00-02:00, Su 14:00-23:00", "website": "http://www.pullman-hotel-dresden.de/bar/", "wheelchair": "limited", "__nodeId": 254163749}}, {"type": "Feature", "geometry": {"type": "Polygon", "coordinates": [[[13.692127, 51.082214], [13.691678, 51.082664], [13.691678, 51.083563], [13.690778, 51.084462], [13.691678, 51.085361], [13.691678, 51.08716], [13.692127, 51.08761], [13.693027, 51.08671], [13.694825, 51.08671], [13.695275, 51.086261], [13.695275, 51.083563], [13.693926, 51.082214], [13.692127, 51.082214]]]}, "properties": {"addr:housenumber": "38", "addr:postcode": "01139", "addr:street": "Peschelstra\u00dfe", "amenity": "fast_food", "brand": "McDonald's", "brand:wikidata": "Q38076", "brand:wikipedia": "en:McDonald's", "cuisine": "burger", "internet_access": "wlan", "internet_access:fee": "no", "internet_access:operator": "T-Mobile", "name": "McDonald's", "opening_hours": "Mo-Su 06:00-03:00", "opening_hours:mcdrive": "24/7", "takeaway": "yes", "wheelchair": "limited", "__nodeId": 255442294}}, {"type": "Feature", "geometry": {"type": "Polygon", "coordinates": [[[13.745846, 51.074855], [13.744947, 51.074855], [13.744497, 51.075304], [13.744947, 51.075754], [13.745846, 51.075754], [13.746746, 51.076653], [13.748544, 51.076653], [13.749443, 51.077552], [13.752141, 51.077552], [13.75349, 51.076203], [13.749443, 51.072157], [13.747645, 51.072157], [13.746296, 51.073506], [13.746296, 51.074405], [13.745846, 51.074855]]]}, "properties": {"addr:city": "Dresden", "addr:country": "DE", "addr:housenumber": "38", "addr:street": "Rudolf-Leonhard-Stra\u00dfe", "amenity": "cafe", "entrance": "main", "name": "Klubgalerie Kolja", "opening_hours": "Mo-Fr 20:00-02:00", "wheelchair": "limited", "__nodeId": 257482534}}, {"type": "Feature", "geometry": {"type": "Polygon", "coordinates": [[[13.727937, 51.018449], [13.726588, 51.019798], [13.727038, 51.020248], [13.727937, 51.020248], [13.728837, 51.021147], [13.733333, 51.021147], [13.734682, 51.019798], [13.734232, 51.019348], [13.732434, 51.019348], [13.731534, 51.018449], [13.727937, 51.018449]]]}, "properties": {"addr:city": "Dresden", "addr:country": "DE", "addr:housenumber": "121", "addr:postcode": "01217", "addr:street": "Bergstra\u00dfe", "amenity": "fuel", "brand": "Aral", "fuel:diesel": "yes", "fuel:e10": "yes", "fuel:lpg": "yes", "fuel:octane_100": "yes", "fuel:octane_95": "yes", "name": "Aral", "opening_hours": "24/7", "operator": "Jens Scholtyssek", "phone": "+49 351 4016150", "ref": "0270617111", "wheelchair": "yes", "__nodeId": 262136466}}, {"type": "Feature", "geometry": {"type": "Polygon", "coordinates": [[[13.752378, 51.065023], [13.751929, 51.065473], [13.751929, 51.067272], [13.752378, 51.067721], [13.753278, 51.067721], [13.754177, 51.068621], [13.755975, 51.068621], [13.756875, 51.067721], [13.757774, 51.067721], [13.758673, 51.068621], [13.759123, 51.068171], [13.759123, 51.066372], [13.760921, 51.064574], [13.760472, 51.064124], [13.758673, 51.064124], [13.757774, 51.063225], [13.755975, 51.063225], [13.755076, 51.062326], [13.752378, 51.065023]]]}, "properties": {"addr:city": "Dresden", "addr:country": "DE", "addr:housenumber": "62", "addr:postcode": "01099", "addr:street": "Louisenstra\u00dfe", "amenity": "fast_food", "cuisine": "german", "diet:vegan": "yes", "diet:vegetarian": "yes", "drive_in": "no", "drive_through": "no", "internet_access": "no", "internet_access:fee": "no", "name": "Curry & Co", "opening_hours": "Mo-Th 11:00-22:00, Fr,Sa 11:00-02:00, Su 11:00-22:00", "smoking": "no", "survey:date": "2016-09-09", "wheelchair": "no", "__nodeId": 266583896}}, {"type": "Feature", "geometry": {"type": "Polygon", "coordinates": [[[13.747107, 51.065429], [13.745758, 51.066778], [13.746208, 51.067227], [13.747107, 51.067227], [13.748006, 51.068127], [13.752503, 51.068127], [13.753402, 51.069026], [13.753852, 51.068576], [13.753852, 51.066778], [13.753402, 51.066328], [13.752503, 51.066328], [13.752053, 51.065878], [13.752503, 51.065429], [13.753402, 51.065429], [13.753852, 51.064979], [13.752503, 51.06363], [13.748906, 51.06363], [13.747107, 51.065429]]]}, "properties": {"addr:city": "Dresden", "addr:country": "DE", "addr:housenumber": "20", "addr:postcode": "01099", "addr:street": "Katharinenstra\u00dfe", "addr:suburb": "\u00c4ussere Neustadt", "amenity": "fast_food", "cuisine": "kebab", "diet:vegetarian": "yes", "drive_in": "no", "drive_through": "no", "email": "info@babos-dresden.de", "entrance": "main", "fax": "+49 351 5638489", "name": "Babo\u015f D\u00f6nerpoint", "opening_hours": "Mo-Fr 00:00-04:00,09:00-24:00; Sa,Su 00:00-05:00,09:00-24:00", "phone": "+49 351 8040666", "smoking": "no", "survey:date": "2016-11-03", "takeaway": "yes", "website": "http://www.babos-dresden.de", "wheelchair": "limited", "__nodeId": 266962027}}, {"type": "Feature", "geometry": {"type": "Polygon", "coordinates": [[[13.752579, 51.066589], [13.753029, 51.067038], [13.757526, 51.067038], [13.759774, 51.06479], [13.758874, 51.063891], [13.758874, 51.062092], [13.758425, 51.061643], [13.753029, 51.061643], [13.75168, 51.062991], [13.75168, 51.065689], [13.752579, 51.066589]]]}, "properties": {"addr:city": "Dresden", "addr:country": "DE", "addr:housenumber": "17", "addr:postcode": "01099", "addr:street": "Martin-Luther-Stra\u00dfe", "amenity": "cafe", "diaper": "1", "diet:vegetarian": "yes", "email": "info@lloyds-cafe-bar.de", "internet_access": "no", "name": "Lloyd's", "opening_hours": "Mo-Th 08:00-24:00; Fr 08:00-01:00; Sa,PH 09:00-01:00; Su 09:00-19:00", "phone": "+49 351 5018774", "smoking": "no", "website": "https://www.lloyds-cafe-bar.de/", "wheelchair": "limited", "__nodeId": 267234945}}, {"type": "Feature", "geometry": {"type": "Polygon", "coordinates": [[[13.705661, 51.044887], [13.704312, 51.046236], [13.705661, 51.047585], [13.70656, 51.047585], [13.707909, 51.048934], [13.707909, 51.049833], [13.708358, 51.050283], [13.709258, 51.049384], [13.711056, 51.049384], [13.712405, 51.048035], [13.711506, 51.047135], [13.711506, 51.045337], [13.711056, 51.044887], [13.709258, 51.044887], [13.708358, 51.043988], [13.70656, 51.043988], [13.705661, 51.044887]]]}, "properties": {"addr:city": "Dresden", "addr:country": "DE", "addr:housenumber": "51", "addr:postcode": "01159", "addr:street": "L\u00f6btauer Stra\u00dfe", "amenity": "fuel", "brand": "Jet", "capacity": "12", "fuel:diesel": "yes", "fuel:e10": "yes", "fuel:octane_95": "yes", "fuel:octane_98": "yes", "name": "JET", "opening_hours": "24/7", "operator": "Conoco Phillips", "phone": "+49 351 4904555", "shop": "yes", "wheelchair": "yes", "__nodeId": 269660709}}, {"type": "Feature", "geometry": {"type": "Polygon", "coordinates": [[[13.786357, 51.068196], [13.785008, 51.069545], [13.785008, 51.071344], [13.786357, 51.072693], [13.789054, 51.072693], [13.789954, 51.073592], [13.790853, 51.073592], [13.792202, 51.072243], [13.792202, 51.070445], [13.789954, 51.068196], [13.786357, 51.068196]]]}, "properties": {"addr:city": "Dresden", "addr:country": "DE", "addr:housenumber": "15", "addr:postcode": "01099", "addr:street": "Fischhausstra\u00dfe", "amenity": "fuel", "fuel:diesel": "yes", "fuel:e10": "yes", "fuel:octane_100": "yes", "fuel:octane_95": "yes", "name": "ARAL", "opening_hours": "24/7", "phone": "+49 351 8043050", "wheelchair": "limited", "__nodeId": 281169798}}, {"type": "Feature", "geometry": {"type": "Polygon", "coordinates": [[[13.752606, 51.07014], [13.753056, 51.07059], [13.755754, 51.07059], [13.758002, 51.068342], [13.757103, 51.067442], [13.757103, 51.065644], [13.756653, 51.065194], [13.753056, 51.065194], [13.751707, 51.066543], [13.751707, 51.067442], [13.752606, 51.068342], [13.752606, 51.07014]]]}, "properties": {"addr:city": "Dresden", "addr:country": "DE", "addr:housenumber": "21", "addr:postcode": "01099", "addr:street": "G\u00f6rlitzer Stra\u00dfe", "amenity": "cafe", "cuisine": "ice_cream", "internet_access": "wlan", "internet_access:access": "customers", "internet_access:fee": "no", "name": "Neumann's Tiki", "opening_hours": "Mo-Th 09:00-23:00, Fr 09:00-01:00, Sa 10:00-01:00, Su 10:00-23:00", "phone": "+49 351 8103837", "smoking": "no", "wheelchair": "limited", "__nodeId": 282332471}}, {"type": "Feature", "geometry": {"type": "Polygon", "coordinates": [[[13.750885, 51.064333], [13.750435, 51.064782], [13.750435, 51.065682], [13.751784, 51.067031], [13.752683, 51.067031], [13.754482, 51.068829], [13.755381, 51.068829], [13.755831, 51.06838], [13.755831, 51.066581], [13.75673, 51.065682], [13.75673, 51.063883], [13.75628, 51.063434], [13.753583, 51.063434], [13.752683, 51.062534], [13.751784, 51.062534], [13.751334, 51.062984], [13.751334, 51.063883], [13.750885, 51.064333]]]}, "properties": {"addr:city": "Dresden", "addr:housenumber": "41", "addr:postcode": "01099", "addr:street": "Rothenburger Stra\u00dfe", "amenity": "fast_food", "cuisine": "kebab", "diet:vegan": "yes", "diet:vegetarian": "yes", "drive_through": "no", "name": "D\u00fcr\u00fcm Kebab Haus", "opening_hours": "10:00-03:00; Th-Sa 10:00-05:00", "operator": "Dogan D\u00fcr\u00fcm Gastronomie GmbH", "outdoor_seating": "yes", "phone": "+49 351 8026279", "smoking": "no", "takeaway": "yes", "website": "http://www.durum-kebab-haus.de/Standort-Rothehburger/standort-rothehburger.html", "wheelchair": "no", "wifi": "free", "__nodeId": 289091887}}, {"type": "Feature", "geometry": {"type": "Polygon", "coordinates": [[[13.713294, 51.079074], [13.712844, 51.079523], [13.712844, 51.080423], [13.713294, 51.080872], [13.714193, 51.080872], [13.715542, 51.079523], [13.715542, 51.078624], [13.715992, 51.078174], [13.716891, 51.078174], [13.71824, 51.076825], [13.71779, 51.076376], [13.716891, 51.077275], [13.714193, 51.077275], [13.713743, 51.077725], [13.713743, 51.078624], [13.713294, 51.079074]]]}, "properties": {"addr:city": "Dresden", "addr:country": "DE", "addr:housenumber": "125", "addr:postcode": "01127", "addr:street": "Leipziger Stra\u00dfe", "amenity": "fuel", "name": "Shell", "opening_hours": "24/7", "operator": "Shell", "phone": "+49 351 8491663", "wheelchair": "yes", "__nodeId": 291452680}}, {"type": "Feature", "geometry": {"type": "Polygon", "coordinates": [[[13.774622, 51.066135], [13.773273, 51.067484], [13.774173, 51.068383], [13.774173, 51.069283], [13.774622, 51.069732], [13.780917, 51.069732], [13.781367, 51.069283], [13.780467, 51.068383], [13.780467, 51.066585], [13.779119, 51.065236], [13.778219, 51.066135], [13.774622, 51.066135]]]}, "properties": {"amenity": "biergarten", "name": "Brauhaus am Waldschl\u00f6\u00dfchen", "opening_hours": "Mo-Su 11:00-01:00", "wheelchair": "limited", "__nodeId": 297494989}}, {"type": "Feature", "geometry": {"type": "Polygon", "coordinates": [[[13.802829, 51.040136], [13.80238, 51.040586], [13.80238, 51.043284], [13.802829, 51.043733], [13.804628, 51.043733], [13.805527, 51.042834], [13.805977, 51.043284], [13.805977, 51.044183], [13.806427, 51.044633], [13.807326, 51.044633], [13.808675, 51.043284], [13.808675, 51.038787], [13.808225, 51.038338], [13.804628, 51.038338], [13.804178, 51.038787], [13.804178, 51.039686], [13.803729, 51.040136], [13.802829, 51.040136]]]}, "properties": {"name": "Deli Sp\u00e4tverkauf", "opening_hours": "Mo-Sa 16:00-01:00, Su,PH 09:00-01:00", "shop": "convenience", "website": "http://www.deli-striesen.de", "__nodeId": 307505150}}, {"type": "Feature", "geometry": {"type": "Polygon", "coordinates": [[[13.788575, 51.046608], [13.788125, 51.047057], [13.788125, 51.048856], [13.790373, 51.051104], [13.792172, 51.051104], [13.793071, 51.050205], [13.79397, 51.050205], [13.796218, 51.047956], [13.796218, 51.046158], [13.795769, 51.045708], [13.79487, 51.046608], [13.792172, 51.046608], [13.791272, 51.045708], [13.790373, 51.045708], [13.789474, 51.044809], [13.789024, 51.045259], [13.789024, 51.046158], [13.788575, 51.046608]]]}, "properties": {"addr:city": "Dresden", "addr:country": "DE", "addr:housenumber": "50", "addr:postcode": "01309", "addr:street": "Augsburger Stra\u00dfe", "check_date": "2016-01-16", "drink:beer": "yes", "drink:club-mate": "yes", "drink:wine": "yes", "email": "info@groh-dresden.de", "level": "0", "name": "Extrawurst", "opening_hours": "08:00-01:00", "phone": "+49 351 3156903", "shop": "convenience", "website": "http://extrawurst-dresden.de", "wheelchair": "yes", "__nodeId": 307505223}}, {"type": "Feature", "geometry": {"type": "Polygon", "coordinates": [[[13.788319, 51.049685], [13.791017, 51.049685], [13.793265, 51.047436], [13.793265, 51.045638], [13.792815, 51.045188], [13.791916, 51.046088], [13.791017, 51.046088], [13.790567, 51.045638], [13.790567, 51.044739], [13.790117, 51.044289], [13.787869, 51.046537], [13.787869, 51.049235], [13.788319, 51.049685]]]}, "properties": {"delivery": "yes", "email": "kontakt@spaetverkauf-dresden.de", "name": "Sp\u00e4ti Sp\u00e4tverkauf", "opening_hours": "Mo-Sa 15:00-01:00, Su 08:00-01:00", "phone": "+49 351 3122108", "shop": "convenience", "website": "http://www.spaetverkauf-dresden.de", "wheelchair": "no", "wheelchair:description:de": "Stufen am Eingang", "__nodeId": 307505229}}, {"type": "Feature", "geometry": {"type": "Polygon", "coordinates": [[[13.744025, 51.071341], [13.743126, 51.071341], [13.742676, 51.071791], [13.742676, 51.07269], [13.743126, 51.07314], [13.745824, 51.07314], [13.746723, 51.074039], [13.749421, 51.074039], [13.74987, 51.073589], [13.74987, 51.07269], [13.75032, 51.07224], [13.751219, 51.07224], [13.751669, 51.071791], [13.749421, 51.069543], [13.748971, 51.069992], [13.748971, 51.070892], [13.748521, 51.071341], [13.748072, 51.070892], [13.748072, 51.069992], [13.747622, 51.069543], [13.746723, 51.069543], [13.745824, 51.070442], [13.744924, 51.070442], [13.744025, 51.071341]]]}, "properties": {"addr:city": "Dresden", "addr:country": "DE", "addr:housenumber": "2a", "addr:postcode": "01097", "addr:street": "Rudolf-Leonhard-Stra\u00dfe", "drink:club-mate": "yes", "name": "Sp\u00e4tforum im Hecht", "opening_hours": "Mo-Fr 18:30-02:00, Sa,Su,PH 16:00-02:00", "shop": "convenience", "wheelchair": "no", "__nodeId": 310816249}}, {"type": "Feature", "geometry": {"type": "Polygon", "coordinates": [[[13.7357, 51.051938], [13.740196, 51.051938], [13.741096, 51.052837], [13.744243, 51.04969], [13.742894, 51.048341], [13.739297, 51.048341], [13.738398, 51.047442], [13.737499, 51.047442], [13.736599, 51.048341], [13.7357, 51.048341], [13.73525, 51.04879], [13.73525, 51.051488], [13.7357, 51.051938]]]}, "properties": {"addr:city": "Dresden", "addr:country": "DE", "addr:housenumber": "19-21", "addr:postcode": "01067", "addr:street": "Wilsdruffer Stra\u00dfe", "amenity": "fast_food", "brand": "McDonald's", "brand:wikidata": "Q38076", "brand:wikipedia": "en:McDonald's", "cuisine": "burger", "internet_access": "wlan", "internet_access:fee": "no", "internet_access:operator": "T-Mobile", "name": "McDonald's", "opening_hours": "Mo-Su 06:00-05:00", "smoking": "no", "takeaway": "yes", "wheelchair": "no", "wheelchair:description:de": "Stufen vor dem Eingang", "__nodeId": 319103386}}, {"type": "Feature", "geometry": {"type": "Polygon", "coordinates": [[[13.750922, 51.065788], [13.749573, 51.067137], [13.750023, 51.067586], [13.750922, 51.067586], [13.751822, 51.068486], [13.75362, 51.068486], [13.754519, 51.069385], [13.755419, 51.069385], [13.759466, 51.065338], [13.759016, 51.064889], [13.757217, 51.064889], [13.756318, 51.063989], [13.751822, 51.063989], [13.751372, 51.064439], [13.751372, 51.065338], [13.750922, 51.065788]]]}, "properties": {"addr:city": "Dresden", "addr:country": "DE", "addr:housenumber": "44", "addr:postcode": "01099", "addr:street": "Louisenstra\u00dfe", "amenity": "cafe", "cuisine": "tea", "email": "teegadrom@web.de", "name": "Teegadrom", "opening_hours": "19:00-02:00", "phone": "+49 351 7992741", "survey:date": "2016-09-09", "toilets:wheelchair": "no", "website": "http://www.teegadrom.de/index.html", "wheelchair": "limited", "__nodeId": 343652992}}, {"type": "Feature", "geometry": {"type": "Polygon", "coordinates": [[[13.742531, 51.074317], [13.74343, 51.074317], [13.745678, 51.072069], [13.745228, 51.071619], [13.742531, 51.071619], [13.742081, 51.072069], [13.742081, 51.073867], [13.742531, 51.074317]]]}, "properties": {"name": "Hechtsp\u00e4tshop", "opening_hours": "Mo-Fr 18:00-02:00, Sa-Su 15:00-02:00", "shop": "convenience", "wheelchair": "limited", "__nodeId": 354719488}}, {"type": "Feature", "geometry": {"type": "Polygon", "coordinates": [[[13.744745, 51.062617], [13.744296, 51.063066], [13.744296, 51.063966], [13.744745, 51.064415], [13.745644, 51.064415], [13.746094, 51.064865], [13.746094, 51.065764], [13.746544, 51.066214], [13.747443, 51.065315], [13.749242, 51.065315], [13.750141, 51.066214], [13.75149, 51.064865], [13.75149, 51.063066], [13.749242, 51.060818], [13.748342, 51.061718], [13.745644, 51.061718], [13.744745, 51.062617]]]}, "properties": {"addr:city": "Dresden", "addr:country": "DE", "addr:housenumber": "3", "addr:postcode": "01099", "addr:street": "Alaunstra\u00dfe", "amenity": "fast_food", "contact:facebook": "https://www.facebook.com/pizzabitedresden", "cuisine": "pizza", "diet:vegan": "yes", "diet:vegetarian": "yes", "name": "Pizza Bite", "opening_hours": "Mo-Th 11:00-02:00; Fr-Su 11:00-05:00", "phone": "+49 351 32990512", "survey:date": "2019-05-24", "takeaway": "yes", "wheelchair": "no", "__nodeId": 380969894}}, {"type": "Feature", "geometry": {"type": "Polygon", "coordinates": [[[13.74687, 51.067641], [13.74687, 51.06944], [13.74732, 51.069889], [13.751816, 51.069889], [13.754064, 51.067641], [13.752715, 51.066292], [13.750917, 51.066292], [13.750017, 51.065393], [13.749118, 51.066292], [13.74732, 51.066292], [13.74687, 51.066742], [13.74687, 51.067641]]]}, "properties": {"addr:city": "Dresden", "addr:country": "DE", "addr:housenumber": "21", "addr:postcode": "01099", "addr:street": "Louisenstra\u00dfe", "amenity": "fast_food", "cuisine": "kebab;kumpir", "delivery": "no", "description": "Kebap & Kumpir Haus", "diet:vegan": "no", "diet:vegetarian": "yes", "drive_through": "no", "name": "Kek\u00e9", "opening_hours": "Su-Th 10:00-01:00, Fr-Sa 10:00-03:00", "outdoor_seating": "yes", "phone": "+49351 2721414", "smoking": "no", "survey:date": "2016-09-03", "takeaway": "yes", "website": "http://www.kekekumpir.de/", "wheelchair": "limited", "__nodeId": 381082047}}, {"type": "Feature", "geometry": {"type": "Polygon", "coordinates": [[[13.74642, 51.067404], [13.745521, 51.067404], [13.745071, 51.067854], [13.748219, 51.071002], [13.750017, 51.071002], [13.750467, 51.070552], [13.750467, 51.069653], [13.749568, 51.068753], [13.749568, 51.067854], [13.748219, 51.066505], [13.74732, 51.067404], [13.74642, 51.067404]]]}, "properties": {"addr:city": "Dresden", "addr:country": "DE", "addr:housenumber": "2", "addr:postcode": "01099", "addr:street": "Jordanstra\u00dfe", "amenity": "cafe", "diet:vegetarian": "no", "gay": "welcome", "name": "Valentino", "opening_hours": "Su-Th 15:00-01:00; Fr,Sa 15:00-02:00", "wheelchair": "no", "__nodeId": 381082199}}, {"type": "Feature", "geometry": {"type": "Polygon", "coordinates": [[[13.754549, 51.067652], [13.756348, 51.067652], [13.757247, 51.068551], [13.758146, 51.068551], [13.760395, 51.066303], [13.760395, 51.064504], [13.759945, 51.064055], [13.759046, 51.064055], [13.758596, 51.063605], [13.758596, 51.062706], [13.758146, 51.062256], [13.757247, 51.063155], [13.754549, 51.063155], [13.7541, 51.063605], [13.7541, 51.067202], [13.754549, 51.067652]]]}, "properties": {"addr:city": "Dresden", "addr:country": "DE", "addr:housenumber": "70", "addr:postcode": "01099", "addr:street": "Louisenstra\u00dfe", "description": "SB Waschsalon", "internet_access": "terminal", "name": "Waschmeister SB Waschsalon", "opening_hours": "Mo-Sa 06:00-00:00", "self_service": "yes", "shop": "laundry", "survey:date": "2016-09-09", "website": "https://www.waschmeister.net", "wheelchair": "no", "__nodeId": 431196636}}, {"type": "Feature", "geometry": {"type": "Polygon", "coordinates": [[[13.763819, 51.122424], [13.763369, 51.122873], [13.763369, 51.123773], [13.764718, 51.125122], [13.766516, 51.125122], [13.766966, 51.125571], [13.766966, 51.126471], [13.767416, 51.12692], [13.769664, 51.124672], [13.767416, 51.122424], [13.763819, 51.122424]]]}, "properties": {"access": "permissive", "aed:note": "Located in the ground level", "aed:note:de": "Befindet sich auf der unteren Ebene", "description:de": "Defibrillator", "emergency": "defibrillator", "opening_hours": "24/7", "__nodeId": 434729753}}, {"type": "Feature", "geometry": {"type": "Polygon", "coordinates": [[[13.748832, 51.06981], [13.748382, 51.07026], [13.748382, 51.071159], [13.749731, 51.072508], [13.75063, 51.072508], [13.75153, 51.073407], [13.752429, 51.073407], [13.753328, 51.072508], [13.755127, 51.072508], [13.757375, 51.07026], [13.756925, 51.06981], [13.755127, 51.06981], [13.754228, 51.068911], [13.752429, 51.068911], [13.75153, 51.068012], [13.749731, 51.068012], [13.749282, 51.068461], [13.749282, 51.069361], [13.748832, 51.06981]]]}, "properties": {"addr:city": "Dresden", "addr:country": "DE", "addr:housenumber": "18", "addr:postcode": "01097", "addr:street": "Bischofsweg", "drink:club-mate": "yes", "name": "Sp\u00e4tschicht", "opening_hours": "Mo-Th 17:00-01:30; Fr,Sa 17:00-23:00; Su 12:00-01:00", "phone": "+49 351 406444", "shop": "convenience", "survey:date": "2016-09-02", "wheelchair": "no", "__nodeId": 434732462}}, {"type": "Feature", "geometry": {"type": "Polygon", "coordinates": [[[13.747592, 51.068448], [13.746693, 51.068448], [13.746243, 51.068897], [13.746243, 51.069796], [13.748491, 51.072045], [13.749391, 51.072045], [13.751189, 51.073843], [13.752088, 51.073843], [13.752538, 51.073394], [13.752538, 51.071595], [13.753437, 51.070696], [13.752988, 51.070246], [13.75029, 51.070246], [13.748491, 51.068448], [13.747592, 51.068448]]]}, "properties": {"addr:city": "Dresden", "addr:country": "DE", "addr:housenumber": "68", "addr:postcode": "01099", "addr:street": "K\u00f6nigsbr\u00fccker Stra\u00dfe", "amenity": "cafe", "contact:website": "http://www.cafe-europa-dresden.de/", "diet:vegetarian": "yes", "internet_access": "wlan", "internet_access:fee": "no", "name": "Cafe Europa", "opening_hours": "24/7", "phone": "+49 351 8044810", "smoking": "yes", "survey:date": "2016-09-02", "wheelchair": "no", "__nodeId": 459655193}}, {"type": "Feature", "geometry": {"type": "Polygon", "coordinates": [[[13.721556, 51.086222], [13.721106, 51.086672], [13.721106, 51.08847], [13.721556, 51.08892], [13.722455, 51.08892], [13.722905, 51.089369], [13.722006, 51.090269], [13.722006, 51.091168], [13.722455, 51.091618], [13.724254, 51.091618], [13.725153, 51.090718], [13.726052, 51.090718], [13.726502, 51.090269], [13.726502, 51.089369], [13.727401, 51.08847], [13.726952, 51.088021], [13.726052, 51.088021], [13.724254, 51.086222], [13.721556, 51.086222]]]}, "properties": {"name": "Sp\u00e4ti", "opening_hours": "Mo-Fr 19:30-24:00; Sa,Su 00:00-01:00,19:30-24:00", "shop": "convenience", "wheelchair": "limited", "__nodeId": 612570558}}, {"type": "Feature", "geometry": {"type": "Polygon", "coordinates": [[[13.750885, 51.064333], [13.750435, 51.064782], [13.750435, 51.065682], [13.751784, 51.067031], [13.752683, 51.067031], [13.754482, 51.068829], [13.755381, 51.068829], [13.755831, 51.06838], [13.755831, 51.066581], [13.75673, 51.065682], [13.75673, 51.063883], [13.75628, 51.063434], [13.753583, 51.063434], [13.752683, 51.062534], [13.751784, 51.062534], [13.751334, 51.062984], [13.751334, 51.063883], [13.750885, 51.064333]]]}, "properties": {"addr:housenumber": "31", "addr:street": "Rothenburger Stra\u00dfe", "name": "Fr\u00fch & Sp\u00e4t Ro 31", "opening_hours": "15:00-01:00", "shop": "convenience", "survey:date": "2016-09-09", "__nodeId": 844100083}}, {"type": "Feature", "geometry": {"type": "Polygon", "coordinates": [[[13.753171, 51.0646], [13.752721, 51.06505], [13.752721, 51.066848], [13.753171, 51.067298], [13.75407, 51.067298], [13.754969, 51.068197], [13.759466, 51.068197], [13.759915, 51.067748], [13.759915, 51.065949], [13.757667, 51.063701], [13.756768, 51.063701], [13.755869, 51.062802], [13.754969, 51.062802], [13.753171, 51.0646]]]}, "properties": {"addr:city": "Dresden", "addr:country": "DE", "addr:housenumber": "77", "addr:postcode": "01099", "addr:street": "Louisenstra\u00dfe", "amenity": "fast_food", "cuisine": "bagel", "drive_in": "no", "drive_through": "no", "name": "Bagel's Dresden", "opening_hours": "Mo-Su 12:00-01:00", "survey:date": "2016-09-09", "website": "http://www.bagels-dresden.de", "wheelchair": "limited", "__nodeId": 906800608}}, {"type": "Feature", "geometry": {"type": "Polygon", "coordinates": [[[13.75026, 51.065782], [13.74981, 51.066232], [13.74981, 51.067131], [13.751159, 51.06848], [13.752957, 51.06848], [13.753857, 51.067581], [13.754306, 51.06803], [13.754306, 51.06893], [13.754756, 51.069379], [13.757004, 51.067131], [13.757004, 51.065332], [13.756555, 51.064883], [13.754756, 51.064883], [13.753857, 51.063984], [13.752058, 51.063984], [13.75026, 51.065782]]]}, "properties": {"addr:city": "Dresden", "addr:country": "DE", "addr:housenumber": "4", "addr:postcode": "01099", "addr:street": "G\u00f6rlitzer Stra\u00dfe", "amenity": "fast_food", "name": "Kochbox", "opening_hours": "Mo-Th 12:00-01:30; Sa 12:00-00:00; Su, PH 12:00-02:30", "smoking": "outside", "takeaway": "yes", "wheelchair": "no", "__nodeId": 931565904}}, {"type": "Feature", "geometry": {"type": "Polygon", "coordinates": [[[13.75026, 51.067406], [13.74981, 51.067856], [13.75026, 51.068305], [13.752957, 51.068305], [13.753857, 51.067406], [13.754306, 51.067856], [13.754306, 51.068755], [13.754756, 51.069205], [13.758803, 51.065158], [13.758353, 51.064708], [13.754756, 51.064708], [13.753857, 51.063809], [13.752058, 51.063809], [13.750709, 51.065158], [13.750709, 51.066956], [13.75026, 51.067406]]]}, "properties": {"addr:city": "Dresden", "addr:country": "DE", "addr:housenumber": "1", "addr:postcode": "01099", "addr:street": "G\u00f6rlitzer Stra\u00dfe", "amenity": "cafe", "name": "Cafe G\u00f6rlitzer Platz 1", "opening_hours": "Mo-Su 12:00-03:00", "operator": "Jan Herrmann", "restaurant": "yes", "survey:date": "2016-09-04", "wheelchair": "no", "wheelchair:description:de": "Stufen im Eingangsbereich", "__nodeId": 931565907}}, {"type": "Feature", "geometry": {"type": "Polygon", "coordinates": [[[13.751035, 51.064753], [13.750585, 51.065202], [13.750585, 51.067001], [13.751035, 51.06745], [13.752833, 51.06745], [13.753732, 51.06835], [13.75643, 51.06835], [13.759578, 51.065202], [13.759128, 51.064753], [13.75733, 51.064753], [13.75643, 51.063853], [13.752833, 51.063853], [13.751934, 51.062954], [13.751484, 51.063404], [13.751484, 51.064303], [13.751035, 51.064753]]]}, "properties": {"addr:city": "Dresden", "addr:country": "DE", "addr:housenumber": "57", "addr:postcode": "01099", "addr:street": "Louisenstra\u00dfe", "amenity": "fast_food", "cuisine": "kebab", "diet:vegan": "yes", "diet:vegetarian": "yes", "name": "Mamaris Kebabhaus", "opening_hours": "Mo-Th 11:00-02:00; Su 11:00-24:00; Fr,Sa 11:00-05:00", "survey:date": "2016-09-09", "wheelchair": "no", "wheelchair:description:de": "Stufen im Eingangsbereich", "__nodeId": 931565910}}, {"type": "Feature", "geometry": {"type": "Polygon", "coordinates": [[[13.75407, 51.067479], [13.755869, 51.067479], [13.756768, 51.068378], [13.757667, 51.068378], [13.759915, 51.06613], [13.756768, 51.062982], [13.75407, 51.062982], [13.75362, 51.063432], [13.75362, 51.067029], [13.75407, 51.067479]]]}, "properties": {"addr:city": "Dresden", "addr:country": "DE", "addr:housenumber": "79", "addr:postcode": "01099", "addr:street": "Louisenstra\u00dfe", "amenity": "cafe", "description": "Shisha Lounge", "internet_access": "wlan", "name": "Magnolia", "opening_hours": "Tu-Th,Su 18:00-01:00, Fr-Sa 18:00-04:00", "outdoor_seating": "no", "shisha": "yes", "smoking": "isolated", "survey:date": "2016-09-09", "wheelchair": "no", "__nodeId": 931718546}}, {"type": "Feature", "geometry": {"type": "Polygon", "coordinates": [[[13.751707, 51.067637], [13.752606, 51.068536], [13.752606, 51.069435], [13.753056, 51.069885], [13.753955, 51.069885], [13.754855, 51.070784], [13.755754, 51.070784], [13.758002, 51.068536], [13.754855, 51.065388], [13.752157, 51.065388], [13.751707, 51.065838], [13.751707, 51.067637]]]}, "properties": {"addr:city": "Dresden", "addr:country": "DE", "addr:housenumber": "18b", "addr:postcode": "01099", "addr:street": "G\u00f6rlitzer Stra\u00dfe", "name": "Fr\u00fch- und Sp\u00e4tshop", "opening_hours": "Mo-Th 10:00-00:00; Fr-Sa 10:00-22:00; Su 14:00-00:00", "shop": "convenience", "wheelchair": "limited", "__nodeId": 935859243}}, {"type": "Feature", "geometry": {"type": "Polygon", "coordinates": [[[13.710922, 51.06459], [13.710922, 51.067288], [13.711372, 51.067738], [13.71272, 51.066389], [13.71272, 51.06549], [13.71317, 51.06504], [13.714069, 51.06504], [13.714969, 51.065939], [13.715418, 51.06549], [13.715418, 51.063691], [13.714519, 51.062792], [13.714519, 51.061892], [13.714069, 51.061443], [13.712271, 51.061443], [13.711821, 51.061892], [13.711821, 51.063691], [13.710922, 51.06459]]]}, "properties": {"amenity": "fuel", "automated": "yes", "email": "info@tankpool24.com", "emergency_telephone_code": "+49 800 3744432", "fuel:HGV_diesel": "yes", "fuel:adblue": "yes", "fuel:diesel": "yes", "name": "tankpool 24 (Keck)", "opening_hours": "24/7", "operator": "Keck Energieservice", "phone:freecall": "+49 800 8766524", "ref": "6126", "self_service": "yes", "station_id": "01067-ke-01", "url": "http://www.tankpool24.de/index.php?article_id=86&clang=0&station_id=01067-ke-01", "__nodeId": 1013751234}}, {"type": "Feature", "geometry": {"type": "Polygon", "coordinates": [[[13.730472, 51.076307], [13.730022, 51.076757], [13.730022, 51.077656], [13.731371, 51.079005], [13.734069, 51.079005], [13.735418, 51.077656], [13.735418, 51.076757], [13.735868, 51.076307], [13.736767, 51.076307], [13.737217, 51.075857], [13.735868, 51.074509], [13.73317, 51.074509], [13.732271, 51.075408], [13.731371, 51.075408], [13.730472, 51.076307]]]}, "properties": {"addr:city": "Dresden", "addr:country": "DE", "addr:housenumber": "44", "addr:postcode": "01127", "addr:street": "Gro\u00dfenhainer Stra\u00dfe", "amenity": "fuel", "brand": "Aral", "fuel:GTL_diesel": "yes", "fuel:diesel": "yes", "fuel:octane_102": "yes", "fuel:octane_95": "yes", "name": "ARAL", "opening_hours": "24/7", "operator": "Ullrich Hunger", "phone": "+49 351 8495448", "wheelchair": "limited", "__nodeId": 1054867042}}, {"type": "Feature", "geometry": {"type": "Polygon", "coordinates": [[[13.736604, 51.048454], [13.736155, 51.048904], [13.736604, 51.049354], [13.737504, 51.049354], [13.737953, 51.049803], [13.737953, 51.050702], [13.738403, 51.051152], [13.739302, 51.051152], [13.740202, 51.052051], [13.741101, 51.052051], [13.744248, 51.048904], [13.742, 51.046656], [13.740202, 51.046656], [13.739302, 51.045756], [13.736604, 51.048454]]]}, "properties": {"addr:city": "Dresden", "addr:country": "DE", "addr:housenumber": "5", "addr:postcode": "01067", "addr:street": "Wei\u00dfe Gasse", "opening_hours": "Su-Th 08:30-24:00; Fr-Sa 8:30-01:00", "smoking": "no", "wheelchair": "no", "__nodeId": 1123870433}}, {"type": "Feature", "geometry": {"type": "Polygon", "coordinates": [[[13.731313, 51.050819], [13.730863, 51.051268], [13.730863, 51.053067], [13.732212, 51.054416], [13.738507, 51.054416], [13.738957, 51.053966], [13.738957, 51.052168], [13.739856, 51.051268], [13.739407, 51.050819], [13.737608, 51.050819], [13.736709, 51.049919], [13.73491, 51.049919], [13.734011, 51.04902], [13.733112, 51.049919], [13.732212, 51.049919], [13.731313, 51.050819]]]}, "properties": {"amenity": "cafe", "cuisine": "regional", "name": "Apotheke im Taschenbergpalais", "opening_hours": "11:00-01:00", "phone": "+49 351 497260", "smoking": "yes", "website": "https://www.cafe-apotheke.de/", "wheelchair": "no", "wheelchair:description": "Stufen vor dem Eingang", "__nodeId": 1149143482}}, {"type": "Feature", "geometry": {"type": "Polygon", "coordinates": [[[13.727855, 51.080257], [13.726506, 51.081605], [13.726955, 51.082055], [13.727855, 51.082055], [13.728304, 51.082505], [13.728304, 51.083404], [13.728754, 51.083854], [13.730553, 51.083854], [13.731002, 51.083404], [13.731002, 51.082505], [13.731452, 51.082055], [13.732351, 51.082954], [13.73325, 51.082954], [13.734599, 51.081605], [13.7337, 51.080706], [13.7337, 51.078908], [13.73325, 51.078458], [13.731452, 51.078458], [13.730553, 51.077559], [13.730103, 51.078008], [13.730103, 51.078908], [13.729653, 51.079357], [13.728754, 51.079357], [13.727855, 51.080257]]]}, "properties": {"addr:city": "Dresden", "addr:country": "DE", "addr:housenumber": "91", "addr:postcode": "01127", "addr:street": "Gro\u00dfenhainer Stra\u00dfe", "amenity": "fuel", "brand": "Star", "fuel:diesel": "yes", "fuel:e10": "yes", "fuel:lpg": "yes", "fuel:octane_95": "yes", "fuel:octane_98": "yes", "name": "Star", "opening_hours": "24/7", "operator": "ORLEN Deutschland GmbH", "phone": "+49 351 8488063", "shop": "yes", "__nodeId": 1150794084}}, {"type": "Feature", "geometry": {"type": "Polygon", "coordinates": [[[13.744822, 51.062347], [13.744373, 51.062797], [13.744373, 51.064596], [13.744822, 51.065045], [13.745722, 51.065045], [13.746621, 51.065944], [13.748419, 51.065944], [13.748869, 51.065495], [13.748869, 51.064596], [13.750668, 51.062797], [13.750218, 51.062347], [13.744822, 51.062347]]]}, "properties": {"addr:city": "Dresden", "addr:country": "DE", "addr:housenumber": "3", "addr:postcode": "01099", "addr:street": "Bautzner Stra\u00dfe", "amenity": "fast_food", "cuisine": "kebab", "drive_through": "no", "ethnicity": "turkish", "name": "Arzu D\u00f6ner", "opening_hours": "24/7", "smoking": "no", "survey:date": "2016-09-03", "toilets": "yes", "wheelchair": "yes", "__nodeId": 1161266823}}, {"type": "Feature", "geometry": {"type": "Polygon", "coordinates": [[[13.748828, 51.068058], [13.752425, 51.068058], [13.753324, 51.068958], [13.753774, 51.068508], [13.753774, 51.06671], [13.754673, 51.06581], [13.754223, 51.065361], [13.753324, 51.06626], [13.750626, 51.06626], [13.750176, 51.06581], [13.750626, 51.065361], [13.751525, 51.065361], [13.751975, 51.064911], [13.750626, 51.063562], [13.748828, 51.063562], [13.748378, 51.064012], [13.748378, 51.067609], [13.748828, 51.068058]]]}, "properties": {"addr:city": "Dresden", "addr:country": "DE", "addr:housenumber": "36-40", "addr:postcode": "01099", "addr:street": "Alaunstra\u00dfe", "amenity": "cafe", "contact:email": "kontakt@scheunecafe.de", "contact:fax": "+49 351 89960669", "cuisine": "german;tea;regional;vegetarian;vegan;breakfast;coffee_shop;indian;local", "diet:vegan": "yes", "diet:vegetarian": "only", "internet_access": "wlan", "internet_access:description": "Freifunk Scheune", "internet_access:fee": "no", "microbrewery": "no", "name": "Scheunecafe", "opening_hours": "Mo-Fr 11:30-24:00; Sa-Su 09:00-01:00", "organic": "yes", "outdoor_seating": "yes", "payment:cash": "yes", "payment:credit_cards": "yes", "payment:girocard": "yes", "phone": "+49 351 8026619", "smoking": "separated", "takeaway": "no", "toilets:wheelchair": "yes", "website": "https://scheunecafe.de", "wheelchair": "yes", "__nodeId": 1209550653}}, {"type": "Feature", "geometry": {"type": "Polygon", "coordinates": [[[13.801394, 51.050614], [13.800046, 51.051963], [13.801394, 51.053312], [13.802294, 51.053312], [13.803193, 51.054211], [13.805891, 51.054211], [13.80679, 51.053312], [13.808589, 51.053312], [13.809038, 51.052862], [13.80679, 51.050614], [13.804992, 51.050614], [13.804092, 51.049715], [13.803193, 51.049715], [13.802294, 51.050614], [13.801394, 51.050614]]]}, "properties": {"addr:city": "Dresden", "addr:country": "DE", "addr:housenumber": "49", "addr:postcode": "01309", "addr:street": "Loschwitzer Stra\u00dfe", "amenity": "fast_food", "brand": "McDonald's", "brand:wikidata": "Q38076", "brand:wikipedia": "en:McDonald's", "cuisine": "burger", "name": "McDonald's", "opening_hours": "Mo-Th 09:00-23:00; Fr 09:00-00:00; Sa 10:00-00:00; Su 10:00-23:00", "operator": "McDonald's", "takeaway": "yes", "wheelchair": "limited", "__nodeId": 1377855434}}, {"type": "Feature", "geometry": {"type": "Polygon", "coordinates": [[[13.745356, 51.036251], [13.744906, 51.036701], [13.744906, 51.0376], [13.745356, 51.03805], [13.746255, 51.03805], [13.747154, 51.038949], [13.748054, 51.038949], [13.748953, 51.03805], [13.750751, 51.03805], [13.7521, 51.036701], [13.749852, 51.034453], [13.748953, 51.035352], [13.746255, 51.035352], [13.745356, 51.036251]]]}, "properties": {"addr:city": "Dresden", "addr:country": "DE", "addr:housenumber": "39", "addr:postcode": "01069", "addr:street": "Wiener Stra\u00dfe", "amenity": "fuel", "brand": "Total", "brand:wikidata": "Q154037", "brand:wikipedia": "fr:Total (entreprise)", "fuel:HGV_diesel": "yes", "fuel:LH2": "yes", "fuel:diesel": "yes", "fuel:e10": "yes", "fuel:lpg": "yes", "fuel:octane_95": "yes", "fuel:octane_98": "yes", "name": "Total", "opening_hours": "24/7", "phone": "+49 351 4710616", "wheelchair": "yes", "__nodeId": 1387772646}}, {"type": "Feature", "geometry": {"type": "Polygon", "coordinates": [[[13.739285, 51.056421], [13.738835, 51.056871], [13.738835, 51.059569], [13.740184, 51.060918], [13.742882, 51.060918], [13.743781, 51.060018], [13.74558, 51.060018], [13.746029, 51.059569], [13.746029, 51.05777], [13.74468, 51.056421], [13.739285, 51.056421]]]}, "properties": {"addr:city": "Dresden", "addr:housenumber": "9", "addr:postcode": "01097", "addr:street": "Neust\u00e4dter Markt", "name": "NM9 Shop & Lounge", "opening_hours": "17:00-01:00", "shop": "supermarket", "wheelchair": "yes", "__nodeId": 1518065889}}, {"type": "Feature", "geometry": {"type": "Polygon", "coordinates": [[[13.699957, 51.042531], [13.699957, 51.045229], [13.700407, 51.045678], [13.703105, 51.045678], [13.704004, 51.044779], [13.704903, 51.044779], [13.706252, 51.04343], [13.705803, 51.042981], [13.704004, 51.042981], [13.703105, 51.042081], [13.700407, 51.042081], [13.699957, 51.042531]]]}, "properties": {"amenity": "fast_food", "contact:phone": "+49 351 4276602", "cuisine": "turkish", "diet:vegan": "no", "diet:vegetarian": "yes", "level": "0", "name": "\u015eirin", "opening_hours": "Su-Th 10:00-02:00, Fr,Sa 10:00-05:00", "operator": "Baris Engin", "toilets": "yes", "wheelchair": "yes", "__nodeId": 1549527272}}, {"type": "Feature", "geometry": {"type": "Polygon", "coordinates": [[[13.759645, 51.117988], [13.758746, 51.117988], [13.758296, 51.118437], [13.759645, 51.119786], [13.760544, 51.119786], [13.760994, 51.120236], [13.760095, 51.121135], [13.760095, 51.122934], [13.760544, 51.123383], [13.761444, 51.123383], [13.762343, 51.122484], [13.764142, 51.122484], [13.76549, 51.121135], [13.76549, 51.119337], [13.765041, 51.118887], [13.764142, 51.119786], [13.761444, 51.119786], [13.760994, 51.119337], [13.760994, 51.118437], [13.760544, 51.117988], [13.759645, 51.117988]]]}, "properties": {"addr:city": "Dresden", "addr:country": "DE", "addr:housenumber": "81", "addr:postcode": "01109", "addr:street": "Flughafenstra\u00dfe", "amenity": "fuel", "brand": "Agip", "fuel:GTL_diesel": "yes", "fuel:diesel": "yes", "fuel:octane_95": "yes", "name": "Agip", "opening_hours": "24/7", "operator": "Eni", "phone": "+49 351 8903186", "ref": "0000005117", "shop": "yes", "wheelchair": "limited", "__nodeId": 1583414529}}, {"type": "Feature", "geometry": {"type": "Polygon", "coordinates": [[[13.698699, 51.040563], [13.699599, 51.040563], [13.700948, 51.041912], [13.700948, 51.042811], [13.701397, 51.043261], [13.705444, 51.039214], [13.702296, 51.036067], [13.701397, 51.036966], [13.699599, 51.036966], [13.69825, 51.038315], [13.69825, 51.040113], [13.698699, 51.040563]]]}, "properties": {"name": "m3 Coffee & Shop", "note": "Sommer\u00f6ffnungszeiten", "opening_hours": "Mo-Th 18:00-24:00; Fr, Sa 18:00-00:30; Su, PH 09:00-24:00", "shop": "kiosk", "wheelchair": "no", "wheelchair:description:de": "Stufen am Eingang", "__nodeId": 1907343516}}, {"type": "Feature", "geometry": {"type": "Polygon", "coordinates": [[[13.758439, 51.06082], [13.757091, 51.062169], [13.757091, 51.063068], [13.758439, 51.064417], [13.762936, 51.064417], [13.763835, 51.065316], [13.764285, 51.064867], [13.764285, 51.063967], [13.764734, 51.063518], [13.765634, 51.063518], [13.766083, 51.063068], [13.764734, 51.061719], [13.762936, 51.061719], [13.761137, 51.059921], [13.759339, 51.059921], [13.758439, 51.06082]]]}, "properties": {"access": "customers", "entrance": "secondary", "opening_hours": "24/7", "phone": "+49 351 8101708", "ref": "Notaufnahme", "__nodeId": 2198154310}}, {"type": "Feature", "geometry": {"type": "Polygon", "coordinates": [[[13.738375, 51.068177], [13.737475, 51.068177], [13.737026, 51.068627], [13.737925, 51.069526], [13.737925, 51.070426], [13.739274, 51.071774], [13.741972, 51.071774], [13.742422, 51.071325], [13.742422, 51.069526], [13.743321, 51.068627], [13.742871, 51.068177], [13.741972, 51.068177], [13.740173, 51.066379], [13.739274, 51.066379], [13.738824, 51.066828], [13.738824, 51.067728], [13.738375, 51.068177]]]}, "properties": {"addr:city": "Dresden", "addr:country": "DE", "addr:housenumber": "7", "addr:postcode": "01097", "addr:street": "Rudolfstra\u00dfe", "description": "Spaetkauf", "drink:club-mate": "retail", "name": "Bio7", "opening_hours": "Mo-Tu 16:00-01:00, We 09:00-12:00,16:00-24:00, Th 16:00-01:00, Fr 06:00-11:00,16:00-01:00, Sa-Su 16:00-01:00", "shop": "convenience", "toilets:wheelchair": "no", "wheelchair": "no", "__nodeId": 2445037175}}, {"type": "Feature", "geometry": {"type": "Polygon", "coordinates": [[[13.739153, 51.063877], [13.737804, 51.065226], [13.738703, 51.066126], [13.738703, 51.067924], [13.739153, 51.068374], [13.740052, 51.068374], [13.74185, 51.066575], [13.74275, 51.066575], [13.743649, 51.067474], [13.744998, 51.066126], [13.744998, 51.064327], [13.744548, 51.063877], [13.74185, 51.063877], [13.740951, 51.062978], [13.740052, 51.062978], [13.739153, 51.063877]]]}, "properties": {"access": "yes", "amenity": "lockers", "charge": "2\u20ac;3\u20ac", "fee": "yes", "maxstay": "72h", "opening_hours": "24/7", "operator": "Deutsche Bahn", "__nodeId": 2463946520}}, {"type": "Feature", "geometry": {"type": "Polygon", "coordinates": [[[13.737414, 51.072768], [13.736965, 51.073217], [13.736965, 51.075915], [13.738313, 51.077264], [13.741011, 51.077264], [13.74236, 51.075915], [13.74236, 51.074116], [13.741911, 51.073667], [13.741011, 51.073667], [13.740112, 51.072768], [13.737414, 51.072768]]]}, "properties": {"addr:city": "Dresden", "addr:housenumber": "56", "addr:postcode": "01097", "addr:street": "Hansastra\u00dfe", "amenity": "cafe", "brand": "McCaf\u00e9", "brand:wikidata": "Q3114287", "brand:wikipedia": "en:McCaf\u00e9", "cuisine": "coffee_shop", "diet:vegetarian": "yes", "name": "McCaf\u00e9", "opening_hours": "Mo-Th 07:00-22:00; Fr-Sa 07:00-01:00, Su 08:00-22:00", "operator:wikidata": "Q38076", "operator:wikipedia": "en:McDonald's", "takeaway": "yes", "website": "https://www.mcdonalds.de/restaurant/dresden-hansastr-56?id=1175", "wheelchair": "yes", "__nodeId": 2548624128}}, {"type": "Feature", "geometry": {"type": "Polygon", "coordinates": [[[13.77674, 51.011042], [13.776291, 51.011492], [13.776291, 51.012391], [13.775392, 51.01329], [13.775841, 51.01374], [13.778539, 51.01374], [13.779888, 51.012391], [13.779888, 51.011492], [13.780338, 51.011042], [13.782136, 51.011042], [13.782586, 51.010592], [13.781237, 51.009243], [13.780338, 51.010143], [13.77764, 51.010143], [13.77674, 51.011042]]]}, "properties": {"addr:city": "Dresden", "addr:housenumber": "148", "addr:postcode": "01239", "addr:street": "Dohnaer Stra\u00dfe", "amenity": "fuel", "fuel:lpg": "yes", "name": "Stargas Alternative Kraftstoffe", "opening_hours": "24/7", "payment:ec": "yes", "__nodeId": 2578785135}}, {"type": "Feature", "geometry": {"type": "Polygon", "coordinates": [[[13.751756, 51.065388], [13.751307, 51.065838], [13.751756, 51.066288], [13.752206, 51.065838], [13.751756, 51.065388]]]}, "properties": {"addr:city": "Dresden", "addr:country": "DE", "addr:housenumber": "30", "addr:postcode": "01099", "addr:street": "Alaunstra\u00dfe", "amenity": "fast_food", "name": "Panino della Mamma", "opening_hours": "Tu-Th 12:00-14:00, 17:30-22:00; Fr, Sa 16:30-00:00", "wheelchair": "no", "__nodeId": 2600114672}}, {"type": "Feature", "geometry": {"type": "Polygon", "coordinates": [[[13.784156, 51.12582], [13.783707, 51.12627], [13.785056, 51.127619], [13.788653, 51.127619], [13.790002, 51.12627], [13.788653, 51.124921], [13.787754, 51.124921], [13.787304, 51.124471], [13.787304, 51.123572], [13.786854, 51.123122], [13.785955, 51.123122], [13.784606, 51.124471], [13.784606, 51.12537], [13.784156, 51.12582]]]}, "properties": {"access": "private", "aed:note": "Located in the 1st floor", "aed:note:de": "Befindet sich im zweiten Stock", "description:de": "Defibrillator", "emergency": "defibrillator", "indoor:level:name": "Ebene 2", "opening_hours": "24/7", "operator": "XFab", "wheelchair": "yes", "__nodeId": 2702328580}}, {"type": "Feature", "geometry": {"type": "Polygon", "coordinates": [[[13.74409, 51.074101], [13.74364, 51.07455], [13.74364, 51.075449], [13.74409, 51.075899], [13.744989, 51.075899], [13.745889, 51.076798], [13.746788, 51.076798], [13.747687, 51.077698], [13.748586, 51.077698], [13.749486, 51.076798], [13.751284, 51.076798], [13.751734, 51.076349], [13.751734, 51.07455], [13.750385, 51.073201], [13.744989, 51.073201], [13.74409, 51.074101]]]}, "properties": {"name": "Sp\u00e4tshop Nachtwurm", "opening_hours": "Mo-Fr 17:00-00:00; Sa 18:00-00:00; Su 14:00-00:00", "shop": "convenience", "wheelchair": "no", "__nodeId": 2922043483}}, {"type": "Feature", "geometry": {"type": "Polygon", "coordinates": [[[13.731129, 51.075704], [13.730679, 51.075254], [13.73023, 51.075704], [13.73023, 51.077502], [13.732478, 51.079751], [13.733377, 51.078851], [13.735176, 51.078851], [13.735625, 51.078402], [13.735625, 51.077502], [13.736525, 51.076603], [13.736525, 51.075704], [13.737424, 51.074805], [13.736974, 51.074355], [13.735176, 51.074355], [13.734276, 51.073456], [13.733377, 51.073456], [13.732928, 51.073905], [13.732928, 51.075704], [13.732478, 51.076154], [13.731579, 51.076154], [13.731129, 51.075704]]]}, "properties": {"name": "Aral Store", "opening_hours": "24/7", "shop": "convenience", "__nodeId": 3020389184}}, {"type": "Feature", "geometry": {"type": "Polygon", "coordinates": [[[13.713294, 51.078286], [13.712394, 51.078286], [13.711945, 51.078736], [13.712844, 51.079635], [13.712844, 51.080535], [13.713294, 51.080984], [13.714193, 51.080984], [13.715092, 51.080085], [13.716891, 51.080085], [13.71734, 51.079635], [13.716891, 51.079186], [13.715992, 51.079186], [13.715542, 51.078736], [13.715992, 51.078286], [13.716891, 51.078286], [13.71824, 51.076937], [13.71779, 51.076488], [13.716891, 51.077387], [13.714193, 51.077387], [13.713294, 51.078286]]]}, "properties": {"name": "Shell select", "opening_hours": "24/7", "shop": "convenience", "__nodeId": 3022966166}}, {"type": "Feature", "geometry": {"type": "Polygon", "coordinates": [[[13.713622, 51.044909], [13.713172, 51.045358], [13.714072, 51.046258], [13.714072, 51.047157], [13.715421, 51.048506], [13.71632, 51.048506], [13.717219, 51.047607], [13.719018, 51.047607], [13.720367, 51.046258], [13.719018, 51.044909], [13.718118, 51.045808], [13.71632, 51.045808], [13.715421, 51.044909], [13.713622, 51.044909]]]}, "properties": {"addr:city": "Dresden", "addr:housenumber": "1-3", "addr:postcode": "01159", "addr:street": "Jagdweg", "amenity": "coworking_space", "club": "doityourself", "internet_access": "yes", "internet_access:fee": "no", "internet_access:ssid": "Freifunk Dresden: RW", "leisure": "makerspace", "name": "#Rosenwerk", "opening_hours": "24/7", "operator": "Konglomerat e.V.", "website": "https://konglomerat.org/rosenwerk.html", "wifi": "free", "__nodeId": 3140655489}}, {"type": "Feature", "geometry": {"type": "Polygon", "coordinates": [[[13.747287, 51.068206], [13.746837, 51.068655], [13.746837, 51.070454], [13.747287, 51.070904], [13.748186, 51.070904], [13.749985, 51.072702], [13.752683, 51.072702], [13.753132, 51.072253], [13.753132, 51.070454], [13.752683, 51.070004], [13.749985, 51.070004], [13.749535, 51.069555], [13.749535, 51.068655], [13.749085, 51.068206], [13.747287, 51.068206]]]}, "properties": {"amenity": "fast_food", "cuisine": "kebab", "delivery": "no", "diet:vegan": "yes", "diet:vegetarian": "yes", "drive_through": "no", "name": "Yufka Kebab Haus", "opening_hours": "Su-Th 10:30-03:00; Fr-Sa 10:30-05:00", "smoking": "no", "survey:date": "2016-09-02", "takeaway": "yes", "wheelchair": "no", "__nodeId": 3208857361}}, {"type": "Feature", "geometry": {"type": "Polygon", "coordinates": [[[13.722579, 51.070386], [13.72123, 51.071735], [13.72123, 51.072635], [13.722129, 51.073534], [13.722129, 51.075332], [13.722579, 51.075782], [13.727075, 51.075782], [13.727525, 51.075332], [13.727525, 51.071735], [13.727075, 51.071286], [13.726176, 51.072185], [13.724377, 51.072185], [13.722579, 51.070386]]]}, "properties": {"addr:city": "Dresden", "addr:housenumber": "60", "addr:postcode": "01127", "addr:street": "Leipziger Stra\u00dfe", "name": "Mole - Sp\u00e4tkauf & Bistro", "opening_hours": "Mo-Th 19:00-00:00; Fr,Sa 19:00-01:00, Su,PH 14:00-00:00", "shop": "convenience", "wheelchair": "yes", "__nodeId": 3311590315}}, {"type": "Feature", "geometry": {"type": "Polygon", "coordinates": [[[13.746998, 51.070846], [13.746548, 51.071295], [13.747897, 51.072644], [13.751494, 51.072644], [13.753293, 51.074443], [13.753742, 51.073993], [13.753742, 51.072195], [13.755541, 51.070396], [13.755091, 51.069946], [13.753293, 51.069946], [13.752393, 51.069047], [13.751494, 51.069946], [13.750595, 51.069946], [13.749695, 51.069047], [13.748796, 51.069047], [13.746998, 51.070846]]]}, "properties": {"addr:city": "Dresden", "addr:country": "DE", "addr:housenumber": "74", "addr:postcode": "01099", "addr:street": "K\u00f6nigsbr\u00fccker Stra\u00dfe", "amenity": "fast_food", "contact:phone": "+4935130933354", "contact:website": "http://www.beatnburger.com/", "cuisine": "burger", "diet:vegan": "yes", "diet:vegetarian": "yes", "name": "Beat\u2019n\u2019Burger", "opening_hours": "Su-Th 12:00-00:00, Fr-Sa 12:00-02:00", "survey:date": "2017-07-25", "wheelchair": "limited", "__nodeId": 3323212589}}, {"type": "Feature", "geometry": {"type": "Polygon", "coordinates": [[[13.775293, 51.057335], [13.774844, 51.057784], [13.774844, 51.058684], [13.775743, 51.059583], [13.775743, 51.060482], [13.776193, 51.060932], [13.777991, 51.060932], [13.778891, 51.060033], [13.780689, 51.060033], [13.781139, 51.059583], [13.780239, 51.058684], [13.780239, 51.056885], [13.778891, 51.055536], [13.777092, 51.055536], [13.776642, 51.055986], [13.776642, 51.056885], [13.776193, 51.057335], [13.775293, 51.057335]]]}, "properties": {"emergency": "defibrillator", "indoor": "yes", "opening_hours": "24/7", "wheelchair": "yes", "__nodeId": 4162088364}}, {"type": "Feature", "geometry": {"type": "Polygon", "coordinates": [[[13.731302, 51.039415], [13.730853, 51.039865], [13.730853, 51.042563], [13.731302, 51.043012], [13.735799, 51.043012], [13.737147, 51.041663], [13.737147, 51.039865], [13.736698, 51.039415], [13.734899, 51.039415], [13.734, 51.038516], [13.733101, 51.039415], [13.731302, 51.039415]]]}, "properties": {"amenity": "cafe", "name": "Napoli Mia Caff\u00e9", "opening_hours": "24/7", "__nodeId": 4295026289}}, {"type": "Feature", "geometry": {"type": "Polygon", "coordinates": [[[13.7519, 51.065051], [13.75145, 51.065501], [13.75145, 51.0664], [13.7519, 51.06685], [13.752799, 51.06685], [13.753249, 51.0673], [13.753249, 51.068199], [13.753699, 51.068648], [13.755497, 51.068648], [13.756396, 51.067749], [13.758195, 51.067749], [13.759544, 51.0664], [13.759544, 51.064602], [13.759094, 51.064152], [13.757296, 51.064152], [13.756396, 51.063253], [13.755497, 51.064152], [13.752799, 51.064152], [13.7519, 51.065051]]]}, "properties": {"addr:city": "Dresden", "addr:country": "DE", "addr:housenumber": "58", "addr:postcode": "01099", "addr:street": "Louisenstra\u00dfe", "cuisine": "sandwich", "disused:amenity": "restaurant", "name": "King\u2019s Bread", "opening_hours": "Su-Tu 11:00-22:00; Fr-Sa 11:00-01:00", "outdoor_seating": "yes", "survey:date": "2016-09-09", "takeaway": "yes", "__nodeId": 4307098573}}, {"type": "Feature", "geometry": {"type": "Polygon", "coordinates": [[[13.758944, 51.080254], [13.757595, 51.081603], [13.758944, 51.082952], [13.759843, 51.082952], [13.760742, 51.083851], [13.761642, 51.083851], [13.76389, 51.081603], [13.76344, 51.081153], [13.762541, 51.081153], [13.761642, 51.080254], [13.760742, 51.080254], [13.759843, 51.079355], [13.758944, 51.080254]]]}, "properties": {"amenity": "fuel", "brand": "Total", "fuel:HGV_diesel": "yes", "fuel:lpg": "yes", "fuel:octane_95": "yes", "fuel:octane_98": "yes", "name": "Total", "opening_hours": "Mo-Fr 05:00-21:45; Sa 00:00-24:00; Su 00:00-21:45", "shop": "yes", "wheelchair": "yes", "__nodeId": 4455381792}}, {"type": "Feature", "geometry": {"type": "Polygon", "coordinates": [[[13.77043, 51.057643], [13.769981, 51.058092], [13.77043, 51.058542], [13.77133, 51.058542], [13.774028, 51.06124], [13.774927, 51.06124], [13.778074, 51.058092], [13.777625, 51.057643], [13.776725, 51.057643], [13.776276, 51.057193], [13.776276, 51.056294], [13.775826, 51.055844], [13.774028, 51.055844], [13.773128, 51.056743], [13.77133, 51.056743], [13.77043, 51.057643]]]}, "properties": {"addr:city": "Dresden", "addr:country": "DE", "addr:postcode": "01307", "addr:street": "Pfotenhauerstra\u00dfe", "min_age": "18", "name": "Caf\u00e9 Orange", "opening_hours": "Mo-Su 00:00-05:00,06:00-24:00", "__nodeId": 5169071857}}, {"type": "Feature", "geometry": {"type": "Polygon", "coordinates": [[[13.755976, 51.062005], [13.755526, 51.062455], [13.755526, 51.064253], [13.755976, 51.064703], [13.759573, 51.064703], [13.760472, 51.065602], [13.761372, 51.064703], [13.76317, 51.064703], [13.76362, 51.064253], [13.76362, 51.062455], [13.76317, 51.062005], [13.759573, 51.062005], [13.758674, 51.061106], [13.757775, 51.062005], [13.755976, 51.062005]]]}, "properties": {"addr:housenumber": "62", "addr:postcode": "01099", "addr:street": "Bautzner Stra\u00dfe", "amenity": "doctors", "name": "Gemeinschaftspraxis f\u00fcr Allgemeinmedizin", "opening_hours": "Mo-Fr 00:00-24:00", "phone": "0351 8014052", "website": "http://hausarzt-dresden-neustadt.de/", "__nodeId": 5372679026}}, {"type": "Feature", "geometry": {"type": "Polygon", "coordinates": [[[13.792863, 51.143705], [13.792414, 51.144154], [13.792414, 51.147751], [13.792863, 51.148201], [13.79736, 51.148201], [13.79781, 51.147751], [13.79691, 51.146852], [13.79691, 51.145054], [13.796461, 51.144604], [13.795561, 51.144604], [13.794662, 51.143705], [13.792863, 51.143705]]]}, "properties": {"amenity": "public_bookcase", "name": "B\u00fccher-Telefonzelle", "opening_hours": "24/7", "public_bookcase:type": "phone_box", "start_date": "2017", "wheelchair": "no", "__nodeId": 5679868373}}, {"type": "Feature", "geometry": {"type": "Polygon", "coordinates": [[[13.733798, 51.119831], [13.733348, 51.12028], [13.733348, 51.121179], [13.733798, 51.121629], [13.735597, 51.121629], [13.736496, 51.12073], [13.737395, 51.12073], [13.738744, 51.119381], [13.738744, 51.117582], [13.738294, 51.117133], [13.736496, 51.117133], [13.736046, 51.117582], [13.736046, 51.118482], [13.734697, 51.119831], [13.733798, 51.119831]]]}, "properties": {"addr:housenumber": "55a", "addr:street": "Bauernweg", "amenity": "dentist", "email": "tom.friedrichs@zahnarztpraxis-friedrichs.de", "name": "Tom Friedrichs Zahnarzt", "opening_hours": "Mo, Th 08:00-12:00, 13:30-19:00; Tu 08:00-12:00, 13:30-16:00; Fr 08:00-12:00, 01:30-15:00", "phone": "+49351885680", "website": "https://www.zahnarztpraxis-friedrichs.de/", "__nodeId": 5959803805}}, {"type": "Feature", "geometry": {"type": "Polygon", "coordinates": [[[13.731383, 51.018563], [13.729585, 51.018563], [13.729135, 51.019013], [13.729135, 51.02171], [13.729585, 51.02216], [13.730484, 51.02216], [13.731383, 51.021261], [13.733182, 51.021261], [13.734531, 51.019912], [13.734081, 51.019462], [13.732282, 51.019462], [13.731383, 51.018563]]]}, "properties": {"name": "Rewe To Go", "opening_hours": "24/7", "shop": "convenience", "__nodeId": 6927552973}}, {"type": "Feature", "geometry": {"type": "Polygon", "coordinates": [[[13.757235, 51.024896], [13.756785, 51.025345], [13.756785, 51.029842], [13.757235, 51.030291], [13.759033, 51.030291], [13.759932, 51.029392], [13.760832, 51.029392], [13.76308, 51.027144], [13.76308, 51.025345], [13.76263, 51.024896], [13.757235, 51.024896]]]}, "properties": {"alt_name": "Velumount-Zentrum", "amenity": "doctors", "contact:phone": "+49 351 4769572", "contact:website": "https://schlaflabor-dresden.de", "healthcare": "doctor", "level": "3", "name": "Schlafmedizinisches Zentrum", "opening_hours": "19:00-07:00", "__nodeId": 7205618865}}, {"type": "Feature", "geometry": {"type": "Polygon", "coordinates": [[[13.676517, 51.06199], [13.676067, 51.06244], [13.676067, 51.063339], [13.675168, 51.064239], [13.675618, 51.064688], [13.678315, 51.064688], [13.679215, 51.063789], [13.680114, 51.063789], [13.681013, 51.064688], [13.681913, 51.063789], [13.683711, 51.063789], [13.684161, 51.063339], [13.684161, 51.061541], [13.683711, 51.061091], [13.681913, 51.061091], [13.681013, 51.060192], [13.680114, 51.061091], [13.679215, 51.061091], [13.678315, 51.06199], [13.676517, 51.06199]]]}, "properties": {"addr:city": "Dresden", "addr:country": "DE", "addr:housenumber": "88c", "addr:postcode": "01157", "addr:street": "Hamburger Stra\u00dfe", "amenity": "fuel", "brand": "Aral", "building": "yes", "fuel:GTL_diesel": "yes", "fuel:HGV_diesel": "yes", "fuel:diesel": "yes", "fuel:e10": "yes", "fuel:octane_100": "yes", "fuel:octane_95": "yes", "name": "ARAL", "opening_hours": "24/7", "operator": "Gabriela R\u00fclke", "payment:cash": "yes", "payment:contactless": "yes", "payment:dkv": "yes", "payment:girocard": "yes", "payment:mastercard": "yes", "payment:visa": "yes", "phone": "+49 351 4226969", "wheelchair": "yes", "__nodeIds": [270920137, 270920139, 3635026094, 270920140, 1862697357, 1862697355, 1862697353, 270920141, 3635026095, 270920130, 1295889863, 3635026099, 270920131, 3635026098, 1862697336, 3635026097, 270920132, 3635026096, 270920133, 270920134, 1862697330, 270920135, 3635024185, 1862697332, 270920136, 3635024184, 3635024183, 3635026093, 270920137]}}, {"type": "Feature", "geometry": {"type": "Polygon", "coordinates": [[[13.767306, 51.015026], [13.766407, 51.015026], [13.765957, 51.015475], [13.766407, 51.015925], [13.767306, 51.015925], [13.767756, 51.016375], [13.767756, 51.018173], [13.768205, 51.018623], [13.772702, 51.018623], [13.77495, 51.016375], [13.772702, 51.014127], [13.768205, 51.014127], [13.767306, 51.015026]]]}, "properties": {"addr:city": "Dresden", "addr:country": "DE", "addr:housenumber": "90", "addr:postcode": "01219", "addr:street": "Dohnaer Stra\u00dfe", "amenity": "fuel", "brand": "Star", "building": "roof", "fuel:HGV_diesel": "no", "fuel:diesel": "yes", "fuel:e10": "yes", "fuel:lpg": "yes", "fuel:octane_92": "yes", "fuel:octane_95": "yes", "fuel:octane_98": "yes", "layer": "1", "name": "Star", "opening_hours": "24/7", "operator": "ORLEN Deutschland GmbH", "phone": "+49 351 4723559", "roof:shape": "flat", "wheelchair": "yes", "__nodeIds": [1983460792, 3478278268, 4036064821, 3478278269, 3224509320, 282055152, 4036070200, 3224499642, 1988249790, 3224509310, 3478278271, 4036064827, 4036064825, 3478278270, 4036064822, 1983460795, 1983460792]}}, {"type": "Feature", "geometry": {"type": "Polygon", "coordinates": [[[13.69543, 51.093635], [13.69498, 51.094085], [13.69498, 51.094984], [13.696329, 51.096333], [13.698128, 51.096333], [13.699926, 51.094535], [13.700825, 51.094535], [13.702174, 51.093186], [13.699926, 51.090937], [13.699027, 51.091837], [13.697228, 51.091837], [13.69543, 51.093635]]]}, "properties": {"addr:city": "Dresden", "addr:country": "DE", "addr:housenumber": "1", "addr:postcode": "01139", "addr:street": "An der D\u00fcrren Heide", "amenity": "fuel", "brand": "Esso", "building": "yes", "fuel:1_50": "yes", "fuel:diesel": "yes", "fuel:e10": "yes", "fuel:octane_95": "yes", "fuel:octane_98": "yes", "name": "Esso", "opening_hours": "Mo-Su 00:00-24:00", "operator": "Esso", "payment:dkv": "yes", "payment:uta": "yes", "phone": "+49 351 8588481", "__nodeIds": [331108454, 331108455, 331108456, 331108457, 331108458, 331108459, 331108460, 331108461, 331108462, 331108463, 331108464, 331108465, 331108466, 331108467, 331108468, 331108470, 331108454]}}, {"type": "Feature", "geometry": {"type": "Polygon", "coordinates": [[[13.629825, 51.037903], [13.628925, 51.037903], [13.628476, 51.038353], [13.629375, 51.039252], [13.629375, 51.040152], [13.629825, 51.040601], [13.632523, 51.040601], [13.633872, 51.039252], [13.631623, 51.037004], [13.630724, 51.037903], [13.629825, 51.037903]]]}, "properties": {"addr:city": "Dresden", "addr:housenumber": "3", "addr:postcode": "01156", "addr:street": "Gompitzer H\u00f6he", "addr:suburb": "Gompitz", "amenity": "fast_food", "brand": "McDonald's", "brand:wikidata": "Q38076", "brand:wikipedia": "en:McDonald's", "building": "commercial", "cuisine": "burger", "internet_access": "wlan", "internet_access:fee": "no", "internet_access:operator": "Telekom", "name": "McDonald's", "opening_hours": "Mo-Su 07:00-01:00", "takeaway": "yes", "toilets:wheelchair": "yes", "wheelchair": "yes", "__nodeIds": [331942220, 331942221, 1584979236, 1584979238, 4419359242, 331942224, 331942225, 331942220]}}, {"type": "Feature", "geometry": {"type": "Polygon", "coordinates": [[[13.802136, 50.996408], [13.804833, 50.996408], [13.805283, 50.995958], [13.805283, 50.99416], [13.806182, 50.99326], [13.805733, 50.992811], [13.804833, 50.99371], [13.802136, 50.99371], [13.801686, 50.99416], [13.801686, 50.995958], [13.802136, 50.996408]]]}, "properties": {"addr:city": "Dresden", "addr:country": "DE", "addr:housenumber": "1", "addr:postcode": "01257", "addr:street": "Michaelisstra\u00dfe", "amenity": "fast_food", "brand": "McDonald's", "brand:wikidata": "Q38076", "brand:wikipedia": "en:McDonald's", "building": "yes", "cuisine": "burger", "name": "McDonald's", "opening_hours": "Mo-Th 07:00-01:00, Fr-Sa 07:00-02:00, Su 08:00-01:00", "phone": "+49 351 284 9065", "takeaway": "yes", "toilets:wheelchair": "yes", "wheelchair": "yes", "__nodeIds": [387219898, 1839882801, 1839882766, 387219899, 1839882772, 1839882764, 1839882770, 1839882795, 387219896, 1839882729, 1839882789, 1839882793, 1839882787, 387219897, 387219898]}}, {"type": "Feature", "geometry": {"type": "Polygon", "coordinates": [[[13.744901, 51.070941], [13.744451, 51.071391], [13.744451, 51.07229], [13.744901, 51.07274], [13.746699, 51.07274], [13.747599, 51.073639], [13.752095, 51.073639], [13.752545, 51.073189], [13.752545, 51.071391], [13.753444, 51.070492], [13.752994, 51.070042], [13.749397, 51.070042], [13.748498, 51.069143], [13.746699, 51.069143], [13.744901, 51.070941]]]}, "properties": {"addr:city": "Dresden", "addr:country": "DE", "addr:housenumber": "4", "addr:postcode": "01097", "addr:street": "Bischofsweg", "amenity": "fast_food", "building": "retail", "building:levels": "1", "cuisine": "kebab", "diet:vegetarian": "yes", "name": "\u00d6z Nemrut", "opening_hours": "Su-Th 09:00-00:00; Fr-Sa 09:00-03:00", "survey:date": "2016-09-03", "website": "http://www.oez-nemrut.de", "wheelchair": "limited", "wheelchair:description": "Tresen und Tische ebenerdig. WC-Erreichbarkeit nicht \u00fcberpr\u00fcft.", "__nodeIds": [399469879, 399469885, 399469891, 399469894, 399469879]}}, {"type": "Feature", "geometry": {"type": "Polygon", "coordinates": [[[13.727855, 51.080257], [13.726506, 51.081605], [13.726955, 51.082055], [13.727855, 51.082055], [13.728304, 51.082505], [13.728304, 51.083404], [13.728754, 51.083854], [13.730553, 51.083854], [13.731002, 51.083404], [13.731002, 51.082505], [13.731452, 51.082055], [13.732351, 51.082954], [13.73325, 51.082954], [13.734599, 51.081605], [13.7337, 51.080706], [13.7337, 51.078908], [13.73325, 51.078458], [13.731452, 51.078458], [13.730553, 51.077559], [13.730103, 51.078008], [13.730103, 51.078908], [13.729653, 51.079357], [13.728754, 51.079357], [13.727855, 51.080257]]]}, "properties": {"addr:city": "Dresden", "addr:housenumber": "89", "addr:postcode": "01127", "addr:street": "Gro\u00dfenhainer Stra\u00dfe", "building": "retail", "building:levels": "1", "name": "star Shop", "opening_hours": "24/7", "roof:levels": "0", "shop": "convenience", "__nodeIds": [418493274, 418493273, 1523270169, 1523270170, 2334939905, 418493274]}}, {"type": "Feature", "geometry": {"type": "Polygon", "coordinates": [[[13.73425, 51.092715], [13.733351, 51.092715], [13.732902, 51.093164], [13.732902, 51.094963], [13.733801, 51.095862], [13.733801, 51.096761], [13.73425, 51.097211], [13.736948, 51.097211], [13.737398, 51.096761], [13.737398, 51.094064], [13.738297, 51.093164], [13.738297, 51.092265], [13.737848, 51.091815], [13.736948, 51.091815], [13.736049, 51.092715], [13.73425, 51.092715]]]}, "properties": {"addr:city": "Dresden", "addr:country": "DE", "addr:housenumber": "50", "addr:postcode": "01129", "addr:street": "Radeburger Stra\u00dfe", "amenity": "fuel", "brand": "Aral", "building": "roof", "fuel:cng": "yes", "fuel:diesel": "yes", "fuel:e10": "yes", "fuel:octane_95": "yes", "fuel:octane_98": "yes", "name": "ARAL", "opening_hours": "24/7", "shop": "yes", "__nodeIds": [468222607, 468222610, 2125407484, 2125407476, 3064751266, 468222614, 468222619, 3064751267, 3064751281, 468222607]}}, {"type": "Feature", "geometry": {"type": "Polygon", "coordinates": [[[13.737414, 51.072765], [13.736965, 51.073214], [13.736965, 51.075912], [13.738313, 51.077261], [13.741011, 51.077261], [13.74236, 51.075912], [13.74236, 51.074113], [13.741911, 51.073664], [13.741011, 51.073664], [13.740112, 51.072765], [13.737414, 51.072765]]]}, "properties": {"addr:city": "Dresden", "addr:country": "DE", "addr:housenumber": "56", "addr:postcode": "01097", "addr:street": "Hansastra\u00dfe", "amenity": "fast_food", "brand": "McDonald's", "brand:wikidata": "Q38076", "brand:wikipedia": "en:McDonald's", "building": "retail", "building:levels": "1", "cuisine": "burger", "diet:vegetarian": "yes", "drive_through": "yes", "name": "McDonald's", "opening_hours": "Mo-Th 07:00-01:00, Fr-Sa 07:00-03:00, Su 08:00-01:00", "phone": "+49 351 6568888", "takeaway": "yes", "website": "https://www.mcdonalds.de/restaurant/dresden-hansastr-56?id=1175", "wheelchair": "yes", "__nodeIds": [528523418, 528523417, 528523883, 528523878, 654195882, 654195883, 528523412, 2474028293, 2474028287, 6913929155, 2474028294, 528523418]}}, {"type": "Feature", "geometry": {"type": "Polygon", "coordinates": [[[13.73916, 51.073417], [13.73871, 51.073866], [13.73916, 51.074316], [13.740059, 51.074316], [13.740509, 51.074766], [13.740509, 51.075665], [13.740958, 51.076115], [13.744555, 51.076115], [13.745005, 51.075665], [13.744106, 51.074766], [13.744106, 51.072967], [13.742757, 51.071618], [13.741858, 51.071618], [13.740958, 51.072518], [13.740059, 51.072518], [13.73916, 51.073417]]]}, "properties": {"access": "customers", "addr:city": "Dresden", "addr:country": "DE", "addr:housenumber": "45", "addr:postcode": "01097", "addr:street": "Friedensstra\u00dfe", "amenity": "swingerclub", "building": "commercial", "building:levels": "1", "contact:phone": "+49 351 8022566", "contact:website": "http://paradise-dresden.de", "description": "Montags und jeden 1. Samstag des Monats: Offen f\u00fcr alle | Hetero, Bi & Schwul, Lesbisch oder Trans. (swingerclub:for=hetero;gay;lesbian;trans)", "fetish:leather": "yes", "fetish:sm": "yes", "leisure": "sauna", "min_age": "18", "name": "Paradise Dresden", "old_name": "Man's Paradise", "opening_hours": "Mo-So 12:00-01:00", "operator": "ERKA Event Ltd.", "roof:levels": "0", "roof:shape": "flat", "swingerclub": "sauna", "swingerclub:for": "gay", "__nodeIds": [540743563, 7126047176, 540743564, 2484443271, 2484484623, 2484484625, 2484484627, 2484484620, 2484484618, 2484443273, 540743559, 2484484617, 2906686935, 2484443255, 2484443262, 540743563]}}, {"type": "Feature", "geometry": {"type": "Polygon", "coordinates": [[[13.739425, 51.078404], [13.738976, 51.078854], [13.738976, 51.079753], [13.739875, 51.080653], [13.739875, 51.082451], [13.740324, 51.082901], [13.742123, 51.082901], [13.742573, 51.082451], [13.742573, 51.080653], [13.740774, 51.078854], [13.740774, 51.077955], [13.740324, 51.077505], [13.739425, 51.078404]]]}, "properties": {"addr:city": "Dresden", "addr:country": "DE", "addr:housenumber": "60", "addr:postcode": "01097", "addr:street": "Hansastra\u00dfe", "amenity": "fuel", "building": "roof", "fuel:HGV_diesel": "yes", "fuel:diesel": "yes", "fuel:octane_91": "yes", "fuel:octane_95": "yes", "fuel:octane_98": "yes", "layer": "1", "name": "Shell", "opening_hours": "24/7", "operator": "Shell", "phone": "+49 351 6567937", "__nodeIds": [708691939, 1854103103, 1854103124, 1854103125, 2900626499, 1854103101, 1854103097, 708691916, 708691919, 708691939]}}, {"type": "Feature", "geometry": {"type": "Polygon", "coordinates": [[[13.736414, 51.084519], [13.735965, 51.084968], [13.735965, 51.085868], [13.736414, 51.086317], [13.737314, 51.086317], [13.738213, 51.087217], [13.739112, 51.087217], [13.740461, 51.085868], [13.740461, 51.084968], [13.74136, 51.084069], [13.74136, 51.08317], [13.740911, 51.08272], [13.740011, 51.08272], [13.738213, 51.084519], [13.736414, 51.084519]]]}, "properties": {"addr:city": "Dresden", "addr:country": "DE", "addr:housenumber": "70", "addr:postcode": "01097", "addr:street": "Hansastra\u00dfe", "amenity": "fuel", "brand": "HEM", "building": "roof", "fuel:HGV_diesel": "yes", "fuel:diesel": "yes", "fuel:lpg": "yes", "fuel:octane_91": "yes", "fuel:octane_95": "yes", "fuel:octane_98": "yes", "name": "HEM", "opening_hours": "24/7", "operator": "HEM-Deutsche Tamoil GmbH", "phone": "+49 351 6465888", "__nodeIds": [708692020, 708692008, 2899113604, 708692009, 708692010, 708692036, 2899106867, 708692017, 2899106868, 708692013, 708692020]}}, {"type": "Feature", "geometry": {"type": "Polygon", "coordinates": [[[13.643381, 51.08505], [13.64473, 51.086399], [13.645629, 51.086399], [13.646528, 51.0855], [13.647428, 51.086399], [13.648327, 51.086399], [13.648776, 51.08595], [13.648776, 51.084151], [13.649676, 51.083252], [13.649676, 51.082353], [13.649226, 51.081903], [13.647428, 51.081903], [13.646528, 51.082802], [13.64473, 51.082802], [13.64428, 51.083252], [13.64428, 51.084151], [13.643381, 51.08505]]]}, "properties": {"addr:city": "Dresden", "addr:country": "DE", "addr:housenumber": "109", "addr:postcode": "01156", "addr:street": "Dresdner Stra\u00dfe", "addr:suburb": "Cossebaude", "building": "retail", "name": "Fristo Getr\u00e4nkemarkt", "opening_hours": "Mo-Sa 20:00-18:00", "shop": "beverages", "wheelchair": "yes", "__nodeIds": [1331484759, 1331485685, 1778239585, 1778239584, 1778239572, 1778239573, 1331485329, 1331485006, 1331484759]}}, {"type": "Feature", "geometry": {"type": "Polygon", "coordinates": [[[13.667776, 51.049979], [13.669125, 51.051328], [13.670474, 51.049979], [13.670024, 51.04953], [13.668226, 51.04953], [13.667776, 51.049979]]]}, "properties": {"addr:city": "Dresden", "addr:country": "DE", "addr:housenumber": "10", "addr:postcode": "01169", "addr:street": "Coventrystra\u00dfe", "amenity": "fuel", "brand": "star", "building": "roof", "layer": "1", "name": "star", "opening_hours": "24/7", "operator": "Orlen", "phone": "+49 351 4161540", "__nodeIds": [3699135361, 3699135379, 3699135380, 3699135381, 3699135364, 3699135363, 3699135382, 3699135362, 3699135378, 1356463087, 1356463080, 1356463077, 1356463066, 3699135361], "timeMapPart": 0}}, {"type": "Feature", "geometry": {"type": "Polygon", "coordinates": [[[13.673622, 51.04953], [13.671823, 51.04953], [13.671373, 51.049979], [13.672722, 51.051328], [13.674071, 51.049979], [13.673622, 51.04953]]]}, "properties": {"addr:city": "Dresden", "addr:country": "DE", "addr:housenumber": "10", "addr:postcode": "01169", "addr:street": "Coventrystra\u00dfe", "amenity": "fuel", "brand": "star", "building": "roof", "layer": "1", "name": "star", "opening_hours": "24/7", "operator": "Orlen", "phone": "+49 351 4161540", "__nodeIds": [3699135361, 3699135379, 3699135380, 3699135381, 3699135364, 3699135363, 3699135382, 3699135362, 3699135378, 1356463087, 1356463080, 1356463077, 1356463066, 3699135361], "timeMapPart": 1}}, {"type": "Feature", "geometry": {"type": "Polygon", "coordinates": [[[13.771418, 51.014638], [13.770968, 51.015088], [13.772317, 51.016437], [13.773217, 51.016437], [13.773666, 51.015987], [13.773666, 51.015088], [13.774566, 51.014188], [13.774116, 51.013739], [13.773217, 51.013739], [13.772317, 51.014638], [13.771418, 51.014638]]]}, "properties": {"building": "retail", "name": "Aral Store", "opening_hours": "24/7", "shop": "convenience", "__nodeIds": [2078835408, 3225005978, 1579612517, 1579612519, 1579612520, 288912586, 2078835408]}}, {"type": "Feature", "geometry": {"type": "Polygon", "coordinates": [[[13.817458, 51.007103], [13.817008, 51.007553], [13.817008, 51.008452], [13.817458, 51.008902], [13.821954, 51.008902], [13.822404, 51.008452], [13.822404, 51.007553], [13.824203, 51.005754], [13.822854, 51.004405], [13.821954, 51.005305], [13.818357, 51.005305], [13.817908, 51.005754], [13.817908, 51.006653], [13.817458, 51.007103]]]}, "properties": {"addr:city": "Dresden", "addr:country": "DE", "addr:housenumber": "11", "addr:postcode": "01257", "addr:street": "Stra\u00dfe des 17. Juni", "amenity": "fuel", "brand": "sprint", "building": "roof", "fuel:diesel": "yes", "fuel:e10": "yes", "fuel:octane_95": "yes", "fuel:octane_98": "yes", "layer": "1", "name": "sprint", "opening_hours": "24/7", "phone": "+49 351 2025317", "wheelchair": "yes", "__nodeIds": [1579671968, 1579671967, 1579671973, 1579671981, 1579671971, 1579671968]}}, {"type": "Feature", "geometry": {"type": "Polygon", "coordinates": [[[13.713013, 51.076613], [13.711664, 51.077961], [13.712113, 51.078411], [13.713013, 51.078411], [13.713912, 51.07931], [13.714811, 51.07931], [13.715711, 51.078411], [13.717509, 51.078411], [13.718858, 51.077062], [13.717509, 51.075713], [13.71661, 51.076613], [13.713013, 51.076613]]]}, "properties": {"addr:city": "Dresden", "addr:country": "DE", "addr:housenumber": "115", "addr:postcode": "01127", "addr:street": "Leipziger Stra\u00dfe", "amenity": "fast_food", "building": "yes", "cuisine": "burger", "delivery": "yes", "drive_through": "yes", "name": "Burger King", "opening_hours": "Mo-Th,Su 10:00-24:00; Fr-Sa 10:00-3:00", "operator": "Food Star GmbH", "phone": "+49 351 8629318", "takeaway": "yes", "wheelchair": "limited", "__nodeIds": [1644663021, 1644663016, 1644663023, 1644663026, 1644663044, 1644663021]}}, {"type": "Feature", "geometry": {"type": "Polygon", "coordinates": [[[13.768205, 51.018623], [13.772702, 51.018623], [13.77495, 51.016375], [13.772702, 51.014127], [13.768205, 51.014127], [13.767756, 51.014576], [13.767756, 51.018173], [13.768205, 51.018623]]]}, "properties": {"addr:housenumber": "90", "addr:street": "Dohnaer Stra\u00dfe", "building": "retail", "building:levels": "1", "name": "star shop", "opening_hours": "24/7", "payment:credit_cards": "yes", "roof:shape": "flat", "shop": "convenience", "wheelchair": "yes", "__nodeIds": [3224499637, 3224499636, 3224499642, 4036070200, 282055152, 4036064830, 706935075, 3224499644, 3224499637]}}, {"type": "Feature", "geometry": {"type": "Polygon", "coordinates": [[[13.687914, 51.078922], [13.687464, 51.079372], [13.687464, 51.080271], [13.688813, 51.08162], [13.693309, 51.08162], [13.693759, 51.08117], [13.69286, 51.080271], [13.69286, 51.078473], [13.693759, 51.077573], [13.69241, 51.076224], [13.691511, 51.077124], [13.689712, 51.077124], [13.687914, 51.078922]]]}, "properties": {"addr:city": "Dresden", "addr:country": "DE", "addr:housenumber": "12", "addr:postcode": "01139", "addr:street": "Washingtonstra\u00dfe", "amenity": "fuel", "brand": "Esso", "brand:wikidata": "Q867662", "brand:wikipedia": "en:Esso", "building": "roof", "fuel:diesel": "yes", "fuel:octane_95": "yes", "fuel:octane_98": "yes", "name": "Esso", "opening_hours": "24/7", "phone": "+49 351 8590792", "wheelchair": "yes", "__nodeIds": [2180030670, 2274016099, 2274016087, 2274016090, 2274016094, 2274016092, 2274016098, 2274016084, 2180030670]}}, {"type": "Feature", "geometry": {"type": "Polygon", "coordinates": [[[13.668132, 51.050022], [13.669481, 51.051371], [13.67083, 51.050022], [13.67038, 51.049572], [13.668582, 51.049572], [13.668132, 51.050022]]]}, "properties": {"addr:city": "Dresden", "addr:housenumber": "10", "addr:postcode": "01169", "addr:street": "Coventrystra\u00dfe", "building": "retail", "name": "star shop", "opening_hours": "24/7", "shop": "convenience", "__nodeIds": [1356463078, 1356463067, 1356463077, 1356463080, 1356463078], "timeMapPart": 0}}, {"type": "Feature", "geometry": {"type": "Polygon", "coordinates": [[[13.673977, 51.049572], [13.672179, 51.049572], [13.671729, 51.050022], [13.673078, 51.051371], [13.674427, 51.050022], [13.673977, 51.049572]]]}, "properties": {"addr:city": "Dresden", "addr:housenumber": "10", "addr:postcode": "01169", "addr:street": "Coventrystra\u00dfe", "building": "retail", "name": "star shop", "opening_hours": "24/7", "shop": "convenience", "__nodeIds": [1356463078, 1356463067, 1356463077, 1356463080, 1356463078], "timeMapPart": 1}}, {"type": "Feature", "geometry": {"type": "Polygon", "coordinates": [[[13.739858, 51.078563], [13.738959, 51.078563], [13.738509, 51.079013], [13.738509, 51.079912], [13.739409, 51.080811], [13.739409, 51.08261], [13.738509, 51.083509], [13.738959, 51.083959], [13.740758, 51.08216], [13.741657, 51.08216], [13.742107, 51.081711], [13.742107, 51.079912], [13.740758, 51.078563], [13.739858, 51.078563]]]}, "properties": {"building": "shop", "name": "Shell Select", "opening_hours": "24/7", "shop": "convenience", "__nodeIds": [2900626487, 2900626488, 2900626489, 2900626490, 1854103124, 2900626491, 2900626492, 1854103125, 2900626487]}}, {"type": "Feature", "geometry": {"type": "Polygon", "coordinates": [[[13.769558, 51.023593], [13.769109, 51.024043], [13.769109, 51.024942], [13.769558, 51.025392], [13.772256, 51.025392], [13.773156, 51.024492], [13.774954, 51.024492], [13.775404, 51.024043], [13.775404, 51.022244], [13.776303, 51.021345], [13.775853, 51.020895], [13.772256, 51.020895], [13.770907, 51.022244], [13.770907, 51.023143], [13.770458, 51.023593], [13.769558, 51.023593]]]}, "properties": {"addr:city": "Dresden", "addr:country": "DE", "addr:housenumber": "35", "addr:postcode": "01219", "addr:street": "Reicker Stra\u00dfe", "amenity": "fuel", "brand": "Star", "building": "yes", "fuel:GTL_diesel": "yes", "fuel:HGV_diesel": "yes", "fuel:e10": "yes", "fuel:lpg": "yes", "fuel:octane_95": "yes", "fuel:octane_98": "yes", "height": "4.0", "name": "Star", "opening_hours": "24/7", "phone": "+49 351 2880114", "shop": "yes", "__nodeIds": [588376186, 588376187, 588376190, 588376194, 3573187912, 3573187911, 588376186]}}, {"type": "Feature", "geometry": {"type": "Polygon", "coordinates": [[[13.725301, 51.080484], [13.724401, 51.080484], [13.723952, 51.080933], [13.724851, 51.081833], [13.724851, 51.082732], [13.725301, 51.083182], [13.727099, 51.083182], [13.727998, 51.084081], [13.728898, 51.084081], [13.731146, 51.081833], [13.731146, 51.080034], [13.729797, 51.078685], [13.727998, 51.078685], [13.727099, 51.079584], [13.7262, 51.079584], [13.725301, 51.080484]]]}, "properties": {"addr:city": "Dresden", "addr:housenumber": "32", "addr:postcode": "01127", "addr:street": "Riesaer Stra\u00dfe", "amenity": "workshop", "area": "yes", "contact:website": "http://c3d2.de/muc.html", "description": "Hackerspace Chaos Computer Club Dresden", "drink:club-mate": "yes", "email": "mail@c3d2.de", "fee": "no", "internet_access": "wlan,wired", "internet_access:fee": "no", "internet_access:ssid": "ZW public", "leisure": "hackerspace", "level": "0", "name": "C3D2", "opening_hours": "24/7", "operator": "Netzbiotop e.V.", "smoking": "isolated", "website": "https://c3d2.de/space.html", "wheelchair": "limited", "wikidata": "Q42665273", "workshop": "non-profit", "__nodeIds": [2535880263, 3757263718, 4959130366, 3757263719, 3757263720, 4959130365, 2535880263]}}]}