{"type": "FeatureCollection", "features": [{"type": "Feature", "geometry": {"type": "Polygon", "coordinates": [[[13.729982, 51.030768], [13.729532, 51.031218], [13.729532, 51.033016], [13.73178, 51.035264], [13.733579, 51.035264], [13.734478, 51.034365], [13.735377, 51.034365], [13.736726, 51.033016], [13.736726, 51.031218], [13.735377, 51.029869], [13.734478, 51.030768], [13.733579, 51.030768], [13.73268, 51.029869], [13.73178, 51.029869], [13.730881, 51.030768], [13.729982, 51.030768]]]}, "properties": {"addr:city": "Dresden", "addr:housenumber": "3", "addr:postcode": "01069", "addr:street": "Lukasstra\u00dfe", "amenity": "pharmacy", "contact:email": "info@lukas-apotheke-dd.de", "contact:website": "www.lukas-apotheke-dd.de", "level": "0", "name": "Lukas-Apotheke", "opening_hours": "Mo-Fr 08:00-18:00", "operator": "Andreas Schwarzak", "phone": "+49 351 8767474", "website": "http://www.lukas-apotheke-dd.de/", "wheelchair": "yes", "__nodeId": 248012735}}, {"type": "Feature", "geometry": {"type": "Polygon", "coordinates": [[[13.724153, 51.032007], [13.724153, 51.034705], [13.724603, 51.035155], [13.7282, 51.035155], [13.728649, 51.034705], [13.728649, 51.031108], [13.7273, 51.029759], [13.726851, 51.030209], [13.726851, 51.031108], [13.726401, 51.031558], [13.724603, 51.031558], [13.724153, 51.032007]]]}, "properties": {"addr:city": "Dresden", "addr:country": "DE", "addr:housenumber": "13", "addr:postcode": "01069", "addr:street": "Rugestra\u00dfe", "amenity": "pharmacy", "contact:fax": "+49 351 4719935", "contact:phone": "+49 351 4710116", "contact:website": "http://www.helmholtz-apotheke.de/", "name": "Helmholtz-Apotheke", "opening_hours": "Mo-Fr 08:00-18:30; Sa 08:00-12:00", "wheelchair": "yes", "__nodeId": 251753941}}, {"type": "Feature", "geometry": {"type": "Polygon", "coordinates": [[[13.701415, 51.087494], [13.700066, 51.088843], [13.700965, 51.089742], [13.700965, 51.090641], [13.701415, 51.091091], [13.703213, 51.091091], [13.704113, 51.09199], [13.70681, 51.09199], [13.709059, 51.089742], [13.708609, 51.089293], [13.70771, 51.089293], [13.70726, 51.088843], [13.70771, 51.088393], [13.708609, 51.088393], [13.709059, 51.087944], [13.70771, 51.086595], [13.705911, 51.086595], [13.705461, 51.087044], [13.705461, 51.087944], [13.705012, 51.088393], [13.704562, 51.087944], [13.704562, 51.087044], [13.704113, 51.086595], [13.703213, 51.087494], [13.701415, 51.087494]]]}, "properties": {"addr:city": "Dresden", "addr:country": "DE", "addr:housenumber": "66", "addr:postcode": "01139", "addr:street": "Hildesheimer Stra\u00dfe", "amenity": "pharmacy", "name": "Kant-Apotheke", "opening_hours": "Mo-Fr 08:00-18:00; Sa 08:00-12:00", "phone": "+49 351 8490587", "wheelchair": "no", "wheelchair:description:de": "Stufen am Eingang", "__nodeId": 252002960}}, {"type": "Feature", "geometry": {"type": "Polygon", "coordinates": [[[13.803225, 51.051696], [13.802776, 51.052145], [13.802776, 51.053944], [13.803225, 51.054393], [13.804125, 51.054393], [13.805923, 51.056192], [13.806822, 51.056192], [13.808171, 51.054843], [13.808171, 51.053045], [13.806822, 51.051696], [13.805024, 51.051696], [13.804125, 51.050796], [13.803225, 51.051696]]]}, "properties": {"amenity": "pharmacy", "name": "Apotheke am Blauen Wunder", "opening_hours": "Mo-Fr 07:30-18:30", "wheelchair": "yes", "__nodeId": 260735581}}, {"type": "Feature", "geometry": {"type": "Polygon", "coordinates": [[[13.802829, 51.039675], [13.80238, 51.040125], [13.80238, 51.041924], [13.802829, 51.042373], [13.803729, 51.042373], [13.804628, 51.043273], [13.809124, 51.043273], [13.810473, 51.041924], [13.810024, 51.041474], [13.809124, 51.041474], [13.808675, 51.041024], [13.808675, 51.040125], [13.809574, 51.039226], [13.809124, 51.038776], [13.807326, 51.038776], [13.806427, 51.037877], [13.804628, 51.037877], [13.802829, 51.039675]]]}, "properties": {"amenity": "pharmacy", "name": "Parsifal Apotheke", "opening_hours": "Mo-Fr 07:30-19:00; Sa 09:00-13:00", "website": "http://www.parsifalapotheke.de/", "wheelchair": "yes", "__nodeId": 260736772}}, {"type": "Feature", "geometry": {"type": "Polygon", "coordinates": [[[13.718825, 51.030511], [13.718375, 51.030961], [13.718375, 51.032759], [13.717476, 51.033658], [13.718825, 51.035007], [13.719724, 51.035007], [13.720624, 51.035907], [13.723321, 51.035907], [13.726469, 51.032759], [13.726019, 51.03231], [13.72512, 51.03231], [13.72467, 51.03186], [13.72467, 51.030961], [13.724221, 51.030511], [13.721523, 51.030511], [13.719724, 51.03231], [13.719275, 51.03186], [13.719275, 51.030961], [13.718825, 51.030511]]]}, "properties": {"addr:city": "Dresden", "addr:country": "DE", "addr:housenumber": "22", "addr:postcode": "01187", "addr:street": "Liebigstra\u00dfe", "amenity": "pharmacy", "contact:email": "post@apotheke-am-ei.de", "contact:fax": "+49 351 4723001", "contact:phone": "+49 351 4722941", "contact:website": "http://apotheke-am-ei.de", "name": "Apotheke am Ei", "opening_hours": "Mo-Fr 07:30-19:00; Sa 08:00-13:00", "operator": "avesana", "wheelchair": "yes", "__nodeId": 264510804}}, {"type": "Feature", "geometry": {"type": "Polygon", "coordinates": [[[13.717917, 51.030913], [13.717468, 51.031363], [13.717468, 51.034061], [13.717917, 51.03451], [13.718817, 51.03451], [13.719716, 51.03541], [13.724212, 51.03541], [13.725561, 51.034061], [13.725561, 51.030464], [13.725112, 51.030014], [13.719716, 51.030014], [13.718817, 51.029115], [13.718367, 51.029564], [13.718367, 51.030464], [13.717917, 51.030913]]]}, "properties": {"addr:city": "Dresden", "addr:country": "DE", "addr:housenumber": "23", "addr:postcode": "01187", "addr:street": "Liebigstra\u00dfe", "amenity": "pharmacy", "contact:email": "Liebig-Apotheke@gmx.de", "contact:fax": "+49 351 4793959", "contact:phone": "+49 351 4675120", "contact:website": "http://www.liebig-apotheke-dresden.de/", "name": "Liebig-Apotheke", "opening_hours": "Mo, Tu, Th 07:30-19:00; We, Fr 07:30-18:00; Sa 08:00-12:00", "wheelchair": "yes", "wheelchair:description": "Rollstuhlgerechter Eingang im Hof an der Geb\u00e4uder\u00fcckseite", "wheelchair:description:de": "Zugang auf der R\u00fcckseite des Geb\u00e4udes", "__nodeId": 264510997}}, {"type": "Feature", "geometry": {"type": "Polygon", "coordinates": [[[13.669492, 51.063061], [13.669042, 51.063511], [13.669042, 51.06531], [13.670391, 51.066659], [13.674888, 51.066659], [13.678035, 51.063511], [13.676686, 51.062162], [13.673089, 51.062162], [13.67219, 51.061263], [13.670391, 51.063061], [13.669492, 51.063061]]]}, "properties": {"amenity": "pharmacy", "name": "Benno-Apotheke", "wheelchair": "yes", "__nodeId": 270920782}}, {"type": "Feature", "geometry": {"type": "Polygon", "coordinates": [[[13.823204, 50.993004], [13.822755, 50.993453], [13.822755, 50.996151], [13.824104, 50.9975], [13.8286, 50.9975], [13.82905, 50.997051], [13.82905, 50.995252], [13.826802, 50.993004], [13.825902, 50.993903], [13.825003, 50.993903], [13.824104, 50.993004], [13.823204, 50.993004]]]}, "properties": {"addr:city": "Dresden", "addr:country": "DE", "addr:housenumber": "14", "addr:postcode": "01259", "addr:street": "Niedersedlitzer Platz", "amenity": "pharmacy", "contact:email": "info@lockwitztal-apotheke.de", "contact:fax": "+49 351 2030750", "contact:phone": "+49 351 2031080", "contact:website": "http://www.lockwitztal-apotheke.de", "name": "Lockwitztal-Apotheke", "opening_hours": "Mo-Fr 08:00-18:30; Sa 08:00-12:00", "operator": "Carina Fiedler", "wheelchair": "yes", "__nodeId": 273413006}}, {"type": "Feature", "geometry": {"type": "Polygon", "coordinates": [[[13.826635, 51.022413], [13.825736, 51.022413], [13.825286, 51.022862], [13.826185, 51.023762], [13.826185, 51.02556], [13.826635, 51.02601], [13.832031, 51.02601], [13.83248, 51.02556], [13.83248, 51.023762], [13.833379, 51.022862], [13.832031, 51.021513], [13.830232, 51.021513], [13.829333, 51.020614], [13.828433, 51.021513], [13.827534, 51.021513], [13.826635, 51.022413]]]}, "properties": {"amenity": "pharmacy", "dispensing": "yes", "name": "Flora-Apotheke", "opening_hours": "Mo-Fr 07:30-19:00; Sa 08:00-12:30", "toilets:wheelchair": "no", "wheelchair": "yes", "__nodeId": 273686761}}, {"type": "Feature", "geometry": {"type": "Polygon", "coordinates": [[[13.772178, 51.043926], [13.770829, 51.045275], [13.770829, 51.046174], [13.772178, 51.047523], [13.774876, 51.047523], [13.775775, 51.048422], [13.776674, 51.048422], [13.780721, 51.044375], [13.780271, 51.043926], [13.776674, 51.043926], [13.775775, 51.043027], [13.773976, 51.043027], [13.773077, 51.042127], [13.772627, 51.042577], [13.772627, 51.043476], [13.772178, 51.043926]]]}, "properties": {"addr:city": "Dresden", "addr:country": "DE", "addr:housenumber": "19", "addr:postcode": "01309", "addr:street": "Borsbergstra\u00dfe", "amenity": "pharmacy", "entrance": "yes", "name": "Rosen-Apotheke", "opening_hours": "Mo-Fr 07:30-18:30; Sa 08:00-13:00", "payment:girocard": "yes", "wheelchair": "no", "wheelchair:description:de": "Stufen am Eingang", "__nodeId": 280853506}}, {"type": "Feature", "geometry": {"type": "Polygon", "coordinates": [[[13.7751, 51.042052], [13.773751, 51.043401], [13.773751, 51.045199], [13.7751, 51.046548], [13.775999, 51.046548], [13.776899, 51.045649], [13.777798, 51.046548], [13.779596, 51.046548], [13.780046, 51.046098], [13.780046, 51.045199], [13.781845, 51.043401], [13.781395, 51.042951], [13.779596, 51.042951], [13.777798, 51.041152], [13.776899, 51.042052], [13.7751, 51.042052]]]}, "properties": {"amenity": "pharmacy", "name": "Urs Apotheke", "opening_hours": "Mo-Fr 08:00-19:00; Sa 08:00-13:00", "wheelchair": "yes", "__nodeId": 280854692}}, {"type": "Feature", "geometry": {"type": "Polygon", "coordinates": [[[13.718658, 51.047752], [13.717758, 51.047752], [13.717309, 51.048201], [13.718208, 51.0491], [13.718208, 51.05], [13.719557, 51.051349], [13.724053, 51.051349], [13.725402, 51.05], [13.724503, 51.0491], [13.724503, 51.047302], [13.723154, 51.045953], [13.721355, 51.047752], [13.718658, 51.047752]]]}, "properties": {"amenity": "pharmacy", "contact:website": "https://www.bm-apotheken.de/die-apotheken/apotheke-im-world-trade-center/", "level": "0", "name": "Apotheke im World Trade Center", "opening_hours": "Mo-Fr 08:00-18:30; Sa 09:00-12:00", "wheelchair": "yes", "__nodeId": 281105730}}, {"type": "Feature", "geometry": {"type": "Polygon", "coordinates": [[[13.755897, 51.026201], [13.754549, 51.02755], [13.754549, 51.029349], [13.754998, 51.029798], [13.755897, 51.029798], [13.756797, 51.030698], [13.761293, 51.030698], [13.761743, 51.030248], [13.761743, 51.02845], [13.762642, 51.02755], [13.760394, 51.025302], [13.759944, 51.025752], [13.759944, 51.026651], [13.759495, 51.027101], [13.758595, 51.026201], [13.755897, 51.026201]]]}, "properties": {"amenity": "pharmacy", "contact:website": "http://www.wasa-apotheke.de", "healthcare": "pharmacy", "name": "Wasa-Apotheke", "opening_hours": "Mo-Fr 08:00-18:30; Sa 09:00-12:00", "wheelchair": "no", "wheelchair:description:de": "Stufen vor dem Eingang; barrierefreie Klingel befindet sich hinter dem Haus (Zugang \u00fcber Hof)", "__nodeId": 281407534}}, {"type": "Feature", "geometry": {"type": "Polygon", "coordinates": [[[13.724316, 51.084398], [13.723866, 51.084848], [13.723866, 51.085747], [13.724765, 51.086646], [13.724765, 51.087545], [13.725215, 51.087995], [13.726114, 51.087995], [13.727013, 51.087096], [13.727913, 51.087096], [13.730161, 51.084848], [13.730161, 51.083049], [13.729711, 51.082599], [13.726114, 51.082599], [13.725665, 51.083049], [13.725665, 51.083948], [13.725215, 51.084398], [13.724316, 51.084398]]]}, "properties": {"addr:city": "Dresden", "addr:country": "DE", "addr:housenumber": "129", "addr:postcode": "01129", "addr:street": "Gro\u00dfenhainer Stra\u00dfe", "amenity": "pharmacy", "name": "Barbara-Apotheke", "opening_hours": "Mo-Fr 07:30-19:00; Sa 09:00-13:00", "website": "https://www.barbaraapo.de/", "wheelchair": "yes", "__nodeId": 286761692}}, {"type": "Feature", "geometry": {"type": "Polygon", "coordinates": [[[13.757768, 51.055074], [13.757319, 51.055523], [13.757319, 51.056423], [13.757768, 51.056872], [13.761365, 51.056872], [13.762714, 51.055523], [13.761365, 51.054174], [13.759567, 51.054174], [13.758668, 51.053275], [13.758218, 51.053725], [13.758218, 51.054624], [13.757768, 51.055074]]]}, "properties": {"amenity": "pharmacy", "name": "G\u00fcntz-Apotheke", "opening_hours": "Mo-Fr 08:00-18:00; Sa 09:00-12:00", "website": "https://www.guentz-apotheke.de/", "wheelchair": "yes", "wheelchair:description:de": "Ebenerdiger Zugang", "__nodeId": 287079538}}, {"type": "Feature", "geometry": {"type": "Polygon", "coordinates": [[[13.718595, 51.090038], [13.718145, 51.090488], [13.718145, 51.091387], [13.717246, 51.092286], [13.717246, 51.093186], [13.717695, 51.093635], [13.718595, 51.093635], [13.719044, 51.094085], [13.719044, 51.094984], [13.719494, 51.095434], [13.722192, 51.095434], [13.722641, 51.094984], [13.722641, 51.094085], [13.72444, 51.092286], [13.72444, 51.090488], [13.723091, 51.089139], [13.722192, 51.090038], [13.721292, 51.090038], [13.720393, 51.089139], [13.719494, 51.089139], [13.718595, 51.090038]]]}, "properties": {"addr:city": "Dresden", "addr:country": "DE", "addr:housenumber": "170", "addr:postcode": "01129", "addr:street": "Gro\u00dfenhainer Stra\u00dfe", "amenity": "pharmacy", "name": "Weinberg-Apotheke", "opening_hours": "Mo-Fr 08:00-18:00; Sa 08:30-12:00", "wheelchair": "yes", "__nodeId": 287230629}}, {"type": "Feature", "geometry": {"type": "Polygon", "coordinates": [[[13.780378, 51.121967], [13.779928, 51.122417], [13.779928, 51.123316], [13.779029, 51.124215], [13.779478, 51.124665], [13.780378, 51.124665], [13.781277, 51.125564], [13.783975, 51.125564], [13.784874, 51.126463], [13.785324, 51.126014], [13.785324, 51.124215], [13.786223, 51.123316], [13.783975, 51.121068], [13.781277, 51.121068], [13.780378, 51.121967]]]}, "properties": {"amenity": "pharmacy", "name": "K\u00f6nigswald-Apotheke", "opening_hours": "Mo-Fr 08:30-19:00; Sa 08:30-12:30", "phone": "+49 351 8901016", "wheelchair": "yes", "__nodeId": 287406000}}, {"type": "Feature", "geometry": {"type": "Polygon", "coordinates": [[[13.74781, 51.062851], [13.74691, 51.062851], [13.746461, 51.063301], [13.74691, 51.06375], [13.74781, 51.06375], [13.749608, 51.065549], [13.752306, 51.065549], [13.754105, 51.06375], [13.755903, 51.06375], [13.756353, 51.063301], [13.755004, 51.061952], [13.754105, 51.061952], [13.753655, 51.061502], [13.753655, 51.060603], [13.753205, 51.060153], [13.750508, 51.060153], [13.749608, 51.061053], [13.748709, 51.061053], [13.748259, 51.061502], [13.748259, 51.062401], [13.74781, 51.062851]]]}, "properties": {"addr:city": "Dresden", "addr:country": "DE", "addr:housenumber": "40", "addr:postcode": "01099", "addr:street": "Hoyerswerdaer Stra\u00dfe", "amenity": "pharmacy", "email": "info@galenus-apotheke-dresden.de", "name": "Galenus-Apotheke", "opening_hours": "Mo-Fr 08:00-18:30; Sa 09:00-13:00", "phone": "+49 351 8026823", "website": "http://www.galenus-apotheke-dresden.de", "wheelchair": "yes", "__nodeId": 289131111}}, {"type": "Feature", "geometry": {"type": "Polygon", "coordinates": [[[13.740432, 51.060765], [13.739983, 51.061215], [13.739983, 51.062114], [13.740432, 51.062564], [13.741332, 51.062564], [13.742231, 51.061665], [13.744029, 51.063463], [13.746727, 51.063463], [13.748076, 51.062114], [13.748076, 51.060316], [13.746727, 51.058967], [13.744929, 51.058967], [13.744029, 51.058068], [13.742231, 51.058068], [13.740882, 51.059417], [13.740882, 51.060316], [13.740432, 51.060765]]]}, "properties": {"amenity": "pharmacy", "name": "Goldener Reiter", "survey:date": "2016-09-03", "wheelchair": "yes", "__nodeId": 292822925}}, {"type": "Feature", "geometry": {"type": "Polygon", "coordinates": [[[13.748538, 51.050069], [13.748089, 51.050518], [13.748089, 51.053216], [13.748538, 51.053666], [13.749437, 51.053666], [13.750337, 51.052766], [13.750786, 51.053216], [13.750786, 51.054115], [13.751236, 51.054565], [13.753035, 51.054565], [13.755283, 51.052317], [13.755283, 51.050518], [13.753934, 51.049169], [13.752135, 51.049169], [13.751236, 51.04827], [13.750786, 51.04872], [13.750786, 51.049619], [13.750337, 51.050069], [13.748538, 51.050069]]]}, "properties": {"addr:city": "Dresden", "addr:housenumber": "1", "addr:postcode": "01069", "addr:street": "Gerichtsstra\u00dfe", "amenity": "pharmacy", "contact:phone": "+49 351 449140", "dispensing": "yes", "healthcare": "pharmacy", "name": "Augustus-Apotheke", "opening_hours": "Mo, Tu 08:00-18:30; We 08:00-18:00; Th, Fr 08:00-18:30; Sa 09:00-12:00", "operator": "Dr. Arnold Hertzsch", "phone": "+49 351 449140", "website": "https://www.augustus-apotheke.de/", "wheelchair": "yes", "__nodeId": 294146953}}, {"type": "Feature", "geometry": {"type": "Polygon", "coordinates": [[[13.727969, 51.037876], [13.72752, 51.038326], [13.72752, 51.041024], [13.727969, 51.041473], [13.733365, 51.041473], [13.736512, 51.038326], [13.736063, 51.037876], [13.734264, 51.037876], [13.733365, 51.036977], [13.729768, 51.036977], [13.728868, 51.037876], [13.727969, 51.037876]]]}, "properties": {"amenity": "pharmacy", "brand": "mea", "fax": "+49 351 4799449", "healthcare": "pharmacy", "name": "Central-Apotheke am Hauptbahnhof", "opening_hours": "Mo-Fr 08:00-19:00; Sa 09:00-14:00", "phone": "+49 351 4799447", "source": "extrapolation", "wheelchair": "yes", "wheelchair:description": "Behinderten-WC im selben Haus bei der Enso.", "__nodeId": 295078606}}, {"type": "Feature", "geometry": {"type": "Polygon", "coordinates": [[[13.790272, 51.006906], [13.790722, 51.007356], [13.791621, 51.006457], [13.795218, 51.006457], [13.796567, 51.005108], [13.796117, 51.004658], [13.795218, 51.004658], [13.794768, 51.004209], [13.794768, 51.003309], [13.794319, 51.00286], [13.791621, 51.00286], [13.790272, 51.004209], [13.790272, 51.006906]]]}, "properties": {"addr:city": "Dresden", "addr:country": "DE", "addr:housenumber": "12", "addr:postcode": "01239", "addr:street": "Georg-Palitzsch-Stra\u00dfe", "amenity": "pharmacy", "contact:fax": "+49 351 2864135", "contact:phone": "+49 351 2864135", "contact:website": "http://www.apothekeprohlis-gesundheitszentrum-app.de/", "name": "Apotheke Prohlis im Gesundheitszentrum", "opening_hours": "Mo-Fr 07:30-19:00; Sa 09:00-12:00", "operator": "Rita Bock", "source": "extrapolation", "wheelchair": "yes", "__nodeId": 295452637}}, {"type": "Feature", "geometry": {"type": "Polygon", "coordinates": [[[13.794851, 51.004695], [13.794402, 51.005144], [13.794402, 51.007842], [13.794851, 51.008292], [13.801146, 51.008292], [13.801596, 51.007842], [13.801596, 51.004245], [13.800247, 51.002896], [13.798449, 51.002896], [13.797549, 51.003795], [13.795751, 51.003795], [13.794851, 51.004695]]]}, "properties": {"addr:city": "Dresden", "addr:country": "DE", "addr:housenumber": "18", "addr:postcode": "01239", "addr:street": "Herzberger Stra\u00dfe", "amenity": "pharmacy", "contact:email": "info@herz-apotheke-dresden.de", "contact:fax": "+49 351 2850865", "contact:phone": "+49 351 2850843", "contact:website": "http://www.herz-apotheke-dresden.de/", "dispensing": "yes", "name": "Herz-Apotheke", "opening_hours": "Mo-Fr 08:00-18:30; Sa 08:00-13:00", "operator": "Yavuz Y\u00fcksel", "wheelchair": "yes", "__nodeId": 297458485}}, {"type": "Feature", "geometry": {"type": "Polygon", "coordinates": [[[13.776136, 51.035581], [13.775686, 51.03603], [13.775686, 51.036929], [13.776586, 51.037829], [13.776586, 51.038728], [13.777035, 51.039178], [13.779733, 51.039178], [13.780183, 51.038728], [13.780183, 51.037829], [13.780632, 51.037379], [13.78333, 51.037379], [13.78378, 51.036929], [13.78378, 51.035131], [13.78333, 51.034681], [13.782431, 51.035581], [13.781532, 51.035581], [13.781082, 51.035131], [13.781082, 51.034232], [13.780632, 51.033782], [13.779733, 51.034681], [13.777035, 51.034681], [13.776136, 51.035581]]]}, "properties": {"amenity": "pharmacy", "name": "Elefantenapotheke", "opening_hours": "Mo-Fr 08:00-18:30; Sa 08:00-12:30", "wheelchair": "yes", "__nodeId": 301097435}}, {"type": "Feature", "geometry": {"type": "Polygon", "coordinates": [[[13.675547, 51.042369], [13.674648, 51.042369], [13.674198, 51.042818], [13.674198, 51.044617], [13.676446, 51.046865], [13.678245, 51.046865], [13.679144, 51.045966], [13.680043, 51.045966], [13.680493, 51.045516], [13.680493, 51.043718], [13.681392, 51.042818], [13.680043, 51.04147], [13.678245, 51.04147], [13.677346, 51.042369], [13.675547, 51.042369]]]}, "properties": {"addr:city": "Dresden", "addr:country": "DE", "addr:housenumber": "5", "addr:postcode": "01169", "addr:street": "Amalie-Dietrich-Platz", "amenity": "pharmacy", "dispensing": "yes", "name": "Apotheke Gorbitz", "wheelchair": "yes", "__nodeId": 302096595}}, {"type": "Feature", "geometry": {"type": "Polygon", "coordinates": [[[13.675449, 51.042331], [13.675, 51.042781], [13.675, 51.045479], [13.676349, 51.046828], [13.678147, 51.046828], [13.679047, 51.045928], [13.679946, 51.045928], [13.680396, 51.045479], [13.680396, 51.04368], [13.681295, 51.042781], [13.679946, 51.041432], [13.678147, 51.041432], [13.677248, 51.042331], [13.675449, 51.042331]]]}, "properties": {"addr:city": "Dresden", "addr:country": "DE", "addr:housenumber": "3", "addr:postcode": "01169", "addr:street": "Amalie-Dietrich-Platz", "amenity": "pharmacy", "dispensing": "yes", "name": "Greifen-Apotheke", "wheelchair": "yes", "__nodeId": 302096598}}, {"type": "Feature", "geometry": {"type": "Polygon", "coordinates": [[[13.679026, 51.041109], [13.678577, 51.041559], [13.678577, 51.042458], [13.679926, 51.043807], [13.681724, 51.043807], [13.683073, 51.042458], [13.682623, 51.042008], [13.681724, 51.042008], [13.681275, 51.041559], [13.681275, 51.040659], [13.679926, 51.03931], [13.679476, 51.03976], [13.679476, 51.040659], [13.679026, 51.041109]]]}, "properties": {"amenity": "pharmacy", "dispensing": "yes", "name": "Apotheke Nau\u00dflitz-Center", "wheelchair": "yes", "__nodeId": 302096603}}, {"type": "Feature", "geometry": {"type": "Polygon", "coordinates": [[[13.691553, 51.04207], [13.690204, 51.043419], [13.690653, 51.043869], [13.691553, 51.043869], [13.692002, 51.044319], [13.692002, 51.045218], [13.692452, 51.045668], [13.69515, 51.045668], [13.696049, 51.044768], [13.696948, 51.044768], [13.698297, 51.043419], [13.69515, 51.040272], [13.694251, 51.040272], [13.693351, 51.041171], [13.692452, 51.041171], [13.691553, 51.04207]]]}, "properties": {"amenity": "pharmacy", "dispensing": "yes", "layer": "2", "name": "Robert Koch Apotheke", "opening_hours": "Mo-Fr 08:00-19:00; Sa 08:00-13:00", "wheelchair": "limited", "wheelchair:description:de": "Stufen am Eingang", "__nodeId": 302096604}}, {"type": "Feature", "geometry": {"type": "Polygon", "coordinates": [[[13.756127, 51.045114], [13.755678, 51.045563], [13.755678, 51.047362], [13.756127, 51.047812], [13.758825, 51.047812], [13.759275, 51.048261], [13.759275, 51.049161], [13.759724, 51.04961], [13.760624, 51.048711], [13.762422, 51.048711], [13.762872, 51.048261], [13.762872, 51.046463], [13.761523, 51.045114], [13.756127, 51.045114]]]}, "properties": {"addr:city": "Dresden", "addr:country": "DE", "addr:housenumber": "2", "addr:postcode": "01307", "addr:street": "Georg-Nerlich-Stra\u00dfe", "amenity": "pharmacy", "healthcare": "pharmacy", "name": "Apotheke am St. Joseph-Stift", "opening_hours": "Mo-Fr 07:30-18:30; Sa 08:00-12:00", "wheelchair": "yes", "__nodeId": 303381735}}, {"type": "Feature", "geometry": {"type": "Polygon", "coordinates": [[[13.7946, 51.046027], [13.7955, 51.046027], [13.796399, 51.046927], [13.799097, 51.046927], [13.799546, 51.046477], [13.799546, 51.044678], [13.801345, 51.04288], [13.800895, 51.04243], [13.7955, 51.04243], [13.7946, 51.041531], [13.794151, 51.041981], [13.794151, 51.045578], [13.7946, 51.046027]]]}, "properties": {"amenity": "pharmacy", "name": "Johannis-Apotheke", "opening_hours": "Mo,Tu,Th 08:00-18:30, We,Fr 08:00-18:00, Sa 09:00-12:00", "website": "http://www.johannis-apotheke-dresden.de/", "wheelchair": "no", "__nodeId": 307505098}}, {"type": "Feature", "geometry": {"type": "Polygon", "coordinates": [[[13.692667, 51.083069], [13.691318, 51.084418], [13.691318, 51.086216], [13.691768, 51.086666], [13.695365, 51.086666], [13.696264, 51.085767], [13.697163, 51.085767], [13.698063, 51.086666], [13.698512, 51.086216], [13.696714, 51.084418], [13.696714, 51.08172], [13.696264, 51.08127], [13.695365, 51.08127], [13.694915, 51.08172], [13.694915, 51.082619], [13.694465, 51.083069], [13.692667, 51.083069]]]}, "properties": {"amenity": "pharmacy", "name": "medic-Apotheke", "wheelchair": "yes", "__nodeId": 320033500}}, {"type": "Feature", "geometry": {"type": "Polygon", "coordinates": [[[13.828267, 51.010244], [13.827817, 51.010693], [13.827817, 51.011593], [13.828267, 51.012042], [13.830965, 51.012042], [13.831864, 51.012942], [13.832763, 51.012942], [13.835911, 51.009794], [13.834562, 51.008445], [13.832763, 51.008445], [13.832313, 51.007996], [13.832313, 51.007096], [13.831864, 51.006647], [13.830965, 51.006647], [13.830065, 51.007546], [13.829166, 51.007546], [13.828716, 51.007996], [13.828716, 51.009794], [13.828267, 51.010244]]]}, "properties": {"addr:city": "Dresden", "addr:country": "DE", "addr:housenumber": "54", "addr:postcode": "01257", "addr:street": "Stephensonstra\u00dfe", "amenity": "pharmacy", "contact:email": "info@igel-apotheke-dresden.de", "contact:fax": "+49 351 2050801", "contact:phone": "+49 351 2050800", "contact:website": "http://www.igel-apotheke-dresden.de", "dispensing": "yes", "name": "Igel-Apotheke", "opening_hours": "Mo-Fr 08:00-18:30; Sa 08:30-12:30", "operator": "Larissa Moos", "wheelchair": "designated", "__nodeId": 324744400}}, {"type": "Feature", "geometry": {"type": "Polygon", "coordinates": [[[13.71847, 51.018616], [13.71802, 51.019065], [13.71802, 51.019964], [13.71847, 51.020414], [13.720268, 51.020414], [13.721167, 51.021313], [13.722067, 51.021313], [13.722966, 51.020414], [13.724765, 51.020414], [13.726113, 51.019065], [13.725664, 51.018616], [13.724765, 51.018616], [13.724315, 51.018166], [13.724315, 51.017267], [13.722966, 51.015918], [13.722067, 51.016817], [13.721167, 51.016817], [13.720268, 51.017716], [13.719369, 51.017716], [13.71847, 51.018616]]]}, "properties": {"addr:city": "Dresden", "addr:housenumber": "18", "addr:postcode": "01189", "addr:street": "Kohlenstra\u00dfe", "amenity": "pharmacy", "dispensing": "yes", "level": "0", "name": "Panorama-Apotheke", "opening_hours": "Mo-Sa 08:00-20:00", "phone": "+49 351 4034508", "website": "https://www.panorama-apotheke.de", "wheelchair": "yes", "__nodeId": 333600698}}, {"type": "Feature", "geometry": {"type": "Polygon", "coordinates": [[[13.662799, 51.039244], [13.66145, 51.040593], [13.662349, 51.041492], [13.662349, 51.042392], [13.663698, 51.04374], [13.666396, 51.04374], [13.667295, 51.042841], [13.670892, 51.042841], [13.672241, 51.041492], [13.669094, 51.038345], [13.665496, 51.038345], [13.664597, 51.039244], [13.662799, 51.039244]]]}, "properties": {"addr:city": "Dresden", "addr:country": "DE", "addr:housenumber": "79", "addr:postcode": "01169", "addr:street": "Altgorbitzer Ring", "amenity": "pharmacy", "dispensing": "yes", "entrance": "main", "name": "Easy-Apotheke", "__nodeId": 334640378}}, {"type": "Feature", "geometry": {"type": "Polygon", "coordinates": [[[13.759762, 51.054305], [13.759313, 51.054755], [13.759313, 51.056553], [13.759762, 51.057003], [13.760661, 51.057003], [13.761111, 51.057453], [13.761111, 51.058352], [13.761561, 51.058802], [13.765158, 51.058802], [13.765607, 51.058352], [13.765607, 51.057453], [13.766057, 51.057003], [13.766956, 51.057003], [13.767406, 51.056553], [13.766057, 51.055205], [13.764259, 51.055205], [13.76246, 51.053406], [13.761561, 51.054305], [13.759762, 51.054305]]]}, "properties": {"amenity": "pharmacy", "dispensing": "yes", "name": "Apotheke am B\u00f6nischplatz", "opening_hours": "Mo-Fr 08:00-18:30; Sa 08:30-13:00", "pets": "no", "wheelchair": "no", "wheelchair:description:de": "Stufen am Eingang", "__nodeId": 334648457}}, {"type": "Feature", "geometry": {"type": "Polygon", "coordinates": [[[13.78185, 51.037002], [13.783649, 51.037002], [13.784548, 51.037902], [13.785447, 51.037902], [13.785897, 51.037452], [13.785897, 51.036553], [13.786347, 51.036103], [13.787246, 51.036103], [13.789494, 51.033855], [13.788145, 51.032506], [13.786347, 51.032506], [13.785447, 51.031607], [13.784548, 51.032506], [13.782749, 51.032506], [13.781401, 51.033855], [13.781401, 51.036553], [13.78185, 51.037002]]]}, "properties": {"addr:city": "Dresden", "addr:country": "DE", "addr:housenumber": "40", "addr:postcode": "01277", "addr:street": "Zwinglistra\u00dfe", "amenity": "pharmacy", "dispensing": "yes", "name": "Zwingli-Apotheke", "opening_hours": "Mo-Fr 08:00-18:30; Sa 08:00-12:00", "operator": "avesana", "wheelchair": "yes", "__nodeId": 335704488}}, {"type": "Feature", "geometry": {"type": "Polygon", "coordinates": [[[13.787418, 51.028412], [13.786968, 51.028861], [13.787418, 51.029311], [13.789217, 51.029311], [13.790116, 51.028412], [13.791914, 51.028412], [13.792364, 51.027962], [13.791015, 51.026613], [13.789217, 51.026613], [13.788767, 51.027063], [13.788767, 51.027962], [13.788317, 51.028412], [13.787418, 51.028412]]]}, "properties": {"addr:city": "Dresden", "addr:country": "DE", "addr:housenumber": "59", "addr:postcode": "01237", "addr:street": "Winterbergstra\u00dfe", "amenity": "pharmacy", "dispensing": "yes", "name": "B\u00e4renapotheke", "opening_hours": "Mo-Th 08:00-18:30; Fr 08:00-18:00; Sa 08:30-12:00", "website": "http://www.baeren-apotheke-dresden.de/", "__nodeId": 335706109}}, {"type": "Feature", "geometry": {"type": "Polygon", "coordinates": [[[13.812146, 51.010131], [13.810797, 51.01148], [13.811246, 51.011929], [13.812146, 51.011929], [13.813045, 51.012829], [13.817541, 51.012829], [13.81889, 51.01148], [13.81889, 51.009681], [13.816642, 51.007433], [13.815743, 51.008332], [13.814844, 51.008332], [13.813944, 51.009231], [13.813045, 51.009231], [13.812146, 51.010131]]]}, "properties": {"addr:city": "Dresden", "addr:country": "DE", "addr:housenumber": "65", "addr:postcode": "01257", "addr:street": "Zamenhofstra\u00dfe", "amenity": "pharmacy", "contact:email": "post@apotheke-leuben.de", "contact:phone": "+49 351 2031640", "contact:website": "http://www.wunderapotheke.de/?cat=apotheken&p=leuben", "dispensing": "yes", "name": "Apotheke Leuben", "opening_hours": "Mo-Fr 07:30-18:30; Sa 09:00-12:00", "operator": "Jutta Wiesner; Torsten Wiesner", "wheelchair": "yes", "__nodeId": 335850686}}, {"type": "Feature", "geometry": {"type": "Polygon", "coordinates": [[[13.843846, 51.130651], [13.844296, 51.1311], [13.847893, 51.1311], [13.849242, 51.129751], [13.848342, 51.128852], [13.848342, 51.127053], [13.846993, 51.125705], [13.843396, 51.125705], [13.842947, 51.126154], [13.842947, 51.128852], [13.843846, 51.129751], [13.843846, 51.130651]]]}, "properties": {"addr:city": "Dresden", "addr:country": "DE", "addr:housenumber": "6", "addr:postcode": "01465", "addr:street": "Liegauer Stra\u00dfe", "amenity": "pharmacy", "name": "Linden-Apotheke", "opening_hours": "Mo-Fr 08:00-18:00; Sa 08:00-12:00", "phone": "+49 35201 70011", "__nodeId": 343825019}}, {"type": "Feature", "geometry": {"type": "Polygon", "coordinates": [[[13.725182, 51.073678], [13.726081, 51.073678], [13.726531, 51.073228], [13.726531, 51.072329], [13.726981, 51.071879], [13.728779, 51.071879], [13.730578, 51.073678], [13.731027, 51.073228], [13.730128, 51.072329], [13.730128, 51.07053], [13.728779, 51.069181], [13.726981, 51.069181], [13.725632, 51.07053], [13.725632, 51.072329], [13.724732, 51.073228], [13.725182, 51.073678]]]}, "properties": {"addr:city": "Dresden", "addr:housenumber": "40", "addr:postcode": "01127", "addr:street": "Leipziger Stra\u00dfe", "amenity": "pharmacy", "name": "Vital Apotheke", "opening_hours": "Mo-Fr 08:00-19:00; Sa 09:00-12:00", "phone": "+49 351 8112310", "website": "http://www.dresdner-vital-apotheke.de", "wheelchair": "yes", "__nodeId": 345569094}}, {"type": "Feature", "geometry": {"type": "Polygon", "coordinates": [[[13.746175, 51.074405], [13.747075, 51.075304], [13.747075, 51.077103], [13.747524, 51.077552], [13.752021, 51.077552], [13.75337, 51.076203], [13.75337, 51.074405], [13.754269, 51.073506], [13.753819, 51.073056], [13.75292, 51.073955], [13.751121, 51.073955], [13.749323, 51.072157], [13.747524, 51.072157], [13.746175, 51.073506], [13.746175, 51.074405]]]}, "properties": {"addr:city": "Dresden", "addr:country": "DE", "addr:housenumber": "17", "addr:street": "Tannenstra\u00dfe", "amenity": "pharmacy", "entrance": "main", "name": "St.-Pauli-Apotheke", "opening_hours": "Mo-Fr 07:30-19:00; Sa 08:00-13:00", "wheelchair": "no", "__nodeId": 346227674}}, {"type": "Feature", "geometry": {"type": "Polygon", "coordinates": [[[13.843568, 51.002406], [13.843118, 51.002856], [13.843118, 51.003755], [13.844467, 51.005104], [13.845367, 51.005104], [13.846716, 51.003755], [13.845367, 51.002406], [13.843568, 51.002406]]]}, "properties": {"addr:city": "Dresden", "addr:country": "DE", "addr:housenumber": "9", "addr:postcode": "01259", "addr:street": "Putjatinstra\u00dfe", "amenity": "pharmacy", "brand": "avesana Apotheke", "contact:email": "info@apotheke-kleinzschachwitz.de", "contact:fax": "+49 351 2030171", "contact:phone": "+49 351 2030170", "contact:website": "http://www.apotheke-kleinzschachwitz.de/", "dispensing": "yes", "name": "Apotheke Kleinzschachwitz", "opening_hours": "Mo-Fr 08:00-18:30; Sa 08:00-12:00", "wheelchair": "yes", "__nodeId": 346925748, "timeMapPart": 0}}, {"type": "Feature", "geometry": {"type": "Polygon", "coordinates": [[[13.848064, 51.003306], [13.847615, 51.003755], [13.847615, 51.005554], [13.848064, 51.006003], [13.849863, 51.006003], [13.850762, 51.005104], [13.852561, 51.005104], [13.853011, 51.004655], [13.851662, 51.003306], [13.850762, 51.003306], [13.850313, 51.002856], [13.850313, 51.001957], [13.849863, 51.001507], [13.848064, 51.003306]]]}, "properties": {"addr:city": "Dresden", "addr:country": "DE", "addr:housenumber": "9", "addr:postcode": "01259", "addr:street": "Putjatinstra\u00dfe", "amenity": "pharmacy", "brand": "avesana Apotheke", "contact:email": "info@apotheke-kleinzschachwitz.de", "contact:fax": "+49 351 2030171", "contact:phone": "+49 351 2030170", "contact:website": "http://www.apotheke-kleinzschachwitz.de/", "dispensing": "yes", "name": "Apotheke Kleinzschachwitz", "opening_hours": "Mo-Fr 08:00-18:30; Sa 08:00-12:00", "wheelchair": "yes", "__nodeId": 346925748, "timeMapPart": 1}}, {"type": "Feature", "geometry": {"type": "Polygon", "coordinates": [[[13.800181, 51.027616], [13.799732, 51.028066], [13.800181, 51.028516], [13.801081, 51.028516], [13.80153, 51.028965], [13.800631, 51.029865], [13.800631, 51.030764], [13.801081, 51.031213], [13.802879, 51.031213], [13.804228, 51.029865], [13.804228, 51.028066], [13.803778, 51.027616], [13.800181, 51.027616]]]}, "properties": {"amenity": "pharmacy", "name": "Apotheke im SEC", "opening_hours": "Mo-Sa 08:00-20:00", "operator": "Helmut Michael", "website": "https://www.apotheke-im-sec.de/", "wheelchair": "yes", "__nodeId": 347394902, "timeMapPart": 0}}, {"type": "Feature", "geometry": {"type": "Polygon", "coordinates": [[[13.806926, 51.028965], [13.805577, 51.027616], [13.805127, 51.028066], [13.805127, 51.029865], [13.805577, 51.030314], [13.806926, 51.028965]]]}, "properties": {"amenity": "pharmacy", "name": "Apotheke im SEC", "opening_hours": "Mo-Sa 08:00-20:00", "operator": "Helmut Michael", "website": "https://www.apotheke-im-sec.de/", "wheelchair": "yes", "__nodeId": 347394902, "timeMapPart": 1}}, {"type": "Feature", "geometry": {"type": "Polygon", "coordinates": [[[13.792374, 51.048525], [13.791924, 51.048975], [13.791924, 51.051673], [13.792374, 51.052122], [13.794172, 51.052122], [13.795072, 51.051223], [13.795521, 51.051673], [13.795521, 51.052572], [13.795971, 51.053021], [13.797769, 51.053021], [13.800917, 51.049874], [13.800917, 51.048075], [13.800467, 51.047626], [13.793273, 51.047626], [13.792374, 51.048525]]]}, "properties": {"amenity": "pharmacy", "dispensing": "yes", "name": "Barbarossa Apotheke", "opening_hours": "Mo-Fr 08:00-18:00; Sa 09:00-12:00", "phone": "+49 351 3100976", "website": "http://www.barbarossa-apotheke.biz", "__nodeId": 347610149}}, {"type": "Feature", "geometry": {"type": "Polygon", "coordinates": [[[13.730977, 51.039225], [13.730527, 51.039675], [13.730527, 51.041473], [13.729628, 51.042372], [13.730077, 51.042822], [13.730977, 51.042822], [13.731876, 51.043721], [13.733675, 51.043721], [13.734574, 51.044621], [13.735473, 51.044621], [13.735923, 51.044171], [13.735923, 51.042372], [13.736372, 51.041923], [13.738171, 51.041923], [13.738621, 51.041473], [13.738621, 51.039675], [13.738171, 51.039225], [13.730977, 51.039225]]]}, "properties": {"amenity": "pharmacy", "checked_date": "2019-09", "dispensing": "yes", "healthcare": "pharmacy", "level": "0", "name": "Stadt Apotheke", "opening_hours": "Mo-Fr 08:00-20:00; Sa 09:00-18:00", "phone": "+49 351 4810277", "website": "http://www.fetscherapotheke.de", "wheelchair": "yes", "__nodeId": 352657962}}, {"type": "Feature", "geometry": {"type": "Polygon", "coordinates": [[[13.74616, 51.06288], [13.74571, 51.063329], [13.74571, 51.064228], [13.74616, 51.064678], [13.747958, 51.064678], [13.748857, 51.065577], [13.751555, 51.065577], [13.752904, 51.064228], [13.752904, 51.06243], [13.751555, 51.061081], [13.748857, 51.061081], [13.747958, 51.06198], [13.747059, 51.06198], [13.74616, 51.06288]]]}, "properties": {"addr:city": "Dresden", "addr:housenumber": "15", "addr:postcode": "01099", "addr:street": "Bautzner Stra\u00dfe", "amenity": "pharmacy", "check_date:opening_hours": "2019-06-14", "dispensing": "yes", "name": "Kronen-Apotheke", "opening_hours": "Mo-Fr 08:00-18:30; Sa 09:00-13:00", "operator": "Rolf Leonhardt", "phone": "+49 351 8043574", "survey:date": "2016-09-09", "website": "https://www.kronenapotheke.de/", "wheelchair": "yes", "__nodeId": 355347941}}, {"type": "Feature", "geometry": {"type": "Polygon", "coordinates": [[[13.751836, 51.023273], [13.751386, 51.022823], [13.750936, 51.023273], [13.750936, 51.025071], [13.752735, 51.02687], [13.752735, 51.027769], [13.753185, 51.028219], [13.754983, 51.028219], [13.755882, 51.027319], [13.756782, 51.027319], [13.758131, 51.025971], [13.755882, 51.023722], [13.754983, 51.023722], [13.754084, 51.024622], [13.753185, 51.023722], [13.752285, 51.023722], [13.751836, 51.023273]]]}, "properties": {"addr:city": "Dresden", "addr:country": "DE", "addr:housenumber": "13", "addr:postcode": "01217", "addr:street": "Caspar-David-Friedrich-Stra\u00dfe", "amenity": "pharmacy", "name": "Paracelsus-Apotheke", "opening_hours": "Mo-Fr 07:15-19:00; Sa 09:00-12:00", "phone": "+49 351 4711 000", "__nodeId": 371370915}}, {"type": "Feature", "geometry": {"type": "Polygon", "coordinates": [[[13.758014, 51.111739], [13.76251, 51.111739], [13.763859, 51.11039], [13.763859, 51.108591], [13.764759, 51.107692], [13.764309, 51.107242], [13.76251, 51.107242], [13.761611, 51.106343], [13.759813, 51.108141], [13.758913, 51.108141], [13.758464, 51.108591], [13.758464, 51.10949], [13.757564, 51.11039], [13.757564, 51.111289], [13.758014, 51.111739]]]}, "properties": {"addr:city": "Dresden", "addr:housenumber": "9", "addr:postcode": "01109", "addr:street": "Markt", "amenity": "pharmacy", "dispensing": "yes", "name": "Siegfried-Apotheke", "opening_hours": "Mo-Fr 08:00-18:00; Sa 08:00-12:00", "phone": "+49 351 8905034", "website": "http://siegfried-apotheke.de/", "wheelchair": "limited", "__nodeId": 381001342}}, {"type": "Feature", "geometry": {"type": "Polygon", "coordinates": [[[13.746998, 51.068208], [13.746548, 51.068657], [13.746548, 51.071355], [13.746998, 51.071805], [13.749695, 51.071805], [13.750595, 51.072704], [13.751494, 51.072704], [13.751944, 51.072255], [13.751944, 51.070456], [13.751494, 51.070006], [13.750595, 51.070006], [13.749246, 51.068657], [13.749246, 51.067758], [13.748796, 51.067309], [13.747897, 51.067309], [13.746998, 51.068208]]]}, "properties": {"addr:city": "Dresden", "addr:country": "DE", "addr:housenumber": "52", "addr:postcode": "01099", "addr:street": "K\u00f6nigsbr\u00fccker Stra\u00dfe", "amenity": "pharmacy", "dispensing": "yes", "name": "Lindenapotheke", "opening_hours": "Mo-Fr 08:00-18:30; Sa 09:00-13:00", "operator": "Ines Schmei\u00dfer", "survey:date": "2016-09-02", "wheelchair": "no", "wheelchair:description:de": "Stufen im Eingangsbereich", "__nodeId": 388084182}}, {"type": "Feature", "geometry": {"type": "Polygon", "coordinates": [[[13.706179, 51.028779], [13.70573, 51.029229], [13.70573, 51.030128], [13.706179, 51.030578], [13.707079, 51.030578], [13.707978, 51.031477], [13.709776, 51.031477], [13.710676, 51.030578], [13.711575, 51.030578], [13.712474, 51.031477], [13.712924, 51.031027], [13.712924, 51.029229], [13.713823, 51.028329], [13.713374, 51.02788], [13.711575, 51.02788], [13.709776, 51.026081], [13.707978, 51.026081], [13.707528, 51.026531], [13.707528, 51.028329], [13.707079, 51.028779], [13.706179, 51.028779]]]}, "properties": {"amenity": "pharmacy", "name": "Kreuzapotheke", "opening_hours": "Mo-Fr 08:00-18:30; Sa 09:00-12:30", "wheelchair": "yes", "wheelchair:description:de": "Rollstuhlzugang \u00fcber Rampe", "__nodeId": 390031984}}, {"type": "Feature", "geometry": {"type": "Polygon", "coordinates": [[[13.753923, 51.061719], [13.753473, 51.062169], [13.753473, 51.064867], [13.753923, 51.065316], [13.754822, 51.065316], [13.755721, 51.066216], [13.758419, 51.066216], [13.760218, 51.064417], [13.762016, 51.064417], [13.762466, 51.063967], [13.760667, 51.062169], [13.760667, 51.06037], [13.760218, 51.059921], [13.759319, 51.06082], [13.756621, 51.06082], [13.755721, 51.061719], [13.753923, 51.061719]]]}, "properties": {"amenity": "pharmacy", "name": "Ostend Apotheke", "opening_hours": "Mo-We,Fr 08:00-18:30, Sa 09:00-13:00", "wheelchair": "limited", "__nodeId": 405125732}}, {"type": "Feature", "geometry": {"type": "Polygon", "coordinates": [[[13.780509, 51.111784], [13.77961, 51.111784], [13.77916, 51.112233], [13.77916, 51.113132], [13.780059, 51.114032], [13.780059, 51.114931], [13.780509, 51.115381], [13.781408, 51.115381], [13.782308, 51.11628], [13.786804, 51.11628], [13.787254, 51.11583], [13.787254, 51.114032], [13.786804, 51.113582], [13.785005, 51.113582], [13.783207, 51.111784], [13.780509, 51.111784]]]}, "properties": {"addr:city": "Dresden", "addr:housenumber": "67", "addr:postcode": "01109", "addr:street": "K\u00f6nigsbr\u00fccker Landstra\u00dfe", "amenity": "pharmacy", "name": "Heide-Apotheke", "opening_hours": "Mo-Fr 08:00-18:30; Sa 08:00-12:00", "phone": "+49 351 8805094", "website": "https://www.apotheken.de/club/01109/heide-apotheke/", "wheelchair": "no", "wheelchair:description": "mehrere Stufen vor und in der Apotheke!", "__nodeId": 415513096}}, {"type": "Feature", "geometry": {"type": "Polygon", "coordinates": [[[13.721101, 51.054163], [13.720202, 51.054163], [13.719752, 51.054613], [13.720202, 51.055062], [13.721101, 51.055062], [13.722, 51.055962], [13.726497, 51.055962], [13.726946, 51.055512], [13.726946, 51.053713], [13.724698, 51.051465], [13.7229, 51.051465], [13.721551, 51.052814], [13.721551, 51.053713], [13.721101, 51.054163]]]}, "properties": {"addr:city": "Dresden", "addr:country": "DE", "addr:housenumber": "50a", "addr:postcode": "01067", "addr:street": "Schweriner Stra\u00dfe", "amenity": "pharmacy", "dispensing": "yes", "name": "Ginkgo Apotheke", "opening_hours": "Mo-Fr 08:00-18:30", "wheelchair": "yes", "__nodeId": 431420120}}, {"type": "Feature", "geometry": {"type": "Polygon", "coordinates": [[[13.782063, 51.016141], [13.781613, 51.016591], [13.781613, 51.01749], [13.782063, 51.01794], [13.784761, 51.01794], [13.78566, 51.017041], [13.787459, 51.017041], [13.788808, 51.015692], [13.786559, 51.013444], [13.78566, 51.014343], [13.783862, 51.014343], [13.783412, 51.014792], [13.783412, 51.015692], [13.782962, 51.016141], [13.782063, 51.016141]]]}, "properties": {"addr:city": "Dresden", "addr:country": "DE", "addr:housenumber": "80", "addr:postcode": "01237", "addr:street": "Reicker Stra\u00dfe", "amenity": "pharmacy", "contact:email": "info@ringapo.de", "contact:fax": "+49 351 2844151", "contact:phone": "+49 351 2844164", "contact:website": "http://www.ringapo.de/", "dispensing": "yes", "name": "Ring Apotheke", "opening_hours": "Mo-Fr 08:30-18:30; Sa 09:00-12:00", "operator": "Fr\u00e4nze Ulrike G\u00f6bel", "wheelchair": "no", "__nodeId": 432841797}}, {"type": "Feature", "geometry": {"type": "Polygon", "coordinates": [[[13.719709, 51.079216], [13.71926, 51.079665], [13.71926, 51.080565], [13.71836, 51.081464], [13.71881, 51.081914], [13.719709, 51.081914], [13.721508, 51.083712], [13.722407, 51.083712], [13.722857, 51.083263], [13.722857, 51.082363], [13.723306, 51.081914], [13.726004, 51.081914], [13.726454, 51.081464], [13.725105, 51.080115], [13.723306, 51.080115], [13.722407, 51.081014], [13.721508, 51.081014], [13.721058, 51.080565], [13.721058, 51.079665], [13.720609, 51.079216], [13.719709, 51.079216]]]}, "properties": {"addr:city": "Dresden", "addr:housenumber": "5", "addr:postcode": "01127", "addr:street": "Wurzener Stra\u00dfe", "amenity": "pharmacy", "dispensing": "yes", "name": "Apotheke im \u00c4rztehaus Mickten", "opening_hours": "Mo-Fr 07:00-19:00; Sa 09:00-13:00", "phone": "+49 351 8522303", "website": "https://med-dresden.de/", "wheelchair": "yes", "__nodeId": 440902616}}, {"type": "Feature", "geometry": {"type": "Polygon", "coordinates": [[[13.719709, 51.079429], [13.71836, 51.080778], [13.71836, 51.081677], [13.719709, 51.083026], [13.721508, 51.083026], [13.722407, 51.082127], [13.724206, 51.082127], [13.725555, 51.080778], [13.725105, 51.080328], [13.721508, 51.080328], [13.720609, 51.079429], [13.719709, 51.079429]]]}, "properties": {"amenity": "pharmacy", "dispensing": "yes", "entrance": "yes", "name": "Apotheke am Sachsenbad", "opening_hours": "Mo-Fr 07:00-18:30; Sa 08:00-12:00", "phone": "+49 351 8490453", "wheelchair": "yes", "__nodeId": 440902617}}, {"type": "Feature", "geometry": {"type": "Polygon", "coordinates": [[[13.698808, 51.017018], [13.697909, 51.017018], [13.697459, 51.017467], [13.697909, 51.017917], [13.698808, 51.017917], [13.700157, 51.019266], [13.700157, 51.020165], [13.700607, 51.020615], [13.701506, 51.019716], [13.703305, 51.019716], [13.704204, 51.020615], [13.705103, 51.019716], [13.706902, 51.019716], [13.708251, 51.018367], [13.706003, 51.016119], [13.705103, 51.017018], [13.703305, 51.017018], [13.701506, 51.015219], [13.699708, 51.017018], [13.698808, 51.017018]]]}, "properties": {"amenity": "pharmacy", "name": "Cosel-Apotheke", "website": "https://www.cosel-apotheke.de", "wheelchair": "no", "__nodeId": 440977593}}, {"type": "Feature", "geometry": {"type": "Polygon", "coordinates": [[[13.745815, 51.070295], [13.745366, 51.070744], [13.745366, 51.072543], [13.745815, 51.072993], [13.75211, 51.072993], [13.754359, 51.070744], [13.753909, 51.070295], [13.75211, 51.070295], [13.751211, 51.069395], [13.749412, 51.069395], [13.748513, 51.068496], [13.746715, 51.070295], [13.745815, 51.070295]]]}, "properties": {"addr:city": "Dresden", "addr:country": "DE", "addr:housenumber": "57", "addr:postcode": "01099", "addr:street": "K\u00f6nigsbr\u00fccker Stra\u00dfe", "amenity": "pharmacy", "dispensing": "yes", "name": "Schauburg-Apotheke", "opening_hours": "Mo-Fr 08:00-18:30; Sa 08:00-12:00", "website": "http://www.schauburg-apotheke.de", "wheelchair": "yes", "__nodeId": 511092154}}, {"type": "Feature", "geometry": {"type": "Polygon", "coordinates": [[[13.830113, 51.024704], [13.829663, 51.025154], [13.829663, 51.027851], [13.830113, 51.028301], [13.831012, 51.028301], [13.831462, 51.028751], [13.831462, 51.02965], [13.831912, 51.0301], [13.835509, 51.0301], [13.836408, 51.030999], [13.836858, 51.030549], [13.836858, 51.028751], [13.835059, 51.026952], [13.835059, 51.025154], [13.834609, 51.024704], [13.83371, 51.025603], [13.831912, 51.025603], [13.831012, 51.024704], [13.830113, 51.024704]]]}, "properties": {"amenity": "pharmacy", "dispensing": "yes", "name": "avesana Apotheke Laubegast", "wheelchair": "yes", "__nodeId": 517957722}}, {"type": "Feature", "geometry": {"type": "Polygon", "coordinates": [[[13.765615, 51.051106], [13.770112, 51.051106], [13.77236, 51.048858], [13.770112, 51.04661], [13.766514, 51.04661], [13.765166, 51.047959], [13.765166, 51.050657], [13.765615, 51.051106]]]}, "properties": {"addr:city": "Dresden", "addr:country": "DE", "addr:housenumber": "58", "addr:postcode": "01307", "addr:street": "Thomaestra\u00dfe", "amenity": "pharmacy", "healthcare": "pharmacy", "name": "Schumann-Apotheke", "opening_hours": "Mo-Fr 07:30-18:30; Sa 08:00-12:00", "phone": "+49 351 4595116", "wheelchair": "yes", "__nodeId": 529459229}}, {"type": "Feature", "geometry": {"type": "Polygon", "coordinates": [[[13.715939, 51.093483], [13.71549, 51.093932], [13.71549, 51.094832], [13.715939, 51.095281], [13.717738, 51.095281], [13.718187, 51.095731], [13.718187, 51.09663], [13.718637, 51.09708], [13.720436, 51.09708], [13.723583, 51.093932], [13.723134, 51.093483], [13.722234, 51.094382], [13.721335, 51.094382], [13.720885, 51.093932], [13.720885, 51.093033], [13.721785, 51.092134], [13.721335, 51.091684], [13.719536, 51.091684], [13.718637, 51.090785], [13.715939, 51.093483]]]}, "properties": {"amenity": "pharmacy", "name": "Am Wilden Mann", "opening_hours": "Mo-Fr 08:00-18:45; Sa 08:00-12:00", "__nodeId": 598534407}}, {"type": "Feature", "geometry": {"type": "Polygon", "coordinates": [[[13.740322, 51.02593], [13.740772, 51.026379], [13.74257, 51.026379], [13.743469, 51.02548], [13.744369, 51.02548], [13.745268, 51.026379], [13.747516, 51.024131], [13.744369, 51.020984], [13.741671, 51.020984], [13.741221, 51.021433], [13.741221, 51.022332], [13.740772, 51.022782], [13.739872, 51.022782], [13.739423, 51.023232], [13.739423, 51.02503], [13.740322, 51.02593]]]}, "properties": {"amenity": "pharmacy", "contact:email": "post@schwan-apotheke.eu", "contact:fax": "+49 351 4761006", "contact:phone": "+49 351 4761013", "contact:website": "http://schwan-apotheke.eu/?main=3a1", "name": "Schwan-Apotheke", "opening_hours": "Mo-Fr 08:00-19:00;Sa 08:00-12:30", "operator": "Christian Fl\u00f6ssner", "wheelchair": "yes", "__nodeId": 697095431}}, {"type": "Feature", "geometry": {"type": "Polygon", "coordinates": [[[13.76778, 51.047325], [13.76733, 51.047774], [13.76778, 51.048224], [13.768679, 51.048224], [13.769578, 51.049123], [13.770478, 51.049123], [13.771377, 51.048224], [13.773175, 51.048224], [13.773625, 51.047774], [13.773625, 51.045976], [13.773175, 51.045526], [13.771377, 51.045526], [13.770478, 51.044627], [13.770028, 51.045077], [13.770028, 51.045976], [13.769578, 51.046426], [13.768679, 51.046426], [13.76778, 51.047325]]]}, "properties": {"addr:city": "Dresden", "addr:country": "DE", "addr:housenumber": "2", "addr:postcode": "01307", "addr:street": "Fetscherplatz", "amenity": "pharmacy", "healthcare": "pharmacy", "name": "Fetscher Apotheke", "opening_hours": "Mo-Fr 08:00-19:00; Sa 09:00-13:00", "phone": "+49 351 4425603", "website": "www.die-stadtapotheken.de", "wheelchair": "yes", "__nodeId": 702397309}}, {"type": "Feature", "geometry": {"type": "Polygon", "coordinates": [[[13.732911, 51.043134], [13.731562, 51.044482], [13.731562, 51.045382], [13.732012, 51.045831], [13.732911, 51.045831], [13.73381, 51.046731], [13.735609, 51.046731], [13.736508, 51.04763], [13.737407, 51.04763], [13.739656, 51.045382], [13.739656, 51.043583], [13.739206, 51.043134], [13.737407, 51.043134], [13.736508, 51.042234], [13.73471, 51.042234], [13.73381, 51.043134], [13.732911, 51.043134]]]}, "properties": {"amenity": "pharmacy", "healthcare": "pharmacy", "name": "SaXonia Apotheke", "opening_hours": "Mo-Fr 09:00-20:00; Sa 10:00-18:00", "website": "http://www.saxoniaapotheke.de", "wheelchair": "yes", "__nodeId": 725613773}}, {"type": "Feature", "geometry": {"type": "Polygon", "coordinates": [[[13.732796, 51.046721], [13.731897, 51.046721], [13.731447, 51.04717], [13.732346, 51.04807], [13.732346, 51.048969], [13.733695, 51.050318], [13.736393, 51.050318], [13.739541, 51.04717], [13.738192, 51.045822], [13.733695, 51.045822], [13.732796, 51.046721]]]}, "properties": {"addr:city": "Dresden", "addr:country": "DE", "addr:housenumber": "13", "addr:postcode": "01067", "addr:street": "Dr.-K\u00fclz-Ring", "amenity": "pharmacy", "dispensing": "yes", "fax": "+49 351 4867487", "healthcare": "pharmacy", "name": "Apotheke am Dr.-K\u00fclz-Ring", "opening_hours": "Mo-Fr 08:30-21:00; Sa 09:00-21:00", "phone": "+49 351 4867486", "wheelchair": "yes", "__nodeId": 725613795}}, {"type": "Feature", "geometry": {"type": "Polygon", "coordinates": [[[13.739473, 51.049807], [13.738573, 51.049807], [13.738124, 51.050257], [13.738573, 51.050706], [13.743969, 51.050706], [13.745318, 51.049357], [13.74307, 51.047109], [13.740372, 51.047109], [13.739922, 51.047559], [13.739922, 51.049357], [13.739473, 51.049807]]]}, "properties": {"addr:city": "Dresden", "addr:country": "DE", "addr:housenumber": "5", "addr:postcode": "01067", "addr:street": "Wilsdruffer Stra\u00dfe", "amenity": "pharmacy", "healthcare": "pharmacy", "name": "L\u00f6wen-Apotheke", "opening_hours": "Mo-Fr 08:30-18:30; Sa 09:00-13:00", "phone": "+49 351 49710", "website": "http://www.loewenapotheke-dresden.de", "wheelchair": "yes", "__nodeId": 725613838}}, {"type": "Feature", "geometry": {"type": "Polygon", "coordinates": [[[13.665294, 51.043023], [13.664845, 51.043473], [13.664845, 51.04707], [13.665294, 51.047519], [13.666194, 51.047519], [13.667093, 51.048419], [13.668892, 51.048419], [13.669791, 51.047519], [13.67069, 51.047519], [13.67114, 51.04707], [13.67114, 51.04617], [13.671589, 51.045721], [13.672489, 51.045721], [13.672938, 51.045271], [13.67069, 51.043023], [13.669791, 51.043922], [13.668892, 51.043922], [13.667992, 51.044822], [13.667543, 51.044372], [13.667543, 51.043473], [13.667093, 51.043023], [13.665294, 51.043023]]]}, "properties": {"addr:city": "Dresden", "addr:country": "DE", "addr:housenumber": "4", "addr:street": "Merianplatz", "amenity": "pharmacy", "name": "Apotheke im Sachsenforum", "opening_hours": "Mo-Fr 08:00-19:00, Sa 08:00-16:00", "postal_code": "01169", "wheelchair": "yes", "__nodeId": 738375906}}, {"type": "Feature", "geometry": {"type": "Polygon", "coordinates": [[[13.704273, 51.032634], [13.703824, 51.033083], [13.703824, 51.034882], [13.704273, 51.035331], [13.705173, 51.035331], [13.706522, 51.03668], [13.706522, 51.03758], [13.706971, 51.038029], [13.70832, 51.03668], [13.70832, 51.033083], [13.707871, 51.032634], [13.706971, 51.033533], [13.706072, 51.033533], [13.705173, 51.032634], [13.704273, 51.032634]]]}, "properties": {"amenity": "pharmacy", "name": "Wei\u00dferitz-Apotheke", "opening_hours": "Mo-Fr 08:00-18:00; Sa 09:00-12:00", "operator": "Frank Hering", "wheelchair": "limited", "__nodeId": 781808197}}, {"type": "Feature", "geometry": {"type": "Polygon", "coordinates": [[[13.703883, 51.028745], [13.702984, 51.028745], [13.702534, 51.029195], [13.702534, 51.030094], [13.704782, 51.032342], [13.706581, 51.032342], [13.70748, 51.031443], [13.710178, 51.031443], [13.710627, 51.030993], [13.710627, 51.029195], [13.711527, 51.028295], [13.711077, 51.027846], [13.704782, 51.027846], [13.703883, 51.028745]]]}, "properties": {"amenity": "pharmacy", "name": "Apotheke Plauen", "opening_hours": "Mo-Fr 08:00-19:00, Sa 08:00-13:00", "wheelchair": "yes", "__nodeId": 786793733}}, {"type": "Feature", "geometry": {"type": "Polygon", "coordinates": [[[13.806369, 51.026451], [13.805919, 51.0269], [13.805919, 51.028699], [13.806369, 51.029149], [13.809067, 51.029149], [13.809966, 51.028249], [13.810865, 51.028249], [13.811315, 51.0278], [13.810416, 51.0269], [13.810416, 51.025102], [13.809966, 51.024652], [13.808167, 51.024652], [13.807718, 51.025102], [13.807718, 51.026001], [13.807268, 51.026451], [13.806369, 51.026451]]]}, "properties": {"amenity": "pharmacy", "dispensing": "yes", "email": "info@apotheke-altseidnitz.de", "fax": "+49 351 2581057", "name": "Apotheke Altseidnitz", "opening_hours": "Mo-Fr 07:30-18:00", "phone": "+49 351 2581053", "website": "http://www.apotheke-altseidnitz.de", "__nodeId": 808600494}}, {"type": "Feature", "geometry": {"type": "Polygon", "coordinates": [[[13.81852, 51.061251], [13.818071, 51.061701], [13.818071, 51.0635], [13.81852, 51.063949], [13.81942, 51.063949], [13.819869, 51.064399], [13.819869, 51.065298], [13.820319, 51.065748], [13.825715, 51.065748], [13.826164, 51.065298], [13.825265, 51.064399], [13.825265, 51.0635], [13.825715, 51.06305], [13.826614, 51.06305], [13.827064, 51.0626], [13.825715, 51.061251], [13.823916, 51.061251], [13.823017, 51.060352], [13.821218, 51.060352], [13.820319, 51.061251], [13.81852, 51.061251]]]}, "properties": {"amenity": "pharmacy", "name": "Weisser Hirsch", "wheelchair": "yes", "__nodeId": 900303472}}, {"type": "Feature", "geometry": {"type": "Polygon", "coordinates": [[[13.798072, 51.142344], [13.797173, 51.142344], [13.796723, 51.142794], [13.796723, 51.143693], [13.798072, 51.145042], [13.798971, 51.145042], [13.799421, 51.145492], [13.798971, 51.145941], [13.798072, 51.145941], [13.797622, 51.146391], [13.798072, 51.146841], [13.80077, 51.146841], [13.801669, 51.14774], [13.802568, 51.14774], [13.803018, 51.14729], [13.803018, 51.146391], [13.802119, 51.145492], [13.802119, 51.144592], [13.803018, 51.143693], [13.802568, 51.143244], [13.79987, 51.143244], [13.799421, 51.142794], [13.799421, 51.141895], [13.798971, 51.141445], [13.798072, 51.142344]]]}, "properties": {"addr:city": "Dresden", "addr:country": "DE", "addr:housenumber": "295", "addr:postcode": "01108", "addr:street": "K\u00f6nigsbr\u00fccker Landstra\u00dfe", "amenity": "pharmacy", "healthcare": "pharmacy", "name": "Rathaus-Apotheke", "opening_hours": "Mo-Fr 08:00-19:00; Sa 08:00-12:00", "phone": "+49 351 8890100", "wheelchair": "yes", "__nodeId": 974959733}}, {"type": "Feature", "geometry": {"type": "Polygon", "coordinates": [[[13.801736, 51.05115], [13.800388, 51.052499], [13.800837, 51.052948], [13.801736, 51.052948], [13.802186, 51.053398], [13.802186, 51.054297], [13.802636, 51.054747], [13.803535, 51.054747], [13.804434, 51.053848], [13.805334, 51.053848], [13.806233, 51.054747], [13.808031, 51.054747], [13.808481, 51.054297], [13.808481, 51.052499], [13.807132, 51.05115], [13.805334, 51.05115], [13.804434, 51.05025], [13.803535, 51.05115], [13.801736, 51.05115]]]}, "properties": {"amenity": "pharmacy", "name": "Lavendel Apotheke", "opening_hours": "Mo-Fr 08:00-19:00; Sa 08:30-13:30", "wheelchair": "yes", "__nodeId": 1111703368}}, {"type": "Feature", "geometry": {"type": "Polygon", "coordinates": [[[13.801736, 51.05115], [13.800388, 51.052499], [13.800837, 51.052948], [13.804434, 51.052948], [13.805334, 51.053848], [13.807132, 51.053848], [13.808481, 51.052499], [13.808481, 51.0507], [13.808031, 51.05025], [13.804434, 51.05025], [13.803535, 51.05115], [13.801736, 51.05115]]]}, "properties": {"amenity": "pharmacy", "name": "Schiller-Apotheke", "opening_hours": "Mo-Fr 08:00-20:00; Sa 09:00-18:00", "payment:credit_cards": "yes", "wheelchair": "yes", "__nodeId": 1111714612}}, {"type": "Feature", "geometry": {"type": "Polygon", "coordinates": [[[13.731781, 51.048891], [13.731332, 51.04934], [13.731332, 51.05024], [13.732681, 51.051588], [13.737177, 51.051588], [13.738526, 51.05024], [13.738526, 51.048441], [13.738076, 51.047991], [13.736278, 51.047991], [13.735378, 51.047092], [13.732681, 51.047092], [13.732231, 51.047542], [13.732231, 51.048441], [13.731781, 51.048891]]]}, "properties": {"amenity": "pharmacy", "healthcare": "pharmacy", "level": "0", "name": "Apotheke Altmarkt-Galerie", "opening_hours": "Mo-Sa 09:00-21:00", "wheelchair": "yes", "__nodeId": 1137981052}}, {"type": "Feature", "geometry": {"type": "Polygon", "coordinates": [[[13.731916, 51.047795], [13.732815, 51.047795], [13.733714, 51.048694], [13.734614, 51.048694], [13.735513, 51.047795], [13.737312, 51.047795], [13.73956, 51.045547], [13.738211, 51.044198], [13.736412, 51.044198], [13.735513, 51.043298], [13.734614, 51.044198], [13.732815, 51.044198], [13.732366, 51.044647], [13.732366, 51.046446], [13.731466, 51.047345], [13.731916, 51.047795]]]}, "properties": {"addr:city": "Dresden", "addr:country": "DE", "addr:housenumber": "15", "addr:postcode": "01069", "addr:street": "Prager Stra\u00dfe", "amenity": "pharmacy", "dispensing": "yes", "healthcare": "pharmacy", "name": "Centrum Apotheke", "opening_hours": "Mo-Fr 09:00-20:00; Sa 09:30-20:00", "website": "http://www.centrum-apotheke-dresden.de/", "wheelchair": "yes", "__nodeId": 1138090506}}, {"type": "Feature", "geometry": {"type": "Polygon", "coordinates": [[[13.780504, 51.05222], [13.779605, 51.05222], [13.779155, 51.052669], [13.780954, 51.054468], [13.780954, 51.055367], [13.782303, 51.056716], [13.784101, 51.056716], [13.785001, 51.055817], [13.7859, 51.055817], [13.788148, 51.053569], [13.788148, 51.05177], [13.787699, 51.05132], [13.784101, 51.05132], [13.783652, 51.05177], [13.783652, 51.052669], [13.783202, 51.053119], [13.782303, 51.05222], [13.780504, 51.05222]]]}, "properties": {"addr:city": "Dresden", "addr:housenumber": "2", "addr:postcode": "01307", "addr:street": "Mildred-Scheel-Stra\u00dfe", "amenity": "pharmacy", "name": "Carus-Apotheke", "opening_hours": "Mo-Fr 08:00-18:30; Sa 08:00-13:00", "wheelchair": "yes", "__nodeId": 1209603703}}, {"type": "Feature", "geometry": {"type": "Polygon", "coordinates": [[[13.766837, 51.044682], [13.765488, 51.046031], [13.765488, 51.046931], [13.765938, 51.04738], [13.766837, 51.04738], [13.767736, 51.048279], [13.769535, 51.048279], [13.770434, 51.04738], [13.771334, 51.04738], [13.773132, 51.049179], [13.773582, 51.048729], [13.773582, 51.046931], [13.774481, 51.046031], [13.772233, 51.043783], [13.770434, 51.043783], [13.769535, 51.042884], [13.767736, 51.044682], [13.766837, 51.044682]]]}, "properties": {"addr:city": "Dresden", "addr:country": "DE", "addr:housenumber": "27", "addr:postcode": "01307", "addr:street": "Fetscherstra\u00dfe", "amenity": "pharmacy", "healthcare": "pharmacy", "name": "Blue Marlin", "opening_hours": "Mo-Fr 09:00-18:30; Sa 09:00-12:00", "__nodeId": 1252161497}}, {"type": "Feature", "geometry": {"type": "Polygon", "coordinates": [[[13.722394, 51.045221], [13.721495, 51.045221], [13.721045, 51.04567], [13.721945, 51.046569], [13.721945, 51.049267], [13.722394, 51.049717], [13.724193, 51.049717], [13.725991, 51.047918], [13.726891, 51.047918], [13.72779, 51.048818], [13.72824, 51.048368], [13.72824, 51.046569], [13.729139, 51.04567], [13.728689, 51.045221], [13.726891, 51.045221], [13.725991, 51.044321], [13.723294, 51.044321], [13.722394, 51.045221]]]}, "properties": {"amenity": "pharmacy", "dispensing": "yes", "name": "Sert\u00fcrner-Apotheke", "opening_hours": "Tu-Fr 08:00-18:30; Sa 08:00-12:00", "wheelchair": "yes", "__nodeId": 1342611178}}, {"type": "Feature", "geometry": {"type": "Polygon", "coordinates": [[[13.766201, 51.116916], [13.764852, 51.118265], [13.764852, 51.119164], [13.766201, 51.120513], [13.771597, 51.120513], [13.772046, 51.120064], [13.769798, 51.117815], [13.767999, 51.117815], [13.7671, 51.116916], [13.766201, 51.116916]]]}, "properties": {"amenity": "pharmacy", "dispensing": "yes", "name": "Zauberwald-Apotheke", "opening_hours": "Mo-Fr 08:00-20:00; Sa 08:00-14:00", "phone": "+49 351 7953662", "wheelchair": "yes", "__nodeId": 1342701431}}, {"type": "Feature", "geometry": {"type": "Polygon", "coordinates": [[[13.783687, 51.031703], [13.783237, 51.032152], [13.783237, 51.033951], [13.784586, 51.0353], [13.787284, 51.0353], [13.788183, 51.034401], [13.789982, 51.034401], [13.790432, 51.033951], [13.790432, 51.032152], [13.789083, 51.030803], [13.785486, 51.030803], [13.784586, 51.031703], [13.783687, 51.031703]]]}, "properties": {"amenity": "pharmacy", "dispensing": "yes", "name": "Apotheke Gruna", "wheelchair": "yes", "__nodeId": 1512844622}}, {"type": "Feature", "geometry": {"type": "Polygon", "coordinates": [[[13.805342, 51.03215], [13.803993, 51.033499], [13.804892, 51.034398], [13.804892, 51.036197], [13.805342, 51.036647], [13.810737, 51.036647], [13.811187, 51.036197], [13.811187, 51.034398], [13.808939, 51.03215], [13.805342, 51.03215]]]}, "properties": {"addr:housenumber": "5", "addr:street": "Altenberger Platz", "amenity": "pharmacy", "name": "Arnika Apotheke", "opening_hours": "Mo-Fr 08:00-18:30; Sa 08:00-13:00", "phone": "+49 351 2571013", "wheelchair": "yes", "__nodeId": 1546963036}}, {"type": "Feature", "geometry": {"type": "Polygon", "coordinates": [[[13.881985, 51.05951], [13.881535, 51.05996], [13.881535, 51.062658], [13.881985, 51.063108], [13.883783, 51.063108], [13.884683, 51.064007], [13.88738, 51.064007], [13.88783, 51.063557], [13.88783, 51.061759], [13.888729, 51.060859], [13.88738, 51.05951], [13.885582, 51.05951], [13.884683, 51.058611], [13.884233, 51.059061], [13.884233, 51.05996], [13.883783, 51.06041], [13.882884, 51.05951], [13.881985, 51.05951]]]}, "properties": {"addr:city": "Dresden", "addr:housenumber": "291", "addr:postcode": "01328", "addr:street": "Bautzner Landstra\u00dfe", "amenity": "pharmacy", "healthcare": "pharmacy", "name": "Hutberg-Apotheke Wei\u00dfig", "opening_hours": "Mo-Fr 08:00-18:30; Sa 09:00-13:00", "wheelchair": "yes", "__nodeId": 1567722911}}, {"type": "Feature", "geometry": {"type": "Polygon", "coordinates": [[[13.834766, 51.061591], [13.833867, 51.061591], [13.833417, 51.062041], [13.833867, 51.06249], [13.834766, 51.06249], [13.835665, 51.06339], [13.838363, 51.06339], [13.840162, 51.065188], [13.84196, 51.065188], [13.84241, 51.064739], [13.84241, 51.06294], [13.843309, 51.062041], [13.84196, 51.060692], [13.840162, 51.060692], [13.838363, 51.058893], [13.837014, 51.060242], [13.837014, 51.061141], [13.836565, 51.061591], [13.834766, 51.061591]]]}, "properties": {"amenity": "pharmacy", "name": "Hubertus - Apotheke", "opening_hours": "Mo-Fr 08:00-18:30; Sa 08:00-12:00", "website": "http://www.hubertus-apotheke-dresden.de", "__nodeId": 1580157760}}, {"type": "Feature", "geometry": {"type": "Polygon", "coordinates": [[[13.758989, 51.02626], [13.75854, 51.02671], [13.75854, 51.027609], [13.75764, 51.028508], [13.75809, 51.028958], [13.758989, 51.028958], [13.759888, 51.029857], [13.761687, 51.029857], [13.763486, 51.028059], [13.766183, 51.028059], [13.766633, 51.027609], [13.764385, 51.025361], [13.760788, 51.025361], [13.759888, 51.02626], [13.758989, 51.02626]]]}, "properties": {"amenity": "pharmacy", "contact:phone": "+49 351 4708120", "contact:website": "https://mattheus-apotheke-dresden.de/neue-apotheke-altstrehlen/", "dispensing": "yes", "healthcare": "pharmacy", "name": "Neue Apotheke Altstrehlen", "opening_hours": "Mo-Fr 08:00-18:00", "wheelchair": "limited", "__nodeId": 1589968413}}, {"type": "Feature", "geometry": {"type": "Polygon", "coordinates": [[[13.698574, 51.043648], [13.701272, 51.043648], [13.702621, 51.042299], [13.701722, 51.0414], [13.701722, 51.040501], [13.700373, 51.039152], [13.699473, 51.039152], [13.698574, 51.038253], [13.698124, 51.038702], [13.698124, 51.043199], [13.698574, 51.043648]]]}, "properties": {"addr:city": "Dresden", "addr:country": "DE", "addr:housenumber": "11", "addr:postcode": "01159", "addr:street": "B\u00fcnaustra\u00dfe", "amenity": "pharmacy", "name": "Semmelweis-Apotheke", "opening_hours": "Mo-Fr 08:00-18:30; Sa 08:30-12:00", "operator": "Peter Emig", "wheelchair": "yes", "wheelchair:description": "Um mit Rolli in die Apotheke zu gelangen, kann man vom Hof hinein um den Fahrstuhl des \u00c4rztehauses zu nutzen", "wheelchair:description:de": "Stufen am Eingang", "__nodeId": 1648414380}}, {"type": "Feature", "geometry": {"type": "Polygon", "coordinates": [[[13.757789, 51.023951], [13.757339, 51.024401], [13.757339, 51.027099], [13.758238, 51.027998], [13.758238, 51.028897], [13.758688, 51.029347], [13.761386, 51.029347], [13.762285, 51.028447], [13.763184, 51.028447], [13.763634, 51.027998], [13.763634, 51.026199], [13.764533, 51.0253], [13.763184, 51.023951], [13.757789, 51.023951]]]}, "properties": {"addr:city": "Dresden", "addr:country": "DE", "addr:housenumber": "9", "addr:postcode": "01219", "addr:street": "Lockwitzer Stra\u00dfe", "amenity": "pharmacy", "contact:website": "https://www.sophien-apotheke-dresden-app.de", "level": "0", "name": "Sophien Apotheke", "opening_hours": "Mo-Fr 07:30-19:00; Sa 08:00-13:00", "operator": "Steffi Mattheus", "wheelchair": "limited", "__nodeId": 1649300187}}, {"type": "Feature", "geometry": {"type": "Polygon", "coordinates": [[[13.689314, 51.045195], [13.688864, 51.045645], [13.688864, 51.046544], [13.689764, 51.047443], [13.689764, 51.048342], [13.691112, 51.049691], [13.692012, 51.049691], [13.692461, 51.049242], [13.692461, 51.048342], [13.692911, 51.047893], [13.69381, 51.047893], [13.69471, 51.048792], [13.696508, 51.048792], [13.696958, 51.048342], [13.696958, 51.046544], [13.69381, 51.043396], [13.692012, 51.045195], [13.689314, 51.045195]]]}, "properties": {"amenity": "pharmacy", "name": "Aesculap-Apotheke", "opening_hours": "Mo-Fr 08:00-18:30, Sa 09:00-12:00", "wheelchair": "no", "__nodeId": 1652960916}}, {"type": "Feature", "geometry": {"type": "Polygon", "coordinates": [[[13.764001, 51.015], [13.763551, 51.01545], [13.763551, 51.016349], [13.7658, 51.018597], [13.767598, 51.018597], [13.768497, 51.017698], [13.769397, 51.017698], [13.771645, 51.01545], [13.768497, 51.012302], [13.767598, 51.013202], [13.7658, 51.013202], [13.76535, 51.013651], [13.76535, 51.014551], [13.7649, 51.015], [13.764001, 51.015]]]}, "properties": {"addr:city": "Dresden", "addr:country": "DE", "addr:housenumber": "66", "addr:postcode": "01219", "addr:street": "Spitzwegstra\u00dfe", "amenity": "pharmacy", "contact:email": "info@sued-apotheke-dresden.de", "contact:fax": "+49 351 4707441", "contact:phone": "+49 800 4707440", "contact:website": "http://www.sued-apotheke-dresden.de", "dispensing": "yes", "name": "S\u00fcd-Apotheke", "opening_hours": "Mo-Fr 08:00-18:30; Sa 08:00-12:00", "operator": "Carina Fiedler", "wheelchair": "yes", "__nodeId": 1667034352}}, {"type": "Feature", "geometry": {"type": "Polygon", "coordinates": [[[13.774635, 51.067275], [13.774185, 51.067725], [13.774185, 51.068624], [13.774635, 51.069074], [13.776433, 51.069074], [13.776883, 51.069523], [13.776883, 51.070423], [13.777333, 51.070872], [13.779131, 51.070872], [13.780031, 51.069973], [13.781829, 51.069973], [13.782279, 51.069523], [13.780031, 51.067275], [13.774635, 51.067275]]]}, "properties": {"amenity": "pharmacy", "name": "Apotheke am Waldschl\u00f6sschen", "opening_hours": "Mo-Fr 08:00-18:00, Sa 09:00-12:00", "wheelchair": "yes", "__nodeId": 1694816733}}, {"type": "Feature", "geometry": {"type": "Polygon", "coordinates": [[[13.740661, 51.060716], [13.740212, 51.061166], [13.740212, 51.062065], [13.740661, 51.062515], [13.741561, 51.062515], [13.74246, 51.061615], [13.742909, 51.062065], [13.742909, 51.063864], [13.743359, 51.064313], [13.746057, 51.064313], [13.748305, 51.062065], [13.745158, 51.058917], [13.744258, 51.059817], [13.741561, 51.059817], [13.740661, 51.060716]]]}, "properties": {"addr:city": "Dresden", "addr:country": "DE", "addr:housenumber": "29", "addr:postcode": "01097", "addr:street": "K\u00f6nigstra\u00dfe", "amenity": "pharmacy", "entrance": "main", "name": "K\u00f6nig Apotheke", "opening_hours": "Mo-Fr 07:30-19:00; Sa 09:00-14:00", "phone": "+49 351 808470", "wheelchair": "limited", "__nodeId": 1755245175}}, {"type": "Feature", "geometry": {"type": "Polygon", "coordinates": [[[13.891742, 51.032889], [13.891292, 51.033338], [13.892192, 51.034238], [13.892192, 51.035137], [13.893541, 51.036486], [13.89444, 51.036486], [13.89489, 51.036036], [13.89489, 51.035137], [13.896238, 51.033788], [13.896688, 51.034238], [13.896688, 51.035137], [13.897138, 51.035587], [13.898936, 51.035587], [13.899386, 51.035137], [13.899386, 51.03154], [13.898037, 51.030191], [13.896238, 51.030191], [13.895339, 51.03109], [13.89444, 51.03109], [13.892641, 51.032889], [13.891742, 51.032889]]]}, "properties": {"amenity": "pharmacy", "name": "Kronen-Apotheke", "operator": "Kerstin M\u00f6ller", "phone": "+49 351 2640063", "wheelchair": "no", "__nodeId": 1762727412}}, {"type": "Feature", "geometry": {"type": "Polygon", "coordinates": [[[13.767039, 51.056974], [13.76659, 51.057424], [13.76659, 51.058323], [13.767039, 51.058773], [13.767939, 51.058773], [13.768838, 51.059672], [13.774234, 51.059672], [13.775583, 51.058323], [13.774234, 51.056974], [13.769737, 51.056974], [13.769288, 51.056525], [13.769288, 51.055625], [13.768838, 51.055176], [13.767939, 51.055176], [13.767489, 51.055625], [13.767489, 51.056525], [13.767039, 51.056974]]]}, "properties": {"addr:city": "Dresden", "addr:country": "DE", "addr:housenumber": "55", "addr:postcode": "01307", "addr:street": "Pfotenhauerstra\u00dfe", "amenity": "pharmacy", "name": "Lilienapotheke", "opening_hours": "Mo-Fr 08:00-18:30; Sa 09:00-13:00", "wheelchair": "yes", "wheelchair:description:de": "Stufen vor dem Eingang, Rollstuhlzugang \u00fcber den Hinterhof", "__nodeId": 1776509481}}, {"type": "Feature", "geometry": {"type": "Polygon", "coordinates": [[[13.700696, 51.04339], [13.700246, 51.04384], [13.700246, 51.044739], [13.700696, 51.045189], [13.701595, 51.045189], [13.702495, 51.046088], [13.706092, 51.046088], [13.707441, 51.044739], [13.707441, 51.04294], [13.706092, 51.041592], [13.701595, 51.041592], [13.701146, 51.042041], [13.701146, 51.04294], [13.700696, 51.04339]]]}, "properties": {"amenity": "pharmacy", "name": "Dreikaiserhof Apotheke", "opening_hours": "Mo-Fr 08:00-18:30; Sa 08:00-12:00", "operator": "Sylvia Vater", "wheelchair": "yes", "__nodeId": 1780823603}}, {"type": "Feature", "geometry": {"type": "Polygon", "coordinates": [[[13.712201, 51.058212], [13.71355, 51.059561], [13.718047, 51.059561], [13.718496, 51.059111], [13.718496, 51.057313], [13.719396, 51.056414], [13.718946, 51.055964], [13.717147, 51.055964], [13.716248, 51.055065], [13.71445, 51.055065], [13.712201, 51.057313], [13.712201, 51.058212]]]}, "properties": {"amenity": "pharmacy", "dispensing": "no", "name": "Krankenhausapotheke", "__nodeId": 1801877353}}, {"type": "Feature", "geometry": {"type": "Polygon", "coordinates": [[[13.718933, 51.057963], [13.718484, 51.058413], [13.718484, 51.059312], [13.718933, 51.059762], [13.724329, 51.059762], [13.725678, 51.058413], [13.725228, 51.057963], [13.72343, 51.057963], [13.722531, 51.057064], [13.721631, 51.057064], [13.720732, 51.057963], [13.718933, 51.057963]]]}, "properties": {"addr:city": "Dresden", "addr:country": "DE", "addr:housenumber": "38", "addr:postcode": "01067", "addr:street": "Friedrichstra\u00dfe", "amenity": "pharmacy", "name": "Neue Apotheke Friedrichstadt", "opening_hours": "Mo-Fr 07:30-18:30; Sa 08:00-12:00", "phone": "+49 351 8212337", "__nodeId": 1853439099}}, {"type": "Feature", "geometry": {"type": "Polygon", "coordinates": [[[13.674239, 51.060166], [13.673789, 51.060615], [13.674689, 51.061515], [13.674689, 51.062414], [13.675138, 51.062864], [13.676937, 51.062864], [13.677836, 51.063763], [13.678735, 51.063763], [13.679185, 51.063313], [13.679185, 51.062414], [13.679635, 51.061964], [13.680534, 51.061964], [13.681433, 51.062864], [13.682782, 51.061515], [13.679635, 51.058367], [13.676937, 51.058367], [13.676037, 51.059267], [13.675138, 51.059267], [13.674239, 51.060166]]]}, "properties": {"amenity": "pharmacy", "name": "Canaletto Apotheke", "opening_hours": "Mo-Fr 08:00-18:00; Sa 08:00-12:00", "wheelchair": "no", "__nodeId": 1920143360}}, {"type": "Feature", "geometry": {"type": "Polygon", "coordinates": [[[13.802269, 51.037906], [13.80182, 51.038356], [13.80182, 51.040154], [13.802269, 51.040604], [13.804068, 51.040604], [13.804967, 51.041503], [13.806766, 51.041503], [13.807215, 51.041054], [13.807215, 51.040154], [13.809014, 51.038356], [13.808564, 51.037906], [13.807665, 51.037906], [13.807215, 51.037456], [13.807215, 51.036557], [13.806766, 51.036108], [13.805866, 51.037007], [13.804967, 51.037007], [13.804068, 51.036108], [13.803169, 51.036108], [13.802719, 51.036557], [13.802719, 51.037456], [13.802269, 51.037906]]]}, "properties": {"amenity": "pharmacy", "dispensing": "yes", "name": "Lotos-Apotheke", "opening_hours": "Mo-Fr 08:00-19:00; Sa 09:00-14:00", "operator": "Ralph Z\u00f6llner", "phone": "+49 351 3140373", "website": "https://www.lotos-apotheke-dresden.de/", "wheelchair": "yes", "__nodeId": 1993700478}}, {"type": "Feature", "geometry": {"type": "Polygon", "coordinates": [[[13.835297, 51.021418], [13.834848, 51.021867], [13.834848, 51.026364], [13.835297, 51.026814], [13.838894, 51.026814], [13.840243, 51.025465], [13.840243, 51.024565], [13.841143, 51.023666], [13.841143, 51.021867], [13.840693, 51.021418], [13.835297, 51.021418]]]}, "properties": {"amenity": "pharmacy", "contact:website": "http://www.fuchs-apotheke-laubegast.de", "dispensing": "yes", "name": "Fuchs Apotheke", "opening_hours": "Mo-Fr 08:00-18:00, Sa 09:00-12:00", "wheelchair": "yes", "__nodeId": 2028678469}}, {"type": "Feature", "geometry": {"type": "Polygon", "coordinates": [[[13.832824, 51.024183], [13.832375, 51.024633], [13.832375, 51.026431], [13.834173, 51.02823], [13.834173, 51.029129], [13.834623, 51.029579], [13.836421, 51.029579], [13.837321, 51.02868], [13.83822, 51.02868], [13.839569, 51.027331], [13.839569, 51.025532], [13.83822, 51.024183], [13.836421, 51.024183], [13.835972, 51.024633], [13.835972, 51.025532], [13.835522, 51.025982], [13.834623, 51.025083], [13.833724, 51.025083], [13.832824, 51.024183]]]}, "properties": {"addr:city": "Dresden", "addr:country": "DE", "addr:housenumber": "25", "addr:postcode": "01279", "addr:street": "\u00d6sterreicher Stra\u00dfe", "amenity": "pharmacy", "contact:phone": "+49 351 2571186", "dispensing": "yes", "name": "Anker Apotheke", "opening_hours": "Mo-Fr 08:00-18:30; Sa 08:00-12:00", "wheelchair": "no", "__nodeId": 2048728208}}, {"type": "Feature", "geometry": {"type": "Polygon", "coordinates": [[[13.658633, 51.051591], [13.664029, 51.051591], [13.666277, 51.049343], [13.664928, 51.047994], [13.663129, 51.047994], [13.66223, 51.048893], [13.660432, 51.048893], [13.659532, 51.047994], [13.658633, 51.047994], [13.658183, 51.048443], [13.658183, 51.051141], [13.658633, 51.051591]]]}, "properties": {"amenity": "pharmacy", "name": "Center Apotheke", "__nodeId": 2065383446}}, {"type": "Feature", "geometry": {"type": "Polygon", "coordinates": [[[13.705343, 51.084035], [13.703994, 51.085384], [13.704443, 51.085834], [13.706242, 51.085834], [13.707141, 51.084935], [13.70894, 51.084935], [13.710738, 51.086733], [13.712537, 51.086733], [13.712987, 51.086284], [13.712087, 51.085384], [13.712087, 51.083586], [13.711638, 51.083136], [13.710738, 51.083136], [13.710289, 51.082686], [13.710289, 51.081787], [13.709839, 51.081337], [13.708041, 51.081337], [13.706692, 51.082686], [13.706692, 51.083586], [13.706242, 51.084035], [13.705343, 51.084035]]]}, "properties": {"addr:city": "Dresden", "addr:country": "DE", "addr:housenumber": "218", "addr:postcode": "01139", "addr:street": "Leipziger Stra\u00dfe", "amenity": "pharmacy", "name": "Elisabeth Apotheke", "__nodeId": 2150619685}}, {"type": "Feature", "geometry": {"type": "Polygon", "coordinates": [[[13.8158, 51.04903], [13.815351, 51.049479], [13.815351, 51.052177], [13.8158, 51.052627], [13.819397, 51.052627], [13.819847, 51.052177], [13.819847, 51.051278], [13.820297, 51.050828], [13.822095, 51.050828], [13.822545, 51.050379], [13.821196, 51.04903], [13.8158, 51.04903]]]}, "properties": {"amenity": "pharmacy", "name": "Neue Apotheke Loschwitz", "opening_hours": "Mo-Fr 09:00-19:00; Sa 09:00-13:00", "wheelchair": "yes", "__nodeId": 2239959289}}, {"type": "Feature", "geometry": {"type": "Polygon", "coordinates": [[[13.72841, 51.039279], [13.72796, 51.039728], [13.72796, 51.040628], [13.72841, 51.041077], [13.730208, 51.041077], [13.731107, 51.040178], [13.731557, 51.040628], [13.731557, 51.042426], [13.732007, 51.042876], [13.732906, 51.042876], [13.736053, 51.039728], [13.732906, 51.036581], [13.732007, 51.03748], [13.729309, 51.03748], [13.728859, 51.03793], [13.728859, 51.038829], [13.72841, 51.039279]]]}, "properties": {"amenity": "pharmacy", "healthcare": "pharmacy", "level": "0", "name": "City-Apotheke im Hauptbahnhof", "opening_hours": "Mo-Fr 07:00-22:00; Sa-Su,PH 08:00-22:00", "opening_hours:check_date": "04.08.2019", "operator": "Dr. Katja Scarlett Daub", "wheelchair": "yes", "__nodeId": 2411639800}}, {"type": "Feature", "geometry": {"type": "Polygon", "coordinates": [[[13.739199, 51.05808], [13.738749, 51.058529], [13.738749, 51.059429], [13.73785, 51.060328], [13.739199, 51.061677], [13.741897, 51.061677], [13.742796, 51.062576], [13.745494, 51.062576], [13.745944, 51.062127], [13.745944, 51.058529], [13.744595, 51.057181], [13.740098, 51.057181], [13.739199, 51.05808]]]}, "properties": {"addr:housenumber": "7", "addr:street": "Hauptstra\u00dfe", "amenity": "pharmacy", "name": "City-Apotheke", "opening_hours": "Mo-Fr 08:30-20:00; Sa 09:00-19:00", "opening_hours:check_date": "08.01.16", "operator": "Dr. Katja Scarlett Daub", "survey:date": "2016-09-03", "website": "https://www.city-apotheken-dresden.de/", "wheelchair": "yes", "__nodeId": 2579367800}}, {"type": "Feature", "geometry": {"type": "Polygon", "coordinates": [[[13.844553, 51.059489], [13.844103, 51.059938], [13.844103, 51.061737], [13.845003, 51.062636], [13.845003, 51.064435], [13.845452, 51.064884], [13.846352, 51.064884], [13.84815, 51.063086], [13.849049, 51.063086], [13.849949, 51.063985], [13.850398, 51.063535], [13.850398, 51.062636], [13.850848, 51.062186], [13.851747, 51.062186], [13.852197, 51.061737], [13.849949, 51.059489], [13.849049, 51.060388], [13.84815, 51.060388], [13.847701, 51.059938], [13.847701, 51.059039], [13.847251, 51.058589], [13.846352, 51.058589], [13.845452, 51.059489], [13.844553, 51.059489]]]}, "properties": {"addr:city": "Dresden", "addr:country": "DE", "addr:housenumber": "128", "addr:postcode": "01324", "addr:street": "Bautzner Landstra\u00dfe", "amenity": "pharmacy", "name": "Apotheke B\u00fchlau", "opening_hours": "Mo-Fr 08:00-18:30; Sa 08:00-13:00", "phone": "+49 351 2688631", "website": "https://www.apotheke-buehlau.de/", "__nodeId": 2609456216}}, {"type": "Feature", "geometry": {"type": "Polygon", "coordinates": [[[13.825118, 51.003835], [13.824219, 51.003835], [13.823769, 51.004285], [13.823769, 51.005184], [13.825118, 51.006533], [13.825568, 51.006083], [13.825568, 51.005184], [13.826018, 51.004734], [13.826917, 51.005634], [13.831413, 51.005634], [13.831863, 51.005184], [13.830964, 51.004285], [13.830964, 51.002486], [13.830514, 51.002037], [13.829615, 51.002936], [13.826018, 51.002936], [13.825118, 51.003835]]]}, "properties": {"addr:city": "Dresden", "addr:country": "DE", "addr:housenumber": "71", "addr:postcode": "01257", "addr:street": "Sachsenwerkstra\u00dfe", "amenity": "pharmacy", "contact:fax": "+49 351 2015696", "contact:phone": "+49 351 2015674", "contact:website": "http://apotheke-niedersedlitz.com/", "name": "Apotheke Niedersedlitz", "opening_hours": "Mo-Th 08:00-18:30; Fr 08:00-18:00", "operator": "Thomas Lappe", "wheelchair": "designated", "__nodeId": 2881281429}}, {"type": "Feature", "geometry": {"type": "Polygon", "coordinates": [[[13.699957, 51.042367], [13.699957, 51.045065], [13.700407, 51.045514], [13.703105, 51.045514], [13.704004, 51.044615], [13.704903, 51.044615], [13.705803, 51.045514], [13.706252, 51.045065], [13.706252, 51.043266], [13.705803, 51.042816], [13.704004, 51.042816], [13.703105, 51.041917], [13.700407, 51.041917], [13.699957, 51.042367]]]}, "properties": {"amenity": "pharmacy", "name": "easy Apotheke", "opening_hours": "Mo-Fr 08:00-19:00;Sa 08:00-16:00", "start_date": "2014-11", "wheelchair": "yes", "__nodeId": 3188267861}}, {"type": "Feature", "geometry": {"type": "Polygon", "coordinates": [[[13.83509, 51.002818], [13.835989, 51.003717], [13.835989, 51.004617], [13.836439, 51.005066], [13.840036, 51.005066], [13.841385, 51.003717], [13.841385, 51.001919], [13.840935, 51.001469], [13.840036, 51.001469], [13.839586, 51.001019], [13.839586, 51.00012], [13.839137, 50.999671], [13.83464, 50.999671], [13.834191, 51.00012], [13.834191, 51.001919], [13.83509, 51.002818]]]}, "properties": {"addr:city": "Dresden", "addr:country": "DE", "addr:housenumber": "34-36", "addr:postcode": "01259", "addr:street": "Sch\u00f6naer Stra\u00dfe", "amenity": "pharmacy", "contact:fax": "+49 351 2022731", "contact:phone": "+49 351 2022730", "contact:website": "http://www.auen-apotheke-dresden.de/", "dispensing": "yes", "name": "Auen-Apotheke", "opening_hours": "Mo-Fr 08:00-18:30; Sa 09:00-12:00", "operator": "Maureen Zieschang", "wheelchair": "no", "__nodeId": 3330031221}}, {"type": "Feature", "geometry": {"type": "Polygon", "coordinates": [[[13.713715, 51.076935], [13.712816, 51.076935], [13.712366, 51.077384], [13.712816, 51.077834], [13.713715, 51.077834], [13.714165, 51.078283], [13.714165, 51.079183], [13.714614, 51.079632], [13.715514, 51.079632], [13.716413, 51.080532], [13.717312, 51.080532], [13.718212, 51.079632], [13.72001, 51.079632], [13.722258, 51.077384], [13.72001, 51.075136], [13.718212, 51.075136], [13.717312, 51.076035], [13.714614, 51.076035], [13.713715, 51.076935]]]}, "properties": {"addr:city": "Dresden", "addr:housenumber": "118", "addr:postcode": "01127", "addr:street": "Leipziger Stra\u00dfe", "amenity": "pharmacy", "name": "Pfauen Apotheke", "opening_hours": "Mo-Fr 07:30-19:00;Sa 09:00-13:00", "phone": "+49 351 8495401", "website": "https://pfauenapotheke-dresden.de/", "wheelchair": "yes", "__nodeId": 3344301925}}, {"type": "Feature", "geometry": {"type": "Polygon", "coordinates": [[[13.765331, 51.05557], [13.764882, 51.05602], [13.764882, 51.058718], [13.765331, 51.059167], [13.76713, 51.059167], [13.768029, 51.060066], [13.768929, 51.060066], [13.770727, 51.058268], [13.772526, 51.058268], [13.772975, 51.057818], [13.769828, 51.054671], [13.768029, 51.054671], [13.76713, 51.05557], [13.765331, 51.05557]]]}, "properties": {"addr:city": "Dresden", "addr:country": "DE", "addr:housenumber": "41", "addr:postcode": "01307", "addr:street": "Pfotenhauerstra\u00dfe", "amenity": "pharmacy", "name": "Apotheke Johannstadt", "opening_hours": "Mo-Fr 08:00-18:30; Sa 09:00-13:00", "wheelchair": "yes", "__nodeId": 3358178778}}, {"type": "Feature", "geometry": {"type": "Polygon", "coordinates": [[[13.790606, 51.119763], [13.789257, 51.121112], [13.790156, 51.122011], [13.790156, 51.12381], [13.789257, 51.124709], [13.789706, 51.125159], [13.790606, 51.124259], [13.794203, 51.124259], [13.795552, 51.12291], [13.794203, 51.121562], [13.793303, 51.121562], [13.792854, 51.121112], [13.792854, 51.120213], [13.792404, 51.119763], [13.790606, 51.119763]]]}, "properties": {"amenity": "pharmacy", "name": "Apotheke im GZDK", "opening_hours": "Mo-Fr 09:00-19:00; Sa 09:00-13:00", "phone": "+48 351 88897717", "website": "https://www.apotheke-im-gzdk.de/", "__nodeId": 3725603342}}, {"type": "Feature", "geometry": {"type": "Polygon", "coordinates": [[[13.690228, 51.051295], [13.692926, 51.051295], [13.695174, 51.049047], [13.692926, 51.046799], [13.691127, 51.046799], [13.689778, 51.048147], [13.689778, 51.050845], [13.690228, 51.051295]]]}, "properties": {"addr:city": "Dresden", "addr:housenumber": "21", "addr:postcode": "01157", "addr:street": "Rudolf-Renner-Stra\u00dfe", "amenity": "pharmacy", "name": "Schanzen Apotheke L\u00f6btau", "opening_hours": "Mo-Fr 07:30-18:30, Sa 09:00-12:00", "wheelchair": "yes", "__nodeId": 3971170424}}, {"type": "Feature", "geometry": {"type": "Polygon", "coordinates": [[[13.777527, 51.05364], [13.777077, 51.054089], [13.777077, 51.054988], [13.780224, 51.058136], [13.782023, 51.058136], [13.782473, 51.057686], [13.782473, 51.056787], [13.782922, 51.056337], [13.784721, 51.056337], [13.786969, 51.054089], [13.786519, 51.05364], [13.784721, 51.05364], [13.782922, 51.051841], [13.781124, 51.051841], [13.780224, 51.050942], [13.779775, 51.051391], [13.779775, 51.052291], [13.779325, 51.05274], [13.778426, 51.05274], [13.777527, 51.05364]]]}, "properties": {"addr:city": "Dresden", "addr:country": "DE", "addr:housenumber": "19", "addr:postcode": "01307", "addr:street": "Fiedlerstra\u00dfe", "amenity": "pharmacy", "contact:email": "info@apotheke-am-ukd.de", "contact:fax": "+49 351 45698301", "contact:phone": "+49 351 45698300", "contact:website": "http://www.apotheke-am-ukd.de/die-apotheke.html", "dispensing": "yes", "name": "Apotheke am Universit\u00e4tsklinikum Dresden", "opening_hours": "Mo-Fr 08:00-20:00; Sa 09:00-16:00", "__nodeId": 4158218519}}, {"type": "Feature", "geometry": {"type": "Polygon", "coordinates": [[[13.692893, 51.084632], [13.692443, 51.085082], [13.692443, 51.085981], [13.692893, 51.086431], [13.694691, 51.086431], [13.695591, 51.085531], [13.69604, 51.085981], [13.69604, 51.08778], [13.69649, 51.088229], [13.697389, 51.088229], [13.697839, 51.08778], [13.697839, 51.084182], [13.69649, 51.082834], [13.694691, 51.082834], [13.692893, 51.084632]]]}, "properties": {"amenity": "pharmacy", "__nodeId": 4236994127}}, {"type": "Feature", "geometry": {"type": "Polygon", "coordinates": [[[13.871293, 51.014254], [13.871743, 51.014704], [13.874441, 51.014704], [13.87534, 51.015603], [13.876689, 51.014254], [13.876239, 51.013805], [13.87534, 51.013805], [13.87489, 51.013355], [13.87489, 51.012456], [13.875789, 51.011556], [13.87534, 51.011107], [13.874441, 51.012006], [13.872642, 51.012006], [13.870843, 51.010208], [13.870394, 51.010657], [13.870394, 51.013355], [13.871293, 51.014254]]]}, "properties": {"amenity": "pharmacy", "dispensing": "yes", "name": "Schloss-Apotheke", "phone": "+49 351 2618509", "__nodeId": 5502926757}}, {"type": "Feature", "geometry": {"type": "Polygon", "coordinates": [[[13.837575, 50.999889], [13.837125, 51.000339], [13.837125, 51.003037], [13.838474, 51.004385], [13.842971, 51.004385], [13.84432, 51.003037], [13.84432, 51.001238], [13.84387, 51.000788], [13.842971, 51.000788], [13.842521, 51.000339], [13.842521, 50.999439], [13.842071, 50.99899], [13.840273, 51.000788], [13.839374, 51.000788], [13.838474, 50.999889], [13.837575, 50.999889]]]}, "properties": {"amenity": "pharmacy", "dispensing": "yes", "healthcare": "pharmacy", "name": "Sonnen-Apotheke", "__nodeId": 6997948610}}, {"type": "Feature", "geometry": {"type": "Polygon", "coordinates": [[[13.729732, 51.049502], [13.728384, 51.050851], [13.729732, 51.0522], [13.730632, 51.0522], [13.731081, 51.052649], [13.731081, 51.053549], [13.731531, 51.053998], [13.73243, 51.053998], [13.73333, 51.053099], [13.736027, 51.053099], [13.736477, 51.052649], [13.736477, 51.050851], [13.737376, 51.049952], [13.736027, 51.048603], [13.735128, 51.048603], [13.734679, 51.048153], [13.734679, 51.047254], [13.734229, 51.046804], [13.73333, 51.047703], [13.731531, 51.047703], [13.729732, 51.049502]]]}, "properties": {"amenity": "pharmacy", "healthcare": "pharmacy", "__nodeId": 7019330986}}, {"type": "Feature", "geometry": {"type": "Polygon", "coordinates": [[[13.629386, 51.087239], [13.628037, 51.088588], [13.628487, 51.089038], [13.629386, 51.089038], [13.630285, 51.088139], [13.631185, 51.089038], [13.632084, 51.089038], [13.632983, 51.088139], [13.633882, 51.088139], [13.634332, 51.088588], [13.634332, 51.089488], [13.634782, 51.089937], [13.63658, 51.088139], [13.638379, 51.088139], [13.638829, 51.087689], [13.63658, 51.085441], [13.635681, 51.08634], [13.634782, 51.08634], [13.634332, 51.08589], [13.634332, 51.084991], [13.633882, 51.084542], [13.632084, 51.084542], [13.629386, 51.087239]]]}, "properties": {"addr:city": "Dresden", "addr:housenumber": "24", "addr:postcode": "01156", "addr:street": "Dresdner Stra\u00dfe", "amenity": "pharmacy", "building": "yes", "building:levels": "3", "fax": "+493514527992", "name": "Elbtal-Apotheke", "opening_hours": "Mo-Fr 08:00-18:30; Sa 08:00-12:00", "operator": "Birgit Wagner", "phone": "+493514527990", "source": "HiResAerialImagery", "wheelchair": "yes", "__nodeIds": [1331320155, 1331319624, 1331320228, 1331319479, 1331320071, 1331320537, 1331319681, 1331320173, 1331320155]}}, {"type": "Feature", "geometry": {"type": "Polygon", "coordinates": [[[13.628914, 51.087239], [13.627565, 51.088588], [13.628015, 51.089038], [13.631612, 51.089038], [13.632511, 51.088139], [13.636108, 51.088139], [13.636558, 51.087689], [13.63341, 51.084542], [13.632511, 51.085441], [13.630713, 51.085441], [13.630263, 51.08589], [13.630263, 51.08679], [13.629813, 51.087239], [13.628914, 51.087239]]]}, "properties": {"addr:city": "Dresden", "addr:housenumber": "17", "addr:postcode": "01156", "addr:street": "Dresdner Stra\u00dfe", "amenity": "pharmacy", "building": "house", "building:levels": "2", "email": "dd-ahornapotheke@avie-apotheke.de", "fax": "+4935145418147", "name": "AVIE Ahorn-Apotheke", "opening_hours": "Mo-Fr 08:00-18:30; Sa 08:00-12:00", "operator": "Matthias Fischer-Sch\u00e4fer", "phone": "+4935145418146", "source": "HiResAerialImagery", "website": "http://www.avie-apotheke.de/dd-ahornapotheke", "wheelchair": "yes", "__nodeIds": [1331396319, 1331398798, 1331396280, 1331398463, 1331396319]}}, {"type": "Feature", "geometry": {"type": "Polygon", "coordinates": [[[13.700696, 51.04339], [13.700246, 51.04384], [13.700246, 51.044739], [13.700696, 51.045189], [13.701595, 51.045189], [13.702495, 51.046088], [13.706092, 51.046088], [13.707441, 51.044739], [13.707441, 51.04294], [13.706092, 51.041592], [13.704293, 51.041592], [13.703394, 51.040692], [13.702495, 51.040692], [13.701146, 51.042041], [13.701146, 51.04294], [13.700696, 51.04339]]]}, "properties": {"amenity": "pharmacy", "indoor": "room", "level": "0", "name": "Apotheke L\u00f6btau-Passage", "opening_hours": "Mo-Fr 08:00-19:00; Sa 08:00-18:00", "operator": "Maria Nitso", "room": "shop", "wheelchair": "yes", "__nodeIds": [3952020769, 3952020762, 3952020054, 3952020053, 3952020761, 3952020768, 3952020769]}}]}